aba_number,address,city,state,bank_name
41204726,120 NORTH ST.,BELLEVUE,OHIO,FIRST NATIONAL BANK
42102270,202 SOUTH MAIN STREET,LONDON,KENTUCKY,FIRST NATIONAL BANK
42102571,1126 MAIN STREET,JACKSON,KENTUCKY,FIRST NATIONAL BANK
42103473,200 SOUTH CAROL MALONE BLVD,GRAYSON,KENTUCKY,FIRST NATIONAL BANK
42105442,120 TOWN SQUARE,MANCHESTER,KENTUCKY,FIRST NATIONAL BANK
42206422,121 EAST MAIN STREET,BLANCHESTER,OHIO,FIRST NATIONAL BANK
42206503,17 NORTH MAIN STREET,GERMANTOWN,OHIO,FIRST NATIONAL BANK
42306720,P.O. BOX 68,NEW BREMEN,OHIO,FIRST NATIONAL BANK
44106384,86 N. KENNEBEC AVE.,MCCONNELSVILLE,OHIO,FIRST NATIONAL BANK
44206475,P.O. BOX 147,WAVERLY,OHIO,FIRST NATIONAL BANK
51403041,P O BOX 29,ALTAVISTA,VIRGINIA,FIRST NATIONAL BANK
61202245,626 LIBERTY STREET,WAYNESBORO,GEORGIA,FIRST NATIONAL BANK
63104312,3000 HWY 19A,MOUNT DORA,FLORIDA,FIRST NATIONAL BANK
64101194,PO BOX 289,PULASKI,TENNESSEE,FIRST NATIONAL BANK
64102371,P.O. BOX 989,MANCHESTER,TENNESSEE,FIRST NATIONAL BANK
64107994,PO BOX 289,PULASKI,TENNESSEE,FIRST NATIONAL BANK
64204444,P.O. BOX 950,HELENWOOD,TENNESSEE,FIRST NATIONAL BANK
65505870,121 E. CANAL STREET,PICAYUNE,MISSISSIPPI,FIRST NATIONAL BANK
71122564,1601 15TH STREET,MOLINE,ILLINOIS,FIRST NATIONAL BANK
73902766,316 EAST BREMER AVENUE,WAVERLY,IOWA,FIRST NATIONAL BANK
73904890,PO BOX 325,MANNING,IOWA,FIRST NATIONAL BANK
73907855,PO BOX 68,PRIMGHAR,IOWA,FIRST NATIONAL BANK
73910237,801 S. FREMONT,SHENANDOAH,IOWA,FIRST NATIONAL BANK
73915520,101 EAST MAIN ST,REMBRANDT,IOWA,FIRST NATIONAL BANK
73922940,316 E BREMER AVE,WAVERLY,IOWA,FIRST NATIONAL BANK
74907126,302 S MAIN STREET,CLOVERDALE,INDIANA,FIRST NATIONAL BANK
81017478,PO BOX 507,WATERLOO,ILLINOIS,FIRST NATIONAL BANK
81205112,432 W GALLATIN STREET,VANDALIA,ILLINOIS,FIRST NATIONAL BANK
81205222,115 N WALNUT ST,CARMI,ILLINOIS,FIRST NATIONAL BANK
81211300,301 E MAIN ST,ALLENDALE,ILLINOIS,FIRST NATIONAL BANK
81211928,P.O. BOX 310,BROWNSTOWN,ILLINOIS,FIRST NATIONAL BANK
81220087,301 E MAIN ST,ALLENDALE,ILLINOIS,FIRST NATIONAL BANK
81903524,324 N STATE ST,LITCHFIELD,ILLINOIS,FIRST NATIONAL BANK
81904015,115 SOUTH ELM,STAUNTON,ILLINOIS,FIRST NATIONAL BANK
81905069,P.O. BOX 377,SPARTA,ILLINOIS,FIRST NATIONAL BANK
81905344,210 S MAIN ST,PINCKNEYVILLE,ILLINOIS,FIRST NATIONAL BANK
81909146,P.O. BOX 469,RAYMOND,ILLINOIS,FIRST NATIONAL BANK
83905892,P O BOX 220,RUSSELL SPRINGS,KENTUCKY,FIRST NATIONAL BANK
91108746,400 SUNDAY LAKE STREET,WAKEFIELD,MICHIGAN,FIRST NATIONAL BANK
91200738,P.O.BOX 547,CHISHOLM,MINNESOTA,FIRST NATIONAL BANK
91201232,1600 PAUL BUNYAN DRIVE NW,BEMIDJI,MINNESOTA,FIRST NATIONAL BANK
91204080,PO BOX N,BAGLEY,MINNESOTA,FIRST NATIONAL BANK
91204255,109 NORTH ST. PAUL AVENUE,FULDA,MINNESOTA,FIRST NATIONAL BANK
91204569,PO BOX 129,MCINTOSH,MINNESOTA,FIRST NATIONAL BANK
91204763,PO BOX 96,HENNING,MINNESOTA,FIRST NATIONAL BANK
91212179,1307 E 7TH ST,ATLANTIC,IOWA,FIRST NATIONAL BANK
91403140,PO BOX 576,FREDERICK,SOUTH DAKOTA,FIRST NATIONAL BANK
91407191,PO BOX 67,RAMONA,SOUTH DAKOTA,FIRST NATIONAL BANK
91408381,141 EAST MAIN STREET,OLDHAM,SOUTH DAKOTA,FIRST NATIONAL BANK
91409801,3455 AVE OF THE CITIES,MOLINE,ILLINOIS,FIRST NATIONAL BANK
91803957,BOX 129,BANGOR,WISCONSIN,FIRST NATIONAL BANK
91901561,101 N STATE ST,WASECA,MINNESOTA,FIRST NATIONAL BANK
91903310,PO BOX 38,MILACA,MINNESOTA,FIRST NATIONAL BANK
91903530,PO BOX 580,OSAKIS,MINNESOTA,FIRST NATIONAL BANK
91904018,PO BOX 200,FAIRFAX,MINNESOTA,FIRST NATIONAL BANK
91904270,PO BOX 160,LE CENTER,MINNESOTA,FIRST NATIONAL BANK
91905648,PO BOX 520,WALKER,MINNESOTA,FIRST NATIONAL BANK
91909068,211 SECOND STREET,PROCTOR,MINNESOTA,FIRST NATIONAL BANK
91913177,P.O. BOX 490,COKATO,MINNESOTA,FIRST NATIONAL BANK
101101866,101 E. MAIN,BELOIT,KANSAS,FIRST NATIONAL BANK
101102548,202 E 11TH STREET,GOODLAND,KANSAS,FIRST NATIONAL BANK
101106560,105 EAST LONG,DIGHTON,KANSAS,FIRST NATIONAL BANK
101113812,1201 W AMITY,LOUISBURG,KANSAS,FIRST NATIONAL BANK
101113841,P O BOX 6,HARVEYVILLE,KANSAS,FIRST NATIONAL BANK
101114031,PO BOX 67,HOPE,KANSAS,FIRST NATIONAL BANK
101115111,806 W. 5TH ST.,WAMEGO,KANSAS,FIRST NATIONAL BANK
101201164,P O BOX 388,NEVADA,MISSOURI,FIRST NATIONAL BANK
103100522,405 W MAIN,ARDMORE,OKLAHOMA,FIRST NATIONAL BANK
103101424,405 MAIN ST.,ARDMORE,OKLAHOMA,FIRST NATIONAL BANK
103102203,P.O. BOX 366,PAWNEE,OKLAHOMA,FIRST NATIONAL BANK
103102494,301 W MAIN,MARLOW,OKLAHOMA,FIRST NATIONAL BANK
103102889,P.O. BOX 70,BROKEN ARROW,OKLAHOMA,FIRST NATIONAL BANK
103103147,301 W. BROADWAY,THOMAS,OKLAHOMA,FIRST NATIONAL BANK
103103600,106 S BROADWAY,COWETA,OKLAHOMA,FIRST NATIONAL BANK
103104544,400 E. 1ST STREET,HEAVENER,OKLAHOMA,FIRST NATIONAL BANK
103107486,P O BOX 429,FLETCHER,OKLAHOMA,FIRST NATIONAL BANK
103110046,DRAWER 840,HOOKER,OKLAHOMA,FIRST NATIONAL BANK
103110428,124 NORTH MAIN,OKEENE,OKLAHOMA,FIRST NATIONAL BANK
104100945,202 MAIN STREET,CHADRON,NEBRASKA,FIRST NATIONAL BANK
104101465,1411 M ST,ORD,NEBRASKA,FIRST NATIONAL BANK
104113217,1411 M ST,ORD,NEBRASKA,FIRST NATIONAL BANK
104900585,P.O. BOX 418,FAIRBURY,NEBRASKA,FIRST NATIONAL BANK
104904882,323 E 7TH ST.,LOGAN,IOWA,FIRST NATIONAL BANK
104905881,125 MAIN STREET,JOHNSON,NEBRASKA,FIRST NATIONAL BANK
107001960,P O BOX 578,FORT COLLINS,COLORADO,FIRST NATIONAL BANK
107003353,P O BOX 578,FORT COLLINS,COLORADO,FIRST NATIONAL BANK
107006677,303 W. MAIN,ARTESIA,NEW MEXICO,FIRST NATIONAL BANK
111101225,2001 N TRENTON ST,RUSTON,LOUISIANA,FIRST NATIONAL BANK
111302587,911 HUTCHINGS,BALLINGER,TEXAS,FIRST NATIONAL BANK
111304608,1021 12TH STREET,ANSON,TEXAS,FIRST NATIONAL BANK
111306059,717 10TH STREET,PADUCAH,TEXAS,FIRST NATIONAL BANK
111306758,118 N GARFIELD,ROTAN,TEXAS,FIRST NATIONAL BANK
111307252,602 4TH STREET,STERLING CITY,TEXAS,FIRST NATIONAL BANK
111307265,1601 SOUTH 1ST STREET,TAHOKA,TEXAS,FIRST NATIONAL BANK
111307841,100 SOUTH MAIN,ELDORADO,TEXAS,FIRST NATIONAL BANK
111308358,PO BOX 550,FLOYDADA,TEXAS,FIRST NATIONAL BANK
111309234,136 W 7TH,ASPERMONT,TEXAS,FIRST NATIONAL BANK
111311785,P.O. BOX 589,MERTZON,TEXAS,FIRST NATIONAL BANK
111313479,P O BOX 1040,WHEELER,TEXAS,FIRST NATIONAL BANK
111315794,729 W. 7TH ST.,SPEARMAN,TEXAS,FIRST NATIONAL BANK
111319538,320 EAST MAIN,QUITAQUE,TEXAS,FIRST NATIONAL BANK
111901988,220 PALO PINTO STREET,WEATHERFORD,TEXAS,FIRST NATIONAL BANK
111904192,P O BOX 909,MT VERNON,TEXAS,FIRST NATIONAL BANK
111904480,401 SOUTH MAIN STREET,MCGREGOR,TEXAS,FIRST NATIONAL BANK
111904859,315 N. MAIN,WINNSBORO,TEXAS,FIRST NATIONAL BANK
111905324,11 WESTSIDE SQUARE,COOPER,TEXAS,FIRST NATIONAL BANK
111905434,P O BOX 587,KEMP,TEXAS,FIRST NATIONAL BANK
111906161,214 NORTH HOUSTON STREET,GRANBURY,TEXAS,FIRST NATIONAL BANK
111907348,101 7TH STREET,MOODY,TEXAS,FIRST NATIONAL BANK
111908509,BOX 137,GORDON,TEXAS,FIRST NATIONAL BANK
111908583,106 HAMILTON,TRENTON,TEXAS,FIRST NATIONAL BANK
111908758,BOX 158,LIPAN,TEXAS,FIRST NATIONAL BANK
111909281,899 NE ALSBURY,BURLESON,TEXAS,FIRST NATIONAL BANK
111911033,505 EAST 1ST STREET,HUGHES SPRINGS,TEXAS,FIRST NATIONAL BANK
111912090,115 S MEMORY LANE,EVANT,TEXAS,FIRST NATIONAL BANK
111913248,109 S BRITTON ST,TOM BEAN,TEXAS,FIRST NATIONAL BANK
111914878,115 S MEMORY LANE,EVANT,TEXAS,FIRST NATIONAL BANK
111915770,825 N. PATRICK,DUBLIN,TEXAS,FIRST NATIONAL BANK
111916452,P.O. BOX 94905,WICHITA FALLS,TEXAS,FIRST NATIONAL BANK
111920516,P O BOX 440,DUBLIN,TEXAS,FIRST NATIONAL BANK
112202123,414 TENTH STREET,ALAMOGORDO,NEW MEXICO,FIRST NATIONAL BANK
112307222,119 NORTH SAINT PETER,STANTON,TEXAS,FIRST NATIONAL BANK
112323387,1000 W. DICKINSON,FT STOCKTON,TEXAS,FIRST NATIONAL BANK
113101317,122 WESTWAY,LAKE JACKSON,TEXAS,FIRST NATIONAL BANK
113103687,100 E. MAIN,BELLVILLE,TEXAS,FIRST NATIONAL BANK
113104000,1300 11TH STREET,HUNTSVILLE,TEXAS,FIRST NATIONAL BANK
113104712,P O BOX 269,GIDDINGS,TEXAS,FIRST NATIONAL BANK
113104880,100 COMMERCE STREET,EAGLE LAKE,TEXAS,FIRST NATIONAL BANK
113105452,308 W. CHURCH ST,LIVINGSTON,TEXAS,FIRST NATIONAL BANK
113106833,PO BOX 607,SHINER,TEXAS,FIRST NATIONAL BANK
113108802,80 SUGAR CREEK CENTER BLVD,SUGAR LAND,TEXAS,FIRST NATIONAL BANK
113109131,1071 HWY 90 SOUTH,ANDERSON,TEXAS,FIRST NATIONAL BANK
113113868,105 SOUTH ROBB ST,TRINITY,TEXAS,FIRST NATIONAL BANK
113123162,1101 HIGHWAY 35 SOUTH,PORT LAVACA,TEXAS,FIRST NATIONAL BANK
113123560,P O BOX 700,JASPER,TEXAS,FIRST NATIONAL BANK
113123625,505 EAST 1ST STREET,HUGHES SPRINGS,TEXAS,FIRST NATIONAL BANK
113123654,2301 N MAIN,PEARLAND,TEXAS,FIRST NATIONAL BANK
114902777,1400 E. HOUSTON,BEEVILLE,TEXAS,FIRST NATIONAL BANK
114904953,489 HWY 71 W,BASTROP,TEXAS,FIRST NATIONAL BANK
114912479,709 PADRE BLVD.,SOUTH PADRE ISLAND,TEXAS,FIRST NATIONAL BANK
114916019,P O BOX 99,HEBBRONVILLE,TEXAS,FIRST NATIONAL BANK
114919676,PO BOX 678,FALFURRIAS,TEXAS,FIRST NATIONAL BANK
11000138,8001 VILLA PARK DRIVE,HENRICO,VIRGINIA,"BANK OF AMERICA, N.A."
11001742,PO BOX 27025,RICHMOND,VIRGINIA,"BANK OF AMERICA, N.A."
11200365,8001 VILLA PARK DRIVE,HENRICO,VIRGINIA,"BANK OF AMERICA, N.A."
11400495,8001 VILLA PARK DRIVE,HENRICO,VIRGINIA,"BANK OF AMERICA, N.A."
11500010,8001 VILLA PARK DRIVE,HENRICO,VIRGINIA,"BANK OF AMERICA, N.A."
11900571,8001 VILLA PARK DRIVE,HENRICO,VIRGINIA,"BANK OF AMERICA, N.A."
21000322,VA2-430-01-01,RICHMOND,VIRGINIA,"BANK OF AMERICA, N.A."
21100329,VA2-430-01-01,RICHMOND,VIRGINIA,"BANK OF AMERICA, N.A."
21202609,VA2-430-01-01,RICHMOND,VIRGINIA,"BANK OF AMERICA, N.A."
21404465,VA2-430-01-01,RICHMOND,VIRGINIA,"BANK OF AMERICA, N.A."
21901748,VA2-430-01-01,RICHMOND,VIRGINIA,"BANK OF AMERICA, N.A."
22000127,8001 VILLA PARK DRIVE,HENRICO,VIRGINIA,"BANK OF AMERICA, N.A."
22300160,VA2-430-01-01,RICHMOND,VIRGINIA,"BANK OF AMERICA, N.A."
28000325,VA2-430-01-01,RICHMOND,VIRGINIA,"BANK OF AMERICA, N.A."
31100160,ATTN: ACH COORDINATOR/MS2912,WILMINGTON,DELAWARE,"BANK OF AMERICA, N.A."
51000017,8001 VILLA PARK DRIVE,HENRICO,VIRGINIA,"BANK OF AMERICA, N.A."
51000101,"PO BOX 27025, VA2-430-01-01",RICHMOND,VIRGINIA,"BANK OF AMERICA, N.A."
51400361,"PO BOX 27025, VA2-430-01-01",RICHMOND,VIRGINIA,"BANK OF AMERICA, N.A."
51400507,"PO BOX 27025, VA2-430-01-01",RICHMOND,VIRGINIA,"BANK OF AMERICA, N.A."
51400646,"PO BOX 27025, VA2-430-01-01",RICHMOND,VIRGINIA,"BANK OF AMERICA, N.A."
52001633,8001 VILLA PARK DRIVE,HENRICO,VIRGINIA,"BANK OF AMERICA, N.A."
53000196,"P O BOX 27025, VA2-430-01-01",RICHMOND,VIRGINIA,"BANK OF AMERICA, N.A."
53100258,"PO BOX 27025, VA2-430-01-01",RICHMOND,VIRGINIA,"BANK OF AMERICA, N.A."
53100559,"PO BOX 27025, VA2-430-01-01",RICHMOND,VIRGINIA,"BANK OF AMERICA, N.A."
53101396,"PO BOX 27025, VA2-430-01-01",RICHMOND,VIRGINIA,"BANK OF AMERICA, N.A."
53107989,"PO BOX 27025, VA2-430-01-01",RICHMOND,VIRGINIA,"BANK OF AMERICA, N.A."
53200064,"PO BOX 27025, VA2-430-01-01",RICHMOND,VIRGINIA,"BANK OF AMERICA, N.A."
53200446,"PO BOX 27025, VA2-430-01-01",RICHMOND,VIRGINIA,"BANK OF AMERICA, N.A."
53201610,"PO BOX 27025, VA2-430-01-01",RICHMOND,VIRGINIA,"BANK OF AMERICA, N.A."
53900377,"PO BOX 27025, VA2-430-01-01",RICHMOND,VIRGINIA,"BANK OF AMERICA, N.A."
53904483,8001 VILLA PARK DRIVE,HENRICO,VIRGINIA,"BANK OF AMERICA, N.A."
54001204,8001 VILLA PARK DRIVE,HENRICO,VIRGINIA,"BANK OF AMERICA, N.A."
55002341,"PO BOX 27025, VA2-430-01-01",RICHMOND,VIRGINIA,"BANK OF AMERICA, N.A."
56007387,"PO BOX 27025, VA2-430-01-01",RICHMOND,VIRGINIA,"BANK OF AMERICA, N.A."
61000052,8001 VILLA PARK DRIVE,HENRICO,VIRGINIA,"BANK OF AMERICA, N.A."
61000078,"PO BOX 27025, VA2-430-01-01",RICHMOND,VIRGINIA,"BANK OF AMERICA, N.A."
61112788,"PO BOX 27025, VA2-430-01-01",RICHMOND,VIRGINIA,"BANK OF AMERICA, N.A."
63000047,"PO BOX 27025, VA2-430-01-01",RICHMOND,VIRGINIA,"BANK OF AMERICA, N.A."
63100277,8001 VILLA PARK DRIVE,HENRICO,VIRGINIA,"BANK OF AMERICA, N.A."
63100552,"PO BOX 27025, VA2-430-01-01",RICHMOND,VIRGINIA,"BANK OF AMERICA, N.A."
63100714,"PO BOX 27025, VA2-430-01-01",RICHMOND,VIRGINIA,"BANK OF AMERICA, N.A."
63103193,"PO BOX 27025, VA2-430-01-01",RICHMOND,VIRGINIA,"BANK OF AMERICA, N.A."
63104215,"PO BOX 27025, VA2-430-01-01",RICHMOND,VIRGINIA,"BANK OF AMERICA, N.A."
63104697,"PO BOX 27025, VA2-430-01-01",RICHMOND,VIRGINIA,"BANK OF AMERICA, N.A."
63104972,"PO BOX 27025, VA2-430-01-01",RICHMOND,VIRGINIA,"BANK OF AMERICA, N.A."
63105683,"PO BOX 27025, VA2-430-01-01",RICHMOND,VIRGINIA,"BANK OF AMERICA, N.A."
63106006,"PO BOX 27025, VA2-430-01-01",RICHMOND,VIRGINIA,"BANK OF AMERICA, N.A."
63106129,"PO BOX 27025, VA2-430-01-01",RICHMOND,VIRGINIA,"BANK OF AMERICA, N.A."
63106145,"PO BOX 27025, VA2-430-01-01",RICHMOND,VIRGINIA,"BANK OF AMERICA, N.A."
63106268,"PO BOX 27025, VA2-430-01-01",RICHMOND,VIRGINIA,"BANK OF AMERICA, N.A."
63107610,"PO BOX 27025, VA2-430-01-01",RICHMOND,VIRGINIA,"BANK OF AMERICA, N.A."
63109058,"PO BOX 27025, VA2-430-01-01",RICHMOND,VIRGINIA,"BANK OF AMERICA, N.A."
63110092,"PO BOX 27025, VA2-430-01-01",RICHMOND,VIRGINIA,"BANK OF AMERICA, N.A."
63112294,"PO BOX 27025, VA2-430-01-01",RICHMOND,VIRGINIA,"BANK OF AMERICA, N.A."
63200407,"PO BOX 27025, VA2-430-01-01",RICHMOND,VIRGINIA,"BANK OF AMERICA, N.A."
63201040,VA2-430-01-01,RICHMOND,VIRGINIA,"BANK OF AMERICA, N.A."
64000020,8001 VILLA PARK DRIVE,HENRICO,VIRGINIA,"BANK OF AMERICA, N.A."
66005502,VA2-430-01-01,RICHMOND,VIRGINIA,"BANK OF AMERICA, N.A."
67002436,"PO BOX 27025, VA2-430-01-01",RICHMOND,VIRGINIA,"BANK OF AMERICA, N.A."
67003985,"PO BOX 27025, VA2-430-01-01",RICHMOND,VIRGINIA,"BANK OF AMERICA, N.A."
67005475,"PO BOX 27025, VA2-430-01-01",RICHMOND,VIRGINIA,"BANK OF AMERICA, N.A."
67005679,"PO BOX 27025, VA2-430-01-01",RICHMOND,VIRGINIA,"BANK OF AMERICA, N.A."
67006063,"PO BOX 27025, VA2-430-01-01",RICHMOND,VIRGINIA,"BANK OF AMERICA, N.A."
67006238,"PO BOX 27025, VA2-430-01-01",RICHMOND,VIRGINIA,"BANK OF AMERICA, N.A."
67007130,"PO BOX 27025, VA2-430-01-01",RICHMOND,VIRGINIA,"BANK OF AMERICA, N.A."
67007758,"PO BOX 27025, VA2-430-01-01",RICHMOND,VIRGINIA,"BANK OF AMERICA, N.A."
67007949,"PO BOX 27025, VA2-430-01-01",RICHMOND,VIRGINIA,"BANK OF AMERICA, N.A."
67008579,"PO BOX 27025, VA2-430-01-01",RICHMOND,VIRGINIA,"BANK OF AMERICA, N.A."
67008582,"PO BOX 27025, VA2-430-01-01",RICHMOND,VIRGINIA,"BANK OF AMERICA, N.A."
67014026,"PO BOX 27025, VA2-430-01-01",RICHMOND,VIRGINIA,"BANK OF AMERICA, N.A."
71000039,P O BOX 27025,RICHMOND,VIRGINIA,"BANK OF AMERICA, N.A."
71000505,SUITE 823,CHICAGO,ILLINOIS,"BANK OF AMERICA, N.A."
71923284,P O BOX 27025,RICHMOND,VIRGINIA,"BANK OF AMERICA, N.A."
81000032,8001 VILLA PARK DRIVE,HENRICO,VIRGINIA,"BANK OF AMERICA, N.A."
81904808,VA2-430-01-01,RICHMOND,VIRGINIA,"BANK OF AMERICA, N.A."
82907545,VA2-430-01-01,RICHMOND,VIRGINIA,"BANK OF AMERICA, N.A."
82908560,VA2-430-01-01,RICHMOND,VIRGINIA,"BANK OF AMERICA, N.A."
84000819,VA2-430-01-01,RICHMOND,VIRGINIA,"BANK OF AMERICA, N.A."
86500087,VA2-430-01-01,RICHMOND,VIRGINIA,"BANK OF AMERICA, N.A."
101000035,PO BOX 27025,RICHMOND,VIRGINIA,"BANK OF AMERICA, N.A."
101001173,PO BOX 27025,RICHMOND,VIRGINIA,"BANK OF AMERICA, N.A."
103000017,8001 VILLA PARK DRIVE,HENRICO,VIRGINIA,"BANK OF AMERICA, N.A."
107000327,8001 VILLA PARK DRIVE,HENRICO,VIRGINIA,"BANK OF AMERICA, N.A."
111000012,8001 VILLA PARK DRIVE,HENRICO,VIRGINIA,"BANK OF AMERICA, N.A."
111000025,8001 VILLA PARK DRIVE,HENRICO,VIRGINIA,"BANK OF AMERICA, N.A."
113000023,8001 VILLA PARK DRIVE,HENRICO,VIRGINIA,"BANK OF AMERICA, N.A."
121000044,PO BOX 27025,RICHMOND,VIRGINIA,"BANK OF AMERICA, N.A."
121000345,PO BOX 27025,RICHMOND,VIRGINIA,"BANK OF AMERICA, N.A."
121000358,8001 VILLA PARK DRIVE,HENRICO,VIRGINIA,"BANK OF AMERICA, N.A."
121000536,PO BOX 27025,RICHMOND,VIRGINIA,"BANK OF AMERICA, N.A."
121000853,PO BOX 27025,RICHMOND,VIRGINIA,"BANK OF AMERICA, N.A."
121103886,PO BOX 27025,RICHMOND,VIRGINIA,"BANK OF AMERICA, N.A."
121108250,PO BOX 27025,RICHMOND,VIRGINIA,"BANK OF AMERICA, N.A."
122000030,8001 VILLA PARK DRIVE,HENRICO,VIRGINIA,"BANK OF AMERICA, N.A."
122000616,PO BOX 27025,RICHMOND,VIRGINIA,"BANK OF AMERICA, N.A."
122000661,PO BOX 27025,RICHMOND,VIRGINIA,"BANK OF AMERICA, N.A."
122101706,8001 VILLA PARK DRIVE,HENRICO,VIRGINIA,"BANK OF AMERICA, N.A."
122203248,PO BOX 37025,SAN FRANCISCO,CALIFORNIA,"BANK OF AMERICA, N.A."
122206216,PO BOX 27025,RICHMOND,VIRGINIA,"BANK OF AMERICA, N.A."
122400724,8001 VILLA PARK DRIVE,HENRICO,VIRGINIA,"BANK OF AMERICA, N.A."
221172513,VA2-430-01-01,RICHMOND,VIRGINIA,"BANK OF AMERICA, N.A."
221270347,VA2-430-01-01,RICHMOND,VIRGINIA,"BANK OF AMERICA, N.A."
221371246,VA2-430-01-01,RICHMOND,VIRGINIA,"BANK OF AMERICA, N.A."
267086058,"PO BOX 27025, VA2-430-01-01",RICHMOND,VIRGINIA,"BANK OF AMERICA, N.A."
323070380,8001 VILLA PARK DRIVE,HENRICO,VIRGINIA,"BANK OF AMERICA, N.A."
51502528,660 CENTRAL AVE,BARBOURSVILLE,WEST VIRGINIA,FIRST STATE BANK
61101113,PO BOX 555,WRENS,GEORGIA,FIRST STATE BANK
62201892,88730 HWY 9,LINEVILLE,ALABAMA,FIRST STATE BANK
63113523,2323 STICKNEY PT RD,SARASOTA,FLORIDA,FIRST STATE BANK
65301689,P.O. BOX 506,WAYNESBORO,MISSISSIPPI,FIRST STATE BANK
65304084,717 WAYNE ST,WAYNESBORO,MISSISSIPPI,FIRST STATE BANK
65305863,717 WAYNE STREET,WAYNESBORO,MISSISSIPPI,FIRST STATE BANK
65306079,717 WAYNE ST,WAYNESBORO,MISSISSIPPI,FIRST STATE BANK
71114491,719 WASHINGTON ST,MENDOTH,ILLINOIS,FIRST STATE BANK
71121963,201 W MAIN STREET,MONTICELLO,ILLINOIS,FIRST STATE BANK
71921532,719 WASHINGTON ST,MENDOTA,ILLINOIS,FIRST STATE BANK
73904939,106 W FIRST ST,SUNMER,IOWA,FIRST STATE BANK
73905417,PO BOX 187,LYNNVILLE,IOWA,FIRST STATE BANK
73913425,PO BOX 187,LYNNVILLE,IOWA,FIRST STATE BANK
73914411,P O BOX 187,LYNNVLLE,IOWA,FIRST STATE BANK
73920874,P O BOX 8,BRITT,IOWA,FIRST STATE BANK
73921543,304 E MAIN STREET,BELMOND,IOWA,FIRST STATE BANK
73921585,200 MOOREHEAD AVE,IDA GROVE,IOWA,FIRST STATE BANK
73921718,P O BOX 70,WEBSTER CITY,IOWA,FIRST STATE BANK
73921967,P.O. BOX 400,STUART,IOWA,FIRST STATE BANK
73922885,401 MAIN ST,NASHUA,IOWA,FIRST STATE BANK
75907497,113 W NORTH WATER ST,NEW LONDON,WISCONSIN,FIRST STATE BANK
75909660,113 W NORTH WATER ST,NEW LONDON,WISCONSIN,FIRST STATE BANK
81511754,106 E CLEVELAND,MONETT,MISSOURI,FIRST STATE BANK
81912379,114 WEST FRONT ST,CAMPBELL HILL,ILLINOIS,FIRST STATE BANK
82901020,200 PINE ST.,CROSSETT,ARKANSAS,FIRST STATE BANK
82901596,P.O. BOX 29,WARREN,ARKANSAS,FIRST STATE BANK
82903497,101 SOUTH CENTER STREET,LONOKE,ARKANSAS,FIRST STATE BANK
83901210,P.O. BOX 365,IRVINGTON,KENTUCKY,FIRST STATE BANK
83903564,PO BOX 365,IRVINGTON,KENTUCKY,FIRST STATE BANK
84204628,P.O. BOX 580,HOLLY SPRINGS,MISSISSIPPI,FIRST STATE BANK
91210744,400 MAIN AVENUE,BIGFORK,MINNESOTA,FIRST STATE BANK
91305329,BOX 68,BUXTON,NORTH DAKOTA,FIRST STATE BANK
91405258,PO BOX 77,GROTON,SOUTH DAKOTA,FIRST STATE BANK
91407667,709 MAIN ST,WILMOT,SOUTH DAKOTA,FIRST STATE BANK
91902049,423 MAIN STREET,SAUK CENTRE,MINNESOTA,FIRST STATE BANK
91905525,PO BOX 128,SWANVILLE,MINNESOTA,FIRST STATE BANK
91911548,PO BOX 308,WYOMING,MINNESOTA,FIRST STATE BANK
92902271,P.O. BOX 913,SHELBY,MONTANA,FIRST STATE BANK
101102768,105 W MAIN,NORTON,KANSAS,FIRST STATE BANK
101112318,206 N PENN,NESS CITY,KANSAS,FIRST STATE BANK
103008404,102 N. MAIN,NOBLE,OKLAHOMA,FIRST STATE BANK
103101505,102 W MAIN,ANADARKO,OKLAHOMA,FIRST STATE BANK
103101929,BOX 540,WATONGA,OKLAHOMA,FIRST STATE BANK
103102193,1111 S MUSKOGEE AVE,TAHLEQUAH,OKLAHOMA,FIRST STATE BANK
103103642,P O BOX 158,WAYNOKA,OKLAHOMA,FIRST STATE BANK
103103749,P.O. BOX 58,PONDCREEK,OKLAHOMA,FIRST STATE BANK
103107402,206 SOUTH MAIN,ELMORE CITY,OKLAHOMA,FIRST STATE BANK
103110237,P.O. BOX 1179,BOISE CITY,OKLAHOMA,FIRST STATE BANK
104102257,P O BOX 725,RANDOLPH,NEBRASKA,FIRST STATE BANK
104108691,P O BOX 96,FARNAM,NEBRASKA,FIRST STATE BANK
104111769,P. O. BOX 79,GOTHENBURG,NEBRASKA,FIRST STATE BANK
104113343,2002 BROADWAY,SCOTTSBLUFF,NEBRASKA,FIRST STATE BANK
104900116,PO BOX 549,FREMONT,NEBRASKA,FIRST STATE BANK
104900886,105 W MAIN,NORTON,KANSAS,FIRST STATE BANK
104901610,P.O. BOX 79,GOTHENBURG,NEBRASKA,FIRST STATE BANK
104904646,P O BOX 96,FARNAM,NEBRASKA,FIRST STATE BANK
104905836,211 COMMERCIAL ST,LOOMIS,NEBRASKA,FIRST STATE BANK
104907562,201 MAIN STREET,HORDVILLE,NEBRASKA,FIRST STATE BANK
104908257,211 COMMERCIAL ST,LOOMIS,NEBRASKA,FIRST STATE BANK
111308633,P.O. BOX 48,STRATFORD,TEXAS,FIRST STATE BANK
111309030,402 9TH ST,ABERNATHY,TEXAS,FIRST STATE BANK
111311743,101 WEST SAN SABA STREET,MENARD,TEXAS,FIRST STATE BANK
111311840,101 S. WHEELER STREET,MOBEETIE,TEXAS,FIRST STATE BANK
111312205,P O BOX 247,PAINT ROCK,TEXAS,FIRST STATE BANK
111312894,P O BOX 1988,GRAHAM,TEXAS,FIRST STATE BANK
111317844,ONE N.E. COURT,SPEARMAN,TEXAS,FIRST STATE BANK
111320925,P O BOX 160,SHALLOWATER,TEXAS,FIRST STATE BANK
111323689,P O BOX 160,SHALLOWATER,TEXAS,FIRST STATE BANK
111901467,P O BOX 10,GAINESVILLE,TEXAS,FIRST STATE BANK
111904150,110 W PANOLA,CARTHAGE,TEXAS,FIRST STATE BANK
111906462,201 S. WEATHERFORD STREET,CHICO,TEXAS,FIRST STATE BANK
111907694,P O BOX 10,GAINESVILLE,TEXAS,FIRST STATE BANK
111909443,P.O. BOX 97,BEN WHEELER,TEXAS,FIRST STATE BANK
111912252,801 E CALIFORNIA ST,GAINESVILLE,TEXAS,FIRST STATE BANK
111912605,909 S CLAY ST,ENNIS,TEXAS,FIRST STATE BANK
111917590,14225 ST HWY 31,BROWNSBORO,TEXAS,FIRST STATE BANK
111921777,130 E CORSICANA,ATHENS,TEXAS,FIRST STATE BANK
111925045,P O BOX 10,GAINESVILLE,TEXAS,FIRST STATE BANK
112201959,103 MANZANARES,SOCORRO,NEW MEXICO,FIRST STATE BANK
113105465,112 W. POLK,LIVINGSTON,TEXAS,FIRST STATE BANK
113109377,P O BOX 99,BEDIAS,TEXAS,FIRST STATE BANK
113122082,101 WORTH ST,HEMPHILL,TEXAS,FIRST STATE BANK
113123065,206 NORTH STREET,LOUISE,TEXAS,FIRST STATE BANK
113123366,200 N BRAZOSPORT BLVD,CLUTE,TEXAS,FIRST STATE BANK
114902405,P O DRAWER 1908,UVALDE,TEXAS,FIRST STATE BANK
114907387,136 EAST WASHINGTON,BURNET,TEXAS,FIRST STATE BANK
114914710,206 NORTH STREET,LOUISE,TEXAS,FIRST STATE BANK
114916705,P O DRAWER 550,THREE RIVERS,TEXAS,FIRST STATE BANK
114917924,406 WEST GRAND AVENUE,YOAKUM,TEXAS,FIRST STATE BANK
114922265,201 MAIN ST,ODEM,TEXAS,FIRST STATE BANK
114922430,P.O. BOX 105,JUNCTION,TEXAS,FIRST STATE BANK
11100106,MAC N9301-041,MINNEAPOLIS,MINNESOTA,WELLS FARGO BANK
21101108,MAC N9301-041,MINNEAPOLIS,MINNESOTA,WELLS FARGO BANK
21200025,MAC N9301-041,MINNEAPOLIS,MINNESOTA,WELLS FARGO BANK
21200559,MAC N9301-041,MINNEAPOLIS,MINNESOTA,WELLS FARGO BANK
21201011,MAC N9301-041,MINNEAPOLIS,MINNESOTA,WELLS FARGO BANK
26012881,MAC N9301-041,MINNEAPOLIS,MINNESOTA,WELLS FARGO BANK
31000011,MAC N9301-041,MINNEAPOLIS,MINNESOTA,WELLS FARGO BANK
31000503,MAC N9301-041,MINNEAPOLIS,MINNESOTA,WELLS FARGO BANK
31100225,MAC N9301-041,MINNEAPOLIS,MINNESOTA,WELLS FARGO BANK
31100869,MAC N9301-041,MINNEAPOLIS,MINNESOTA,WELLS FARGO BANK
31200730,MAC N9301-041,MINNEAPOLIS,MINNESOTA,WELLS FARGO BANK
31201467,MAC N9301-041,MINNEAPOLIS,MINNESOTA,WELLS FARGO BANK
31901686,MAC N9301-041,MINNEAPOLIS,MINNESOTA,WELLS FARGO BANK
51000253,MAC N9301-041,MINNEAPOLIS,MINNESOTA,WELLS FARGO BANK
51001414,MAC N9301-041,MINNEAPOLIS,MINNESOTA,WELLS FARGO BANK
51006778,MAC N9301-041,MINNEAPOLIS,MINNESOTA,WELLS FARGO BANK
51400549,MAC N9301-041,MINNEAPOLIS,MINNESOTA,WELLS FARGO BANK
51402961,MAC N9301-041,MINNEAPOLIS,MINNESOTA,WELLS FARGO BANK
51404985,MAC N9301-041,MINNEAPOLIS,MINNESOTA,WELLS FARGO BANK
52000016,MAC N9301-041,MINNEAPOLIS,MINNESOTA,WELLS FARGO BANK
52001963,MAC N9301-041,MINNEAPOLIS,MINNESOTA,WELLS FARGO BANK
53000183,MAC N9301-041,MINNEAPOLIS,MINNESOTA,WELLS FARGO BANK
53000219,MAC N9301-041,MINNEAPOLIS,MINNESOTA,WELLS FARGO BANK
53100355,MAC N9301-041,MINNEAPOLIS,MINNESOTA,WELLS FARGO BANK
53100494,MAC N9301-041,MINNEAPOLIS,MINNESOTA,WELLS FARGO BANK
53101529,MAC N9301-041,MINNEAPOLIS,MINNESOTA,WELLS FARGO BANK
53101561,MAC N9301-041,MINNEAPOLIS,MINNESOTA,WELLS FARGO BANK
53101626,MAC N9301-041,MINNEAPOLIS,MINNESOTA,WELLS FARGO BANK
53107633,MAC N9301-041,MINNEAPOLIS,MINNESOTA,WELLS FARGO BANK
53107963,MAC N9301-041,MINNEAPOLIS,MINNESOTA,WELLS FARGO BANK
53108580,MAC N9301-041,MINNEAPOLIS,MINNESOTA,WELLS FARGO BANK
53110112,MAC N9301-041,MINNEAPOLIS,MINNESOTA,WELLS FARGO BANK
53110303,MAC N9301-041,MINNEAPOLIS,MINNESOTA,WELLS FARGO BANK
53110400,MAC N9301-041,MINNEAPOLIS,MINNESOTA,WELLS FARGO BANK
53200019,MAC N9301-041,MINNEAPOLIS,MINNESOTA,WELLS FARGO BANK
53207766,MAC N9301-041,MINNEAPOLIS,MINNESOTA,WELLS FARGO BANK
53900225,MAC N9301-041,MINNEAPOLIS,MINNESOTA,WELLS FARGO BANK
53901473,MAC N9301-041,MINNEAPOLIS,MINNESOTA,WELLS FARGO BANK
54000807,MAC N9301-041,MINNEAPOLIS,MINNESOTA,WELLS FARGO BANK
54001220,MAC N9301-041,MINNEAPOLIS,MINNESOTA,WELLS FARGO BANK
55003201,MAC N9301-041,MINNEAPOLIS,MINNESOTA,WELLS FARGO BANK
56004089,MAC N9301-041,MINNEAPOLIS,MINNESOTA,WELLS FARGO BANK
56007604,MAC N9301-041,MINNEAPOLIS,MINNESOTA,WELLS FARGO BANK
61000227,MAC N9301-041,MINNEAPOLIS,MINNESOTA,WELLS FARGO BANK
61000256,MAC N9301-041,MINNEAPOLIS,MINNESOTA,WELLS FARGO BANK
61101155,MAC N9301-041,MINNEAPOLIS,MINNESOTA,WELLS FARGO BANK
61103056,MAC N9301-041,MINNEAPOLIS,MINNESOTA,WELLS FARGO BANK
61113279,MAC N9301-041,MINNEAPOLIS,MINNESOTA,WELLS FARGO BANK
61209756,MAC N9301-041,MINNEAPOLIS,MINNESOTA,WELLS FARGO BANK
62000080,MAC N9301-041,MINNEAPOLIS,MINNESOTA,WELLS FARGO BANK
62203751,MAC N9301-041,MINNEAPOLIS,MINNESOTA,WELLS FARGO BANK
63000021,MAC N9301-041,MINNEAPOLIS,MINNESOTA,WELLS FARGO BANK
63107513,MAC N9301-041,MINNEAPOLIS,MINNESOTA,WELLS FARGO BANK
63109430,MAC N9301-041,MINNEAPOLIS,MINNESOTA,WELLS FARGO BANK
63210125,MAC N9301-041,MINNEAPOLIS,MINNESOTA,WELLS FARGO BANK
64003768,MAC N9301-041,MINNEAPOLIS,MINNESOTA,WELLS FARGO BANK
67006432,MAC N9301-041,MINNEAPOLIS,MINNESOTA,WELLS FARGO BANK
67013564,MAC N9301-041,MINNEAPOLIS,MINNESOTA,WELLS FARGO BANK
67091780,MAC N9301-041,MINNEAPOLIS,MINNESOTA,WELLS FARGO BANK
101089292,MC- NC 6024,WINSTON-SALEM,NORTH CAROLINA,WELLS FARGO BANK
102189285,MC: NC 6024,WINSTON-SALEM,NORTH CAROLINA,WELLS FARGO BANK
102307164,MAC N9301-041,MINNEAPOLIS,MINNESOTA,WELLS FARGO BANK
111015159,MAC N9301-041,MINNEAPOLIS,MINNESOTA,WELLS FARGO BANK
111025013,MAC N9301-041,MINNEAPOLIS,MINNESOTA,WELLS FARGO BANK
111900659,255 2ND AVE SOUTH,MINNEAPOLIS,MINNESOTA,WELLS FARGO BANK
111904215,"255 2ND AVENUE SOUTH, MAC N9301-041",MINNEAPOLIS,MINNESOTA,WELLS FARGO BANK
111909634,255 SECOND AVE.,MINNEAPOLIS,MINNESOTA,WELLS FARGO BANK
113017870,255 SECOND AVE.,MINNEAPOLIS,MINNESOTA,WELLS FARGO BANK
113024520,MAC N9301-041,MINNEAPOLIS,MINNESOTA,WELLS FARGO BANK
113102138,MAC N9301-041,MINNEAPOLIS,MINNESOTA,WELLS FARGO BANK
113105449,MAC N9301-041,MINNEAPOLIS,MINNESOTA,WELLS FARGO BANK
113117767,MAC N9301-041,MINNEAPOLIS,MINNESOTA,WELLS FARGO BANK
121141288,MAC N9301-041,MINNEAPOLIS,MINNESOTA,WELLS FARGO BANK
121141534,MAC N9301-041,MINNEAPOLIS,MINNESOTA,WELLS FARGO BANK
121181866,255 2ND AVENUE SOUTH MAC N9301-041,MINNEAPOLIS,MINNESOTA,WELLS FARGO BANK
122187076,255 2ND AVENUE SOUTH MAC N9301-041,MINNEAPOLIS,MINNESOTA,WELLS FARGO BANK
122237955,MAC N9301-041,MINNEAPOLIS,MINNESOTA,WELLS FARGO BANK
122242607,5611 PALMER WAY SUITE G,CARLSBAD,CALIFORNIA,WELLS FARGO BANK
122287170,255 2ND AVENUE SOUTH MAC N9301-041,MINNEAPOLIS,MINNESOTA,WELLS FARGO BANK
122487307,255 2ND AVENUE SOUTH MAC N9301-041,MINNEAPOLIS,MINNESOTA,WELLS FARGO BANK
253170305,MAC N9301-041,MINNEAPOLIS,MINNESOTA,WELLS FARGO BANK
254070019,MAC N9301-041,MINNEAPOLIS,MINNESOTA,WELLS FARGO BANK
255072935,MAC N9301-041,MINNEAPOLIS,MINNESOTA,WELLS FARGO BANK
256072701,MAC N9301-041,MINNEAPOLIS,MINNESOTA,WELLS FARGO BANK
103000800,80 SUGAR CREEK CENTER BLVD.,SUGAR LAND,TEXAS,PROSPERITY BANK
103013211,80 SUGAR CREEK CENTER BLVD.,SUGAR LAND,TEXAS,PROSPERITY BANK
103912668,80 SUGAR CREEK CENTER BLVD,SUGAR LAND,TEXAS,PROSPERITY BANK
111000805,80 SUGAR CREEK CENTER BLVD,SUGAR LAND,TEXAS,PROSPERITY BANK
111010060,80 SUGAR CREEK CENTER BLVD,SUGAR LAND,TEXAS,PROSPERITY BANK
111013672,80 SUGAR CREEK CTR. BLVD,SUGAR LAND,TEXAS,PROSPERITY BANK
111024467,80 SUGAR CREEK CENTER BLVD.,SUGAR LAND,TEXAS,PROSPERITY BANK
111024849,80 SUGAR CREEK CENTER BLVD,SUGAR LAND,TEXAS,PROSPERITY BANK
111093715,3802 OAK LAWN AVE,DALLAS,TEXAS,PROSPERITY BANK
111304093,80 SUGAR CREEK CENTER BLVD.,SUGAR LAND,TEXAS,PROSPERITY BANK
111307317,80 SUGAR CREEK CENTER BLVD.,SUGAR LAND,TEXAS,PROSPERITY BANK
111308031,80 SUGAR CREEK CENTER BLVD.,SUGAR LAND,TEXAS,PROSPERITY BANK
111309043,80 SUGAR CREEK CENTER BLVD.,SUGAR LAND,TEXAS,PROSPERITY BANK
111309742,80 SUGAR CREEK CENTER BLVD.,SUGAR LAND,TEXAS,PROSPERITY BANK
111322583,80 SUGAR CREEK CENTER BLVD.,SUGAR LAND,TEXAS,PROSPERITY BANK
111323016,80 SUGAR CREEK CENTER BLVD.,SUGAR LAND,TEXAS,PROSPERITY BANK
111901454,80 SUGAR CREEK CENTER BLVD,SUGAR LAND,TEXAS,PROSPERITY BANK
111901632,80 SUGAR CREEK CENTER BLVD,SUGARLAND,TEXAS,PROSPERITY BANK
111903850,80 SUGAR CREEK CENTER BLVD,SUGARLAND,TEXAS,PROSPERITY BANK
111910607,80 SUGAR CREEK CENTER BLVD,SUGAR LAND,TEXAS,PROSPERITY BANK
111910681,80 SUGAR CREEK CTR. BLVD,SUGAR LAND,TEXAS,PROSPERITY BANK
111913756,80 SUGAR CREEK CENTER BLVD,SUGAR LAND,TEXAS,PROSPERITY BANK
111915398,80 SUGAR CREEK CENTER BLVD,SUGAR LAND,TEXAS,PROSPERITY BANK
111916423,80 SUGAR CREEK CENTER BLVD,SUGARLAND,TEXAS,PROSPERITY BANK
111917383,80 SUGAR CREEK CENTER BLVD,SUGAR LAND,TEXAS,PROSPERITY BANK
111917435,80 SUGAR CREEK CENTER BLVD.,SUGAR LAND,TEXAS,PROSPERITY BANK
111924473,80 SUGAR CREEK CENTER BLVD,SUGAR LAND,TEXAS,PROSPERITY BANK
111925317,80 SUGAR CREEK CENTER BLVD.,SUGAR LAND,TEXAS,PROSPERITY BANK
113000939,80 SUGAR CREEK CENTER BLVD,SUGARLAND,TEXAS,PROSPERITY BANK
113001255,80 SUGAR CREEK CENTER BLVD,SUGAR LAND,TEXAS,PROSPERITY BANK
113008083,80 SUGAR CREEK CENTER BLVD,SUGAR LAND,TEXAS,PROSPERITY BANK
113008766,80 SUGAR CREEK CENTER BLVD,SUGAR LAND,TEXAS,PROSPERITY BANK
113009464,80 SUGAR CREEK CENTER BLVD,SUGAR LAND,TEXAS,PROSPERITY BANK
113014909,80 SUGAR CREEK CENTER BLVD,SUGAR LAND,TEXAS,PROSPERITY BANK
113015267,80 SUGAR CREEK CENTER BLVD,SUGAR LAND,TEXAS,PROSPERITY BANK
113024274,80 SUGAR CREEK CENTER BLVD,SUGARLAND,TEXAS,PROSPERITY BANK
113024504,80 SUGAR CREEK CENTER BLVD,SUGAR LAND,TEXAS,PROSPERITY BANK
113102303,80 SUGAR CREEK CENTER BLVD,SUGARLAND,TEXAS,PROSPERITY BANK
113102552,80 SUGAR CREEK CENTER BLVD.,SUGAR LAND,TEXAS,PROSPERITY BANK
113104178,80 SUGAR CREEK CENTER BLVD,SUGAR LAND,TEXAS,PROSPERITY BANK
113104521,80 SUGAR CREEK CENTER BLVD,SUGAR LAND,TEXAS,PROSPERITY BANK
113105368,80 SUGAR CREEK CENTER BLVD,SUGAR LAND,TEXAS,PROSPERITY BANK
113105478,80 SUGAR CREEK CENTER BLVD,SUGAR LAND,TEXAS,PROSPERITY BANK
113107612,80 SUGAR CREEK CENTER BLVD,SUGAR LAND,TEXAS,PROSPERITY BANK
113109720,80 SUGAR CREEK CENTER BLVD,SUGAR LAND,TEXAS,PROSPERITY BANK
113110379,80 SUGAR CREEK CENTER BLVD,SUGAR LAND,TEXAS,PROSPERITY BANK
113110780,80 SUGAR CREEK CENTER BLVD,SUGAR LAND,TEXAS,PROSPERITY BANK
113111378,80 SUGAR CREEK CENTER BLVD,SUGAR LAND,TEXAS,PROSPERITY BANK
113114595,80 SUGAR CREEK CENTER BLVD,SUGAR LAND,TEXAS,PROSPERITY BANK
113116386,80 SUGAR CREEK CENTER BLVD,SUGAR LAND,TEXAS,PROSPERITY BANK
113117440,80 SUGAR CREEK CENTER BLVD,SUGAR LAND,TEXAS,PROSPERITY BANK
113118012,80 SUGAR CREEK CENTER BLVD,SUGAR LAND,TEXAS,PROSPERITY BANK
113122655,80 SUGAR CREEK CENTER BLVD,SUGAR LAND,TEXAS,PROSPERITY BANK
113124035,80 SUGAR CREEK CENTER BLVD,SUGAR LAND,TEXAS,PROSPERITY BANK
114901147,80 SUGAR CREEK CENTER BLVD,SUGARLAND,TEXAS,PROSPERITY BANK
114902780,80 SUGAR CREEK CENTER BLVD,SUGAR LAND,TEXAS,PROSPERITY BANK
114902874,80 SUGAR CREEK CENTER BLVD.,SUGAR LAND,TEXAS,PROSPERITY BANK
114903080,80 SUGAR CREEK CENTER BLVD,SUGAR LAND,TEXAS,PROSPERITY BANK
114904979,80 SUGAR CREEK CENTER BLVD,SUGARLAND,TEXAS,PROSPERITY BANK
114909929,80 SUGAR CREEK CENTER BLVD,SUGARLAND,TEXAS,PROSPERITY BANK
114922980,80 SUGAR CREEK CENTER BLVD,SUGAR LAND,TEXAS,PROSPERITY BANK
114924014,80 SUGAR CREEK CENTER BLVD.,SUGAR LAND,TEXAS,PROSPERITY BANK
114924739,80 SUGAR CREEK CENTER BLVD,SUGAR LAND,TEXAS,PROSPERITY BANK
114993731,80 SUGAR CREEK CENTER BLVD,SUGARLAND,TEXAS,PROSPERITY BANK
114993786,80 SUGAR CREEK CENTER BLVD,SUGAR LAND,TEXAS,PROSPERITY BANK
311973279,80 SUGAR CREEK CENTER BLVD.,SUGAR LAND,TEXAS,PROSPERITY BANK
313071920,80 SUGAR CREEK CENTER BLVD,SUGAR LAND,TEXAS,PROSPERITY BANK
313170957,80 SUGAR CREEK CENTER BLVD,SUGAR LAND,TEXAS,PROSPERITY BANK
313172052,80 SUGAR CREEK CENTER BLVD,SUGARLAND,TEXAS,PROSPERITY BANK
313173336,80 SUGAR CREEK CENTER BLVD,SUGAR LAND,TEXAS,PROSPERITY BANK
314973593,80 SUGAR CREEK CENTER BLVD,SUGAR LAND,TEXAS,PROSPERITY BANK
314974356,80 SUGAR CREEK CENTER BLVD,SUGAR LAND,TEXAS,PROSPERITY BANK
41002711,5050 KINGSLEY DRIVE,CINCINNATI,OHIO,FIFTH THIRD BANK
41200050,5050 KINGSLEY DRIVE,CINCINNATI,OHIO,FIFTH THIRD BANK
42000314,5050 KINGSLEY DRIVE,CINCINNATI,OHIO,FIFTH THIRD BANK
42100230,5050 KINGSLEY DRIVE,CINCINNATI,OHIO,FIFTH THIRD BANK
42100272,5050 KINGSLEY DRIVE,CINCINNATI,OHIO,FIFTH THIRD BANK
42101190,5050 KINGSLEY DRIVE,CINCINNATI,OHIO,FIFTH THIRD BANK
42202196,5050 KINGSLEY DRIVE,CINCINNATI,OHIO,FIFTH THIRD BANK
42207735,5050 KINGSLEY DRIVE,CINCINNATI,OHIO,FIFTH THIRD BANK
44002161,5050 KINGSLEY DRIVE,CINCINNATI,OHIO,FIFTH THIRD BANK
44002679,5050 KINGSLEY DRIVE,CINCINNATI,OHIO,FIFTH THIRD BANK
51504665,5050 KINGSLEY DRIVE,CINCINNATI,OHIO,FIFTH THIRD BANK
63103915,5050 KINGSLEY DRIVE,CINCINNATI,OHIO,FIFTH THIRD BANK
63109935,5050 KINGSLEY DRIVE,CINCINNATI,OHIO,FIFTH THIRD BANK
63113057,5050 KINGSLEY DRIVE,CINCINNATI,OHIO,FIFTH THIRD BANK
63115738,5050 KINGSLEY DRIVE,CINCINNATI,OHIO,FIFTH THIRD BANK
64103833,5050 KINGSLEY DRIVE,CINCINNATI,OHIO,FIFTH THIRD BANK
64108757,5050 KINGSLEY DRIVE,CINCINNATI,OHIO,FIFTH THIRD BANK
67013700,5050 KINGSLEY DRIVE,CINCINNATI,OHIO,FIFTH THIRD BANK
67091719,5050 KINGSLEY DRIVE,CINCINNATI,OHIO,FIFTH THIRD BANK
71121471,5050 KINGSLEY DRIVE,CINCINNATI,OHIO,FIFTH THIRD BANK
71214126,5050 KINGSLEY DRIVE,CINCINNATI,OHIO,FIFTH THIRD BANK
71900799,5050 KINGSLEY DRIVE,CINCINNATI,OHIO,FIFTH THIRD BANK
71903123,5050 KINGSLEY DRIVE,CINCINNATI,OHIO,FIFTH THIRD BANK
71905985,5050 KINGSLEY DRIVE,CINCINNATI,OHIO,FIFTH THIRD BANK
71920957,5050 KINGSLEY DRIVE,CINCINNATI,OHIO,FIFTH THIRD BANK
71922298,5050 KINGSLEY DRIVE,CINCINNATI,OHIO,FIFTH THIRD BANK
71922340,5050 KINGSLEY DRIVE,CINCINNATI,OHIO,FIFTH THIRD BANK
71923190,5050 KINGSLEY DRIVE,CINCINNATI,OHIO,FIFTH THIRD BANK
71923323,5050 KINGSLEY DRIVE,CINCINNATI,OHIO,FIFTH THIRD BANK
71923909,5050 KINGSLEY DRIVE,CINCINNATI,OHIO,FIFTH THIRD BANK
71925130,5050 KINGSLEY DRIVE,CINCINNATI,OHIO,FIFTH THIRD BANK
71925156,5050 KINGSLEY DRIVE,CINCINNATI,OHIO,FIFTH THIRD BANK
72400052,5050 KINGSLEY DRIVE,CINCINNATI,OHIO,FIFTH THIRD BANK
72400447,5050 KINGSLEY DRIVE,CINCINNATI,OHIO,FIFTH THIRD BANK
72401404,5050 KINGSLEY DRIVE,CINCINNATI,OHIO,FIFTH THIRD BANK
72401608,5050 KINGSLEY DRIVE,CINCINNATI,OHIO,FIFTH THIRD BANK
72401831,5050 KINGSLEY DRIVE,CINCINNATI,OHIO,FIFTH THIRD BANK
72402034,5050 KINGSLEY DRIVE,CINCINNATI,OHIO,FIFTH THIRD BANK
72402115,5050 KINGSLEY DRIVE,CINCINNATI,OHIO,FIFTH THIRD BANK
72402348,5050 KINGSLEY DRIVE,CINCINNATI,OHIO,FIFTH THIRD BANK
72402364,5050 KINGSLEY DRIVE,CINCINNATI,OHIO,FIFTH THIRD BANK
72402704,5050 KINGSLEY DRIVE,CINCINNATI,OHIO,FIFTH THIRD BANK
72402788,5050 KINGSLEY DRIVE,CINCINNATI,OHIO,FIFTH THIRD BANK
72403907,5050 KINGSLEY DRIVE,CINCINNATI,OHIO,FIFTH THIRD BANK
72404841,5050 KINGSLEY DRIVE,CINCINNATI,OHIO,FIFTH THIRD BANK
72405455,5050 KINGSLEY DRIVE,CINCINNATI,OHIO,FIFTH THIRD BANK
72405662,5050 KINGSLEY DRIVE,CINCINNATI,OHIO,FIFTH THIRD BANK
72408504,5050 KINGSLEY DRIVE,CINCINNATI,OHIO,FIFTH THIRD BANK
72409888,5050 KINGSLEY DRIVE,CINCINNATI,OHIO,FIFTH THIRD BANK
72411643,5050 KINGSLEY DRIVE,CINCINNATI,OHIO,FIFTH THIRD BANK
72413175,5050 KINGSLEY DRIVE,CINCINNATI,OHIO,FIFTH THIRD BANK
72413298,5050 KINGSLEY DRIVE,CINCINNATI,OHIO,FIFTH THIRD BANK
74906826,5050 KINGSLEY DRIVE,CINCINNATI,OHIO,FIFTH THIRD BANK
74908594,5050 KINGSLEY DRIVE,CINCINNATI,OHIO,FIFTH THIRD BANK
81019104,5050 KINGSLEY DRIVE,CINCINNATI,OHIO,FIFTH THIRD BANK
81309364,5050 KINGSLEY DRIVE,CINCINNATI,OHIO,FIFTH THIRD BANK
83002342,5050 KINGSLEY DRIVE,CINCINNATI,OHIO,FIFTH THIRD BANK
83902374,5050 KINGSLEY DRIVE,CINCINNATI,OHIO,FIFTH THIRD BANK
83905449,5050 KINGSLEY DRIVE,CINCINNATI,OHIO,FIFTH THIRD BANK
83913949,5050 KINGSLEY DRIVE,CINCINNATI,OHIO,FIFTH THIRD BANK
86300041,5050 KINGSLEY DRIVE,CINCINNATI,OHIO,FIFTH THIRD BANK
242071758,5050 KINGSLEY DRIVE,CINCINNATI,OHIO,FIFTH THIRD BANK
242272188,5050 KINGSLEY DRIVE,CINCINNATI,OHIO,FIFTH THIRD BANK
242272447,5050 KINGSLEY DRIVE,CINCINNATI,OHIO,FIFTH THIRD BANK
242272968,5050 KINGSLEY DRIVE,CINCINNATI,OHIO,FIFTH THIRD BANK
263190812,5050 KINGSLEY DRIVE,CINCINNATI,OHIO,FIFTH THIRD BANK
271970147,5050 KINGSLEY DRIVE,CINCINNATI,OHIO,FIFTH THIRD BANK
271971829,5050 KINGSLEY DRIVE,CINCINNATI,OHIO,FIFTH THIRD BANK
271973487,5050 KINGSLEY DRIVE,CINCINNATI,OHIO,FIFTH THIRD BANK
272471438,5050 KINGSLEY DRIVE,CINCINNATI,OHIO,FIFTH THIRD BANK
274970937,5050 KINGSLEY DRIVE,CINCINNATI,OHIO,FIFTH THIRD BANK
21200407,P.O. BOX 85139,RICHMOND,VIRGINIA,"CAPITAL ONE, N.A."
21407912,P.O. BOX 85139,RICHMOND,VIRGINIA,"CAPITAL ONE, N.A."
21408704,P.O. BOX 85139,RICHMOND,VIRGINIA,"CAPITAL ONE, N.A."
21409567,P.O. BOX 85139,RICHMOND,VIRGINIA,"CAPITAL ONE, N.A."
21410695,P.O. BOX 85139,RICHMOND,VIRGINIA,"CAPITAL ONE, N.A."
26004394,P.O. BOX 85139,RICHMOND,VIRGINIA,"CAPITAL ONE, N.A."
26007883,P.O. BOX 85139,RICHMOND,VIRGINIA,"CAPITAL ONE, N.A."
26011507,P.O. BOX 85139,RICHMOND,VIRGINIA,"CAPITAL ONE, N.A."
27000407,P.O. BOX 85139,RICHMOND,VIRGINIA,"CAPITAL ONE, N.A."
56009482,P.O. BOX 85139,RICHMOND,VIRGINIA,"CAPITAL ONE, N.A."
65001426,P.O. BOX 85139,RICHMOND,VIRGINIA,"CAPITAL ONE, N.A."
65002030,P.O. BOX 85139,RICHMOND,VIRGINIA,"CAPITAL ONE, N.A."
65002548,P.O. BOX 85139,RICHMOND,VIRGINIA,"CAPITAL ONE, N.A."
65200188,P.O. BOX 85139,RICHMOND,VIRGINIA,"CAPITAL ONE, N.A."
65200243,P.O. BOX 85139,RICHMOND,VIRGINIA,"CAPITAL ONE, N.A."
65200722,P.O. BOX 85139,RICHMOND,VIRGINIA,"CAPITAL ONE, N.A."
65200874,P.O. BOX 85139,RICHMOND,VIRGINIA,"CAPITAL ONE, N.A."
65201064,P.O. BOX 85139,RICHMOND,VIRGINIA,"CAPITAL ONE, N.A."
65202791,P.O. BOX 85139,RICHMOND,VIRGINIA,"CAPITAL ONE, N.A."
65204760,P.O. BOX 85139,RICHMOND,VIRGINIA,"CAPITAL ONE, N.A."
65400140,P.O. BOX 85139,RICHMOND,VIRGINIA,"CAPITAL ONE, N.A."
65400687,P.O. BOX 85139,RICHMOND,VIRGINIA,"CAPITAL ONE, N.A."
65400755,P.O. BOX 85139,RICHMOND,VIRGINIA,"CAPITAL ONE, N.A."
65400894,P.O. BOX 85139,RICHMOND,VIRGINIA,"CAPITAL ONE, N.A."
65401000,P.O. BOX 85139,RICHMOND,VIRGINIA,"CAPITAL ONE, N.A."
65401246,P.O. BOX 85139,RICHMOND,VIRGINIA,"CAPITAL ONE, N.A."
65402313,P.O. BOX 85139,RICHMOND,VIRGINIA,"CAPITAL ONE, N.A."
65402339,P.O. BOX 85139,RICHMOND,VIRGINIA,"CAPITAL ONE, N.A."
65402494,P.O. BOX 85139,RICHMOND,VIRGINIA,"CAPITAL ONE, N.A."
65404256,P.O. BOX 85139,RICHMOND,VIRGINIA,"CAPITAL ONE, N.A."
65404418,P.O. BOX 85139,RICHMOND,VIRGINIA,"CAPITAL ONE, N.A."
65405132,P.O. BOX 85139,RICHMOND,VIRGINIA,"CAPITAL ONE, N.A."
65405145,P.O. BOX 85139,RICHMOND,VIRGINIA,"CAPITAL ONE, N.A."
111100792,P.O. BOX 85139,RICHMOND,VIRGINIA,"CAPITAL ONE, N.A."
111101157,P.O. BOX 85139,RICHMOND,VIRGINIA,"CAPITAL ONE, N.A."
111101461,P.O. BOX 85139,RICHMOND,VIRGINIA,"CAPITAL ONE, N.A."
111101995,P.O. BOX 85139,RICHMOND,VIRGINIA,"CAPITAL ONE, N.A."
111103210,P.O. BOX 85139,RICHMOND,VIRGINIA,"CAPITAL ONE, N.A."
111103317,P.O. BOX 85139,RICHMOND,VIRGINIA,"CAPITAL ONE, N.A."
111103634,P.O. BOX 85139,RICHMOND,VIRGINIA,"CAPITAL ONE, N.A."
111104507,P.O. BOX 85139,RICHMOND,VIRGINIA,"CAPITAL ONE, N.A."
111104785,P.O. BOX 85139,RICHMOND,VIRGINIA,"CAPITAL ONE, N.A."
111104798,P.O. BOX 85139,RICHMOND,VIRGINIA,"CAPITAL ONE, N.A."
111104879,P.O. BOX 85139,RICHMOND,VIRGINIA,"CAPITAL ONE, N.A."
111104947,P.O. BOX 85139,RICHMOND,VIRGINIA,"CAPITAL ONE, N.A."
111900455,P.O. BOX 85139,RICHMOND,VIRGINIA,"CAPITAL ONE, N.A."
111900510,P.O. BOX 85139,RICHMOND,VIRGINIA,"CAPITAL ONE, N.A."
111901014,P.O. BOX 85139,RICHMOND,VIRGINIA,"CAPITAL ONE, N.A."
111913798,P.O. BOX 85139,RICHMOND,VIRGINIA,"CAPITAL ONE, N.A."
111915709,P.O. BOX 85139,RICHMOND,VIRGINIA,"CAPITAL ONE, N.A."
113024915,P.O. BOX 85139,RICHMOND,VIRGINIA,"CAPITAL ONE, N.A."
113101809,P.O. BOX 85139,RICHMOND,VIRGINIA,"CAPITAL ONE, N.A."
113106956,P.O. BOX 85139,RICHMOND,VIRGINIA,"CAPITAL ONE, N.A."
211170363,P.O. BOX 85139,RICHMOND,VIRGINIA,"CAPITAL ONE, N.A."
221471227,P.O. BOX 85139,RICHMOND,VIRGINIA,"CAPITAL ONE, N.A."
221471324,P.O. BOX 85139,RICHMOND,VIRGINIA,"CAPITAL ONE, N.A."
221471858,P.O. BOX 85139,RICHMOND,VIRGINIA,"CAPITAL ONE, N.A."
221471971,P.O. BOX 85139,RICHMOND,VIRGINIA,"CAPITAL ONE, N.A."
221472776,P.O. BOX 85139,RICHMOND,VIRGINIA,"CAPITAL ONE, N.A."
221970346,P.O. BOX 85139,RICHMOND,VIRGINIA,"CAPITAL ONE, N.A."
226070115,P.O. BOX 85139,RICHMOND,VIRGINIA,"CAPITAL ONE, N.A."
226070555,P.O. BOX 85139,RICHMOND,VIRGINIA,"CAPITAL ONE, N.A."
226070652,P.O. BOX 85139,RICHMOND,VIRGINIA,"CAPITAL ONE, N.A."
226070856,P.O. BOX 85139,RICHMOND,VIRGINIA,"CAPITAL ONE, N.A."
226072304,P.O. BOX 85139,RICHMOND,VIRGINIA,"CAPITAL ONE, N.A."
226072375,P.O. BOX 85139,RICHMOND,VIRGINIA,"CAPITAL ONE, N.A."
313072819,P.O. BOX 85139,RICHMOND,VIRGINIA,"CAPITAL ONE, N.A."
313173349,P.O. BOX 85139,RICHMOND,VIRGINIA,"CAPITAL ONE, N.A."
71102995,1200 E. WARRENVILLE ROAD,NAPERVILLE,ILLINOIS,"BMO HARRIS BANK,N.A."
71104430,1200 E. WARRENVILLE ROAD,NAPERVILLE,ILLINOIS,"BMO HARRIS BANK,N.A."
71106250,1200 E. WARRENVILLE ROAD,NAPERVILLE,ILLINOIS,"BMO HARRIS BANK,N.A."
71900456,1200 E. WARRENVILLE ROAD,NAPERVILLE,ILLINOIS,"BMO HARRIS BANK,N.A."
71900595,1200 E. WARRENVILLE RD,NAPERVILLE,ILLINOIS,"BMO HARRIS BANK,N.A."
71900825,1200 E. WARRENVILLE ROAD,NAPERVILLE,ILLINOIS,"BMO HARRIS BANK,N.A."
71902797,1200 E. WARRENVILLE ROAD,NAPERVILLE,ILLINOIS,"BMO HARRIS BANK,N.A."
71903136,1200 E. WARRENVILLE ROAD,NAPERVILLE,ILLINOIS,"BMO HARRIS BANK,N.A."
71904355,1200 E WARRENVILLE ROAD,NAPERVILLE,ILLINOIS,"BMO HARRIS BANK,N.A."
71904371,1200 E WARRENVILLE ROAD,NAPERVILLE,ILLINOIS,"BMO HARRIS BANK,N.A."
71904478,1200 E WARRENVILLE ROAD,NAPERVILLE,ILLINOIS,"BMO HARRIS BANK,N.A."
71904627,5TH FLOOR,CHICAGO,ILLINOIS,"BMO HARRIS BANK,N.A."
71905040,1200 E WARRENVILLE ROAD,NAPERVILLE,ILLINOIS,"BMO HARRIS BANK,N.A."
71905846,1200 E WARRENVILLE ROAD,NAPERVILLE,ILLINOIS,"BMO HARRIS BANK,N.A."
71906573,1200 E WARRENVILLE ROAD,NAPERVILLE,ILLINOIS,"BMO HARRIS BANK,N.A."
71908021,1200 E WARRENVILLE ROAD,NAPERVILLE,ILLINOIS,"BMO HARRIS BANK,N.A."
71908869,1200 E WARRENVILLE ROAD,NAPERVILLE,ILLINOIS,"BMO HARRIS BANK,N.A."
71909198,1200 E WARRENVILLE ROAD,NAPERVILLE,ILLINOIS,"BMO HARRIS BANK,N.A."
71911416,1200 E WARRENVILLE ROAD,NAPERVILLE,ILLINOIS,"BMO HARRIS BANK,N.A."
71911584,1200 E WARRENVILLE ROAD,NAPERVILLE,ILLINOIS,"BMO HARRIS BANK,N.A."
71912813,1200 E. WARRENVILLE ROAD,NAPERVILLE,ILLINOIS,"BMO HARRIS BANK,N.A."
71913650,1200 E. WARRENVILLE ROAD,NAPERVILLE,ILLINOIS,"BMO HARRIS BANK,N.A."
71918150,1200 E. WARRENVILLE ROAD,NAPERVILLE,ILLINOIS,"BMO HARRIS BANK,N.A."
71918309,1200 E. WARRENVILLE ROAD,NAPERVILLE,ILLINOIS,"BMO HARRIS BANK,N.A."
71919463,1200 E. WARRENVILLE ROAD,NAPERVILLE,ILLINOIS,"BMO HARRIS BANK,N.A."
71920656,1200 E. WARRENVILLE ROAD,NAPERVILLE,ILLINOIS,"BMO HARRIS BANK,N.A."
71921176,1200 E. WARRENVILLE ROAD,NAPERVILLE,ILLINOIS,"BMO HARRIS BANK,N.A."
71921396,1200 E. WARRENVILLE ROAD,NAPERVILLE,ILLINOIS,"BMO HARRIS BANK,N.A."
71921697,1200 E. WARRENVILLE ROAD,NAPERVILLE,ILLINOIS,"BMO HARRIS BANK,N.A."
71921794,1200 E. WARRENVILLE ROAD,NAPERVILLE,ILLINOIS,"BMO HARRIS BANK,N.A."
71922227,1200 E. WARRENVILLE ROAD,NAPERVILLE,ILLINOIS,"BMO HARRIS BANK,N.A."
71922696,1200 E WARRENVILLE ROAD,NAPERVILLE,ILLINOIS,"BMO HARRIS BANK,N.A."
71923543,1200 E WARRENVILLE ROAD,NAPERVILLE,ILLINOIS,"BMO HARRIS BANK,N.A."
71923695,5TH FLOOR,CHICAGO,ILLINOIS,"BMO HARRIS BANK,N.A."
71923747,1200 E WARRENVILLE ROAD,NAPERVILLE,ILLINOIS,"BMO HARRIS BANK,N.A."
71924005,1200 E WARRENVILLE ROAD,NAPERVILLE,ILLINOIS,"BMO HARRIS BANK,N.A."
71924089,1200 E WARRENVILLE ROAD,NAPERVILLE,ILLINOIS,"BMO HARRIS BANK,N.A."
71924898,1200 E. WARRENVILLE ROAD,NAPERVILLE,ILLINOIS,"BMO HARRIS BANK,N.A."
71925062,1200 E WARRENVILLE ROAD,NAPERVILLE,ILLINOIS,"BMO HARRIS BANK,N.A."
71925224,1200 E WARRENVILLE ROAD,NAPERVILLE,ILLINOIS,"BMO HARRIS BANK,N.A."
71926320,1200 E. WARRENVILLE RD,NAPERVILLE,ILLINOIS,"BMO HARRIS BANK,N.A."
74902215,1200 E WARRENVILLE ROAD,NAPERVILLE,ILLINOIS,"BMO HARRIS BANK,N.A."
74903890,1200 E WARRENVILLE ROAD,NAPERVILLE,ILLINOIS,"BMO HARRIS BANK,N.A."
74912807,1200 E WARRENVILLE ROAD,NAPERVILLE,ILLINOIS,"BMO HARRIS BANK,N.A."
74913233,1200 E. WARRENVILLE ROAD,NAPERVILLE,ILLINOIS,"BMO HARRIS BANK,N.A."
75000734,1200 E. WARRENVILLE ROAD,NAPERVILLE,ILLINOIS,"BMO HARRIS BANK,N.A."
75012531,1200 E. WARRENVILLE ROAD,NAPERVILLE,ILLINOIS,"BMO HARRIS BANK,N.A."
75017947,1200 E. WARRENVILLE ROAD,NAPERVILLE,ILLINOIS,"BMO HARRIS BANK,N.A."
75902065,1200 E. WARRENVILLE ROAD,NAPERVILLE,ILLINOIS,"BMO HARRIS BANK,N.A."
75902625,1200 E. WARRENVILLE ROAD,NAPERVILLE,ILLINOIS,"BMO HARRIS BANK,N.A."
75903527,1200 E. WARRENVILLE ROAD,NAPERVILLE,ILLINOIS,"BMO HARRIS BANK,N.A."
75904115,1200 E. WARRENVILLE ROAD,NAPERVILLE,ILLINOIS,"BMO HARRIS BANK,N.A."
75904937,1200 E. WARRENVILLE ROAD,NAPERVILLE,ILLINOIS,"BMO HARRIS BANK,N.A."
75905431,1200 E. WARRENVILLE ROAD,NAPERVILLE,ILLINOIS,"BMO HARRIS BANK,N.A."
75906595,1200 E. WARRENVILLE ROAD,NAPERVILLE,ILLINOIS,"BMO HARRIS BANK,N.A."
75912233,1200 E. WARRENVILLE ROAD,NAPERVILLE,ILLINOIS,"BMO HARRIS BANK,N.A."
75912644,1200 E WARRENVILLE ROAD,NAPERVILLE,ILLINOIS,"BMO HARRIS BANK,N.A."
81303823,1200 E WARRENVILLE ROAD,NAPERVILLE,ILLINOIS,"BMO HARRIS BANK,N.A."
271250647,5TH FLOOR,CHICAGO,ILLINOIS,"BMO HARRIS BANK,N.A."
271972381,1200 E WARRENVILLE ROAD,NAPERVILLE,ILLINOIS,"BMO HARRIS BANK,N.A."
274970801,1200 E WARRENVILLE ROAD,NAPERVILLE,ILLINOIS,"BMO HARRIS BANK,N.A."
275071314,1200 E WARRENVILLE ROAD,NAPERVILLE,ILLINOIS,"BMO HARRIS BANK,N.A."
275970826,1200 E WARRENVILLE ROAD,NAPERVILLE,ILLINOIS,"BMO HARRIS BANK,N.A."
31205913,P7-PFSC-03-H,PITTSBURGH,PENNSYLVANIA,"PNC BANK, NA"
31302447,P7-PFSC-03-H,PITTSBURGH,PENNSYLVANIA,"PNC BANK, NA"
31306100,P7-PFSC-03-H,PITTSBURGH,PENNSYLVANIA,"PNC BANK, NA"
31307604,P7-PFSC-03-H,PITTSBURGH,PENNSYLVANIA,"PNC BANK, NA"
31313562,P7-PFSC-03-H,PITTSBURGH,PENNSYLVANIA,"PNC BANK, NA"
41001246,DATA CONTROL ACH DESK,CLEVELAND,OHIO,"PNC BANK, NA"
41200144,LOC 01-5138,CLEVELAND,OHIO,"PNC BANK, NA"
41203895,P7-PFSC-03-H,PITTSBURGH,PENNSYLVANIA,"PNC BANK, NA"
41204166,DATA CONTROL ACH DESK,CLEVELAND,OHIO,"PNC BANK, NA"
41211298,OPERATIONS CENTER,CLEVELAND,OHIO,"PNC BANK, NA"
41213814,DATA CONTROL ACH DESK,CLEVELAND,OHIO,"PNC BANK, NA"
42000424,DATA CONTROL ACH DESK,CLEVELAND,OHIO,"PNC BANK, NA"
42100049,LOC 01-5138,CLEVELAND,OHIO,"PNC BANK, NA"
42104249,DATA CONTROL ACH DESK,CLEVELAND,OHIO,"PNC BANK, NA"
42200279,LOC 01-5138,CLEVELAND,OHIO,"PNC BANK, NA"
42202426,DATA CONTROL ACH DESK,CLEVELAND,OHIO,"PNC BANK, NA"
43002900,P7-PFSC-03-H,PITTSBURGH,PENNSYLVANIA,"PNC BANK, NA"
43305131,LOC - 01-5138,CLEVELAND,OHIO,"PNC BANK, NA"
44000011,P7-PFSC-03-H,PITTSBURGH,PENNSYLVANIA,"PNC BANK, NA"
52102215,P7-PFSC-03-H,PITTSBURGH,PENNSYLVANIA,"PNC BANK, NA"
54000030,P7-PFSC-03-H,PITTSBURGH,PENNSYLVANIA,"PNC BANK, NA"
55001876,P7-PFSC-03-H,PITTSBURGH,PENNSYLVANIA,"PNC BANK, NA"
67003671,ATTN: ACH DESK LOC: 01-5138,CLEVELAND,OHIO,"PNC BANK, NA"
71001630,LOC: 01-5138,CLEVE,OHIO,"PNC BANK, NA"
71100049,LOCATOR 5138,CLEVELAND,OHIO,"PNC BANK, NA"
71100706,LOCATOR 01-5138,CLEVELAND,OHIO,"PNC BANK, NA"
71201647,LOCATER 01-5138,CLEVELAND,OHIO,"PNC BANK, NA"
71921891,4100 W. 150TH LOC 01-5138,CLEVELAND,OHIO,"PNC BANK, NA"
72400353,LOCATER 01/5138,CLEVELAND,OHIO,"PNC BANK, NA"
72400421,LOCATER 01-5138,CLEVELAND,OHIO,"PNC BANK, NA"
72400670,LOCATER 01-5138,CLEVELAND,OHIO,"PNC BANK, NA"
72401585,LOCATER 01-5138,CLEVELAND,OHIO,"PNC BANK, NA"
72402199,LOCATER 01-5138,CLEVELAND,OHIO,"PNC BANK, NA"
72412176,LOCATER 01-5138,CLEVELAND,OHIO,"PNC BANK, NA"
74000515,LOCATER 01-5138,CLEVELAND,OHIO,"PNC BANK, NA"
74900194,LOCATER 01-5138,CLEVELAND,OHIO,"PNC BANK, NA"
74912577,LOCATER 01-5138,CLEVELAND,OHIO,"PNC BANK, NA"
74912988,LOCATER 01-5138,CLEVELAND,OHIO,"PNC BANK, NA"
81000702,LOC.# 01-5138,CLEVELAND,OHIO,"PNC BANK, NA"
81000728,LOC.# 01-5138,CLEVELAND,OHIO,"PNC BANK, NA"
81001727,LOCATOR 5138,CLEVELAND,OHIO,"PNC BANK, NA"
81004517,6004 HIGHWAY 94 SOUTH,ST CHARLES,MISSOURI,"PNC BANK, NA"
81010860,LOCATOR: 01-5138,CLEVELAND,OHIO,"PNC BANK, NA"
83000920,P7-PFSC-03-H,PITTSBURGH,PENNSYLVANIA,"PNC BANK, NA"
83902154,P7-PFSC-03-H,PITTSBURGH,PENNSYLVANIA,"PNC BANK, NA"
231371579,P7-PFSC-03-H,PITTSBURGH,PENNSYLVANIA,"PNC BANK, NA"
242070966,DATA CONTROL ACH DESK,CLEVELAND,OHIO,"PNC BANK, NA"
242071237,DATA CONTROL ACH DESK,CLEVELAND,OHIO,"PNC BANK, NA"
242071305,DATA CONTROL ACH DESK,CLEVELAND,OHIO,"PNC BANK, NA"
242071583,DATA CONTROL ACH DESK,CLEVELAND,OHIO,"PNC BANK, NA"
242072715,DATA CONTROL ACH DESK,CLEVELAND,OHIO,"PNC BANK, NA"
242170031,DATA CONTROL ACH DESK,CLEVELAND,OHIO,"PNC BANK, NA"
267084199,ATTN: ACH DESK LOC:01-5138,CLEVELAND,OHIO,"PNC BANK, NA"
267087358,ATTN: ACH DESK LOC 01-5138,CLEVELAND,OHIO,"PNC BANK, NA"
271070607,LOCATOR 5138,CLEVELAND,OHIO,"PNC BANK, NA"
271070791,LOCATOR 5138,CLEVELAND,OHIO,"PNC BANK, NA"
271971560,LOCATOR 5138,CLEVELAND,OHIO,"PNC BANK, NA"
271971816,LOCATOR 5138,CLEVELAND,OHIO,"PNC BANK, NA"
275071408,LOCATOR 5138,CLEVELAND,OHIO,"PNC BANK, NA"
281073458,LOC.# 01-5138,CLEVELAND,OHIO,"PNC BANK, NA"
281073568,LOC.# 01-5138,CLEVELAND,OHIO,"PNC BANK, NA"
41203811,SUITE 600,CINCINNATI,OHIO,FIRST FINANCIAL BANK
41205631,SUITE 600,CINCINNATI,OHIO,FIRST FINANCIAL BANK
41210985,SUITE 600,CINCINNATI,OHIO,FIRST FINANCIAL BANK
42200910,SUITE 600,CINCINNATI,OHIO,FIRST FINANCIAL BANK
42202264,4400 LEWIS STREET,MIDDLETON,OHIO,FIRST FINANCIAL BANK
42305420,SUITE 600,CINCINNATI,OHIO,FIRST FINANCIAL BANK
44072298,SUITE 600,CINCINNATI,OHIO,FIRST FINANCIAL BANK
44072337,SUITE 600,CINCINNATI,OHIO,FIRST FINANCIAL BANK
44115760,SUITE 600,CINCINNATI,OHIO,FIRST FINANCIAL BANK
62201397,1630 4TH AVENUE NORTH,BESSEMER,ALABAMA,FIRST FINANCIAL BANK
71123385,STE 600,CINCINNATI,OHIO,FIRST FINANCIAL BANK
71913731,SUITE 600,CINCINNATI,OHIO,FIRST FINANCIAL BANK
72402856,SUITE 600,CINCINNATI,OHIO,FIRST FINANCIAL BANK
72414297,SUITE 600,CINCINNATI,OHIO,FIRST FINANCIAL BANK
74071926,SUITE 600,CINCINNATI,OHIO,FIRST FINANCIAL BANK
74902341,4400 LEWIS STREET,MIDDLETOWN,OHIO,FIRST FINANCIAL BANK
74903308,STE 600,CINCINNATI,OHIO,FIRST FINANCIAL BANK
74903337,STE 600,CINCINNATI,OHIO,FIRST FINANCIAL BANK
74903955,SUITE 600,CINCINNATI,OHIO,FIRST FINANCIAL BANK
74904187,4400 LEWIS STREET,MIDDLETOWN,OHIO,FIRST FINANCIAL BANK
74904190,SUITE 600,CINCINNATI,OHIO,FIRST FINANCIAL BANK
74904394,SUITE 600,CINCINNATI,OHIO,FIRST FINANCIAL BANK
74905403,SUITE 600,CINCINNATI,OHIO,FIRST FINANCIAL BANK
74907317,SUITE 600,CINCINNATI,OHIO,FIRST FINANCIAL BANK
74909357,STE 600,CINCINNATI,OHIO,FIRST FINANCIAL BANK
74909470,STE 600,CINCINNATI,OHIO,FIRST FINANCIAL BANK
74910799,STE 600,CINCINNATI,OHIO,FIRST FINANCIAL BANK
74912603,STE 600,CINCINNATI,OHIO,FIRST FINANCIAL BANK
74914452,SUITE 600,CINCINNATI,OHIO,FIRST FINANCIAL BANK
81311666,STE 600,CINCINNATI,OHIO,FIRST FINANCIAL BANK
83002520,STE 600,CINCINNATI,OHIO,FIRST FINANCIAL BANK
83074451,4400 LEWIS STREET,MIDDLETON,OHIO,FIRST FINANCIAL BANK
83902811,STE 600,CINCINNATI,OHIO,FIRST FINANCIAL BANK
83908200,STE 600,CINCINNATI,OHIO,FIRST FINANCIAL BANK
83974467,4400 LEWIS STREET,MIDDLETON,OHIO,FIRST FINANCIAL BANK
111322457,212 EAST THIRD,HEREFORD,TEXAS,FIRST FINANCIAL BANK
113124637,33 SH 75 N,HUNTSVILLE,TEXAS,FIRST FINANCIAL BANK
242070791,SUITE 600,CINCINNATI,OHIO,FIRST FINANCIAL BANK
242071004,STE 600,CINCINNATI,OHIO,FIRST FINANCIAL BANK
242071295,STE 600,CINCINNATI,OHIO,FIRST FINANCIAL BANK
242071473,SUITE 600,CINCINNATI,OHIO,FIRST FINANCIAL BANK
242074425,SUITE 600,CINCINNATI,OHIO,FIRST FINANCIAL BANK
242272191,SUITE 600,CINCINNATI,OHIO,FIRST FINANCIAL BANK
242272272,4400 LEWIS STREET,MIDDLETOWN,OHIO,FIRST FINANCIAL BANK
242272874,STE 600,CINCINNATI,OHIO,FIRST FINANCIAL BANK
262286950,1630 4TH AVENUE NORTH,BESSEMER,ALABAMA,FIRST FINANCIAL BANK
271974062,STE 600,CINCINNATI,OHIO,FIRST FINANCIAL BANK
274970063,SUITE 600,CINCINNATI,OHIO,FIRST FINANCIAL BANK
274970076,STE 600,CINCINNATI,OHIO,FIRST FINANCIAL BANK
274970144,SUITE 600,CINCINNATI,OHIO,FIRST FINANCIAL BANK
274970186,STE 600,CINCINNATI,OHIO,FIRST FINANCIAL BANK
274970199,STE 600,CINCINNATI,OHIO,FIRST FINANCIAL BANK
282970110,214 NORTH WASHINGTON,EL DORADO,ARKANSAS,FIRST FINANCIAL BANK
283071830,STE 600,CINCINNATI,OHIO,FIRST FINANCIAL BANK
283972162,STE 600,CINCINNATI,OHIO,FIRST FINANCIAL BANK
21000021,3RD FLOOR,TAMPA,FLORIDA,JPMORGAN CHASE
21000128,3RD FLOOR,TAMPA,FLORIDA,JPMORGAN CHASE
21031207,FL3-1404,TAMPA,FLORIDA,JPMORGAN CHASE
21100361,3RD FLOOR,TAMPA,FLORIDA,JPMORGAN CHASE
21114205,THIRD FLOOR,TAMPA,FLORIDA,JPMORGAN CHASE
21202337,3RD FLOOR,TAMPA,FLORIDA,JPMORGAN CHASE
21202719,THIRD FLOOR,TAMPA,FLORIDA,JPMORGAN CHASE
21272723,10430 HIGHLAND MANOR DRIVE,TAMPA,FLORIDA,JPMORGAN CHASE
21300462,3RD FLOOR,TAMPA,FLORIDA,JPMORGAN CHASE
21309379,10430 HIGHLAND MANOR DRIVE,TAMPA,FLORIDA,JPMORGAN CHASE
21409169,3RD FLOOR,TAMPA,FLORIDA,JPMORGAN CHASE
21410637,THIRD FLOOR,TAMPA,FLORIDA,JPMORGAN CHASE
22000842,10430 HIGHLAND MANOR DRIVE,TAMPA,FLORIDA,JPMORGAN CHASE
22300173,3RD FLOOR,TAMPA,FLORIDA,JPMORGAN CHASE
28000024,2ND FLOOR,TAMPA,FLORIDA,JPMORGAN CHASE
31100144,802 DELAWARE AVE,WILMINGTON,DELAWARE,JPMORGAN CHASE
31100393,500 STANTON CHRISTIANA ROAD,NEWARK,DELAWARE,JPMORGAN CHASE
44000037,2ND FLOOR,TAMPA,FLORIDA,JPMORGAN CHASE
44115443,2ND FLOOR,TAMPA,FLORIDA,JPMORGAN CHASE
51900366,2ND FLOOR,TAMPA,FLORIDA,JPMORGAN CHASE
61092387,10430 HIGHLAND MANOR DRIVE,TAMPA,FLORIDA,JPMORGAN CHASE
65400137,9000 HAGGERTY - MI 1-8205,BELLEVILLE,MICHIGAN,JPMORGAN CHASE
71000013,9000 HAGGERTY- MI 1-8205,BELLEVILLE,MICHIGAN,JPMORGAN CHASE
71074528,10430 HIGHLAND MANOR DRIVE,TAMPA,FLORIDA,JPMORGAN CHASE
71100269,2ND FLOOR,TAMPA,FLORIDA,JPMORGAN CHASE
71923226,2ND FLOOR,TAMPA,FLORIDA,JPMORGAN CHASE
74000010,2ND FLOOR,TAMPA,FLORIDA,JPMORGAN CHASE
75000019,2ND FLOOR,TAMPA,FLORIDA,JPMORGAN CHASE
75902722,2ND FLOOR,TAMPA,FLORIDA,JPMORGAN CHASE
83000137,2ND FLOOR,TAMPA,FLORIDA,JPMORGAN CHASE
102001017,(IL2-8412),SPRINGFIELD,ILLINOIS,JPMORGAN CHASE
103000648,(IL2-8412),SPRINGFIELD,ILLINOIS,JPMORGAN CHASE
107089555,10430 HIGHLAND MANOR DRIVE,TAMPA,FLORIDA,JPMORGAN CHASE
111000614,2ND FLOOR,TAMPA,FLORIDA,JPMORGAN CHASE
111001150,10430 HIGHLAND MANOR DRIVE 3RD FLOOR,TAMPA,FLORIDA,JPMORGAN CHASE
111300880,10430 HIGHLAND MANOR DRIVE 3RD FLOOR,TAMPA,FLORIDA,JPMORGAN CHASE
111993776,10430 HIGHLAND MANOR DRIVE,TAMPA,FLORIDA,JPMORGAN CHASE
112000150,10430 HIGHLAND MANOR DRIVE 3RD FLOOR,TAMPA,FLORIDA,JPMORGAN CHASE
113000609,10430 HIGHLAND MANOR DRIVE 3RD FLOOR,TAMPA,FLORIDA,JPMORGAN CHASE
114000776,10430 HIGHLAND MANOR DRIVE 3RD FLOOR,TAMPA,FLORIDA,JPMORGAN CHASE
122100024,2ND FLOOR,TAMPA,FLORIDA,JPMORGAN CHASE
123271978,10430 HIGHLAND MANOR DRIVE,TAMPA,FLORIDA,JPMORGAN CHASE
124001545,2ND FLOOR,TAMPA,FLORIDA,JPMORGAN CHASE
221971293,9301 CORBIN AVENUE,NORTHRIDGE,CALIFORNIA,JPMORGAN CHASE
263189865,2ND FLOOR,TAMPA,FLORIDA,JPMORGAN CHASE
267084131,10430 HIGHLAND MANOR DRIVE,TAMPA,FLORIDA,JPMORGAN CHASE
322270521,10430 HIGHLAND MANOR DRIVE,TAMPA,FLORIDA,JPMORGAN CHASE
322271627,10430 HIGHLAND MANOR DRIVE,TAMPA,FLORIDA,JPMORGAN CHASE
325070760,10430 HIGHLAND MANOR DRIVE,TAMPA,FLORIDA,JPMORGAN CHASE
325070951,10430 HIGHLAND MANOR DRIVE,TAMPA,FLORIDA,JPMORGAN CHASE
63107623,3RD FLOOR,CONWAY,ARKANSAS,CENTENNIAL BANK
63109702,3RD FLOOR,CONWAY,ARKANSAS,CENTENNIAL BANK
63113824,719 HARKRIDER ST. 3RD FLOOR,CONWAY,ARKANSAS,CENTENNIAL BANK
63114108,719 HARKRIDER ST. 3RD FLOOR,CONWAY,ARKANSAS,CENTENNIAL BANK
63114700,3RD FLOOR,CONWAY,ARKANSAS,CENTENNIAL BANK
63114742,719 HARKRIDER ST. 3RD FLOOR,CONWAY,ARKANSAS,CENTENNIAL BANK
63115068,3RD FLOOR,CONWAY,ARKANSAS,CENTENNIAL BANK
63115961,719 HARKRIDER ST. 3RD FLOOR,CONWAY,ARKANSAS,CENTENNIAL BANK
63116148,719 HARKRIDER ST. 3RD FLOOR,CONWAY,ARKANSAS,CENTENNIAL BANK
63116410,719 HARKRIDER ST. 3RD FLOOR,CONWAY,ARKANSAS,CENTENNIAL BANK
63116452,3RD FLOOR,CONWAY,ARKANSAS,CENTENNIAL BANK
63200928,719 HARKRIDER ST. 3RD FLOOR,CONWAY,ARKANSAS,CENTENNIAL BANK
63204746,3RD FLOOR,CONWAY,ARKANSAS,CENTENNIAL BANK
63292499,3RD FLOOR,CONWAY,ARKANSAS,CENTENNIAL BANK
63292538,719 HARKRIDER ST. 3RD FLOOR,CONWAY,ARKANSAS,CENTENNIAL BANK
65106363,3RD FLOOR,CONWAY,ARKANSAS,CENTENNIAL BANK
67009785,719 HARKRIDER ST. 3RD FLOOR,CONWAY,ARKANSAS,CENTENNIAL BANK
67012413,719 HARKRIDER ST. 3RD FLOOR,CONWAY,ARKANSAS,CENTENNIAL BANK
67014110,THIRD FLOOR,CONWAY,ARKANSAS,CENTENNIAL BANK
67014453,719 HARKRIDER ST. 3RD FLOOR,CONWAY,ARKANSAS,CENTENNIAL BANK
67015258,719 HARKRIDER ST. 3RD FLOOR,CONWAY,ARKANSAS,CENTENNIAL BANK
67015546,719 HARKRIDER ST. 3RD FLOOR,CONWAY,ARKANSAS,CENTENNIAL BANK
67015724,719 HARKRIDER ST. 3RD FLOOR,CONWAY,ARKANSAS,CENTENNIAL BANK
67015973,719 HARKRIDER ST. 3RD FLOOR,CONWAY,ARKANSAS,CENTENNIAL BANK
67016037,719 HARKRIDER ST. 3RD FLOOR,CONWAY,ARKANSAS,CENTENNIAL BANK
67016105,719 HARKRIDER ST. 3RD FLOOR,CONWAY,ARKANSAS,CENTENNIAL BANK
67016118,719 HARKRIDER ST. 3RD FLOOR,CONWAY,ARKANSAS,CENTENNIAL BANK
67016590,719 HARKRIDER ST. 3RD FLOOR,CONWAY,ARKANSAS,CENTENNIAL BANK
67016655,719 HARKRIDER ST 3RD FLOOR,CONWAY,ARKANSAS,CENTENNIAL BANK
67092035,719 HARKRIDER ST. 3RD FLOOR,CONWAY,ARKANSAS,CENTENNIAL BANK
67092640,719 HARKRIDER ST. 3RD FLOOR,CONWAY,ARKANSAS,CENTENNIAL BANK
82008732,719 HARKRIDER ST 3RD FLOOR,CONWAY,ARKANSAS,CENTENNIAL BANK
82902757,719 HARKRIDER ST. 3RD FLOOR,CONWAY,ARKANSAS,CENTENNIAL BANK
82903044,3RD FLOOR,CONWAY,ARKANSAS,CENTENNIAL BANK
82904030,3RD FLOOR,CONWAY,ARKANSAS,CENTENNIAL BANK
82904085,SUITE 3,CONWAY,ARKANSAS,CENTENNIAL BANK
82907859,3RD FLOOR,CONWAY,ARKANSAS,CENTENNIAL BANK
82907862,3RD FLOOR,CONWAY,ARKANSAS,CENTENNIAL BANK
82908625,3RD FLOOR,CONWAY,ARKANSAS,CENTENNIAL BANK
84107246,3RD FLOOR,CONWAY,ARKANSAS,CENTENNIAL BANK
84108795,3RD FLOOR,CONWAY,ARKANSAS,CENTENNIAL BANK
84301518,5420 BROAD ST S,TREZEVANT,TENNESSEE,CENTENNIAL BANK
84302698,5420 BROAD STREET SOUTH,TREZEVANT,TENNESSEE,CENTENNIAL BANK
84303082,5420 BROAD STREET SOUTH,TREZEVANT,TENNESSEE,CENTENNIAL BANK
84304793,5420 BROAD STREET SOUTH,TREZEVANT,TENNESSEE,CENTENNIAL BANK
111321649,P O BOX 970,PLAINVIEW,TEXAS,CENTENNIAL BANK
111321717,904 AVENUE O,LUBBOCK,TEXAS,CENTENNIAL BANK
263190634,3RD FLOOR,CONWAY,ARKANSAS,CENTENNIAL BANK
284170468,3RD FLOOR,CONWAY,ARKANSAS,CENTENNIAL BANK
61103276,PO BOX 709,TUPELO,MISSISSIPPI,RENASANT BANK
61104275,P.O. BOX 709,TUPELO,MISSISSIPPI,RENASANT BANK
61120217,PO BOX 709,TUPELO,MISSISSIPPI,RENASANT BANK
61120327,3618 W. JACKSON EXT.,TUPELO,MISSISSIPPI,RENASANT BANK
61121054,PO BOX 709,TUPELO,MISSISSIPPI,RENASANT BANK
61121203,PO BOX 709,TUPELO,MISSISSIPPI,RENASANT BANK
61206982,PO BOX 709,TUPELO,MISSISSIPPI,RENASANT BANK
61219571,PO BOX 709,TUPELO,MISSISSIPPI,RENASANT BANK
61220146,PO BOX 709,TUPELO,MISSISSIPPI,RENASANT BANK
62201779,PO BOX 709,TUPELO,MISSISSIPPI,RENASANT BANK
62202367,P O BOX 709,TUPELO,MISSISSIPPI,RENASANT BANK
62202778,P. O. BOX 709,TUPELO,MISSISSIPPI,RENASANT BANK
62203104,PO BOX 709,TUPELO,MISSISSIPPI,RENASANT BANK
62205733,PO BOX 709,TUPELO,MISSISSIPPI,RENASANT BANK
62206101,P.O. BOX 709,TUPELO,MISSISSIPPI,RENASANT BANK
63115686,PO BOX 709,TUPELO,MISSISSIPPI,RENASANT BANK
64004181,P.O. BOX 709,TUPELO,MISSISSIPPI,RENASANT BANK
65301265,P O BOX 709,TUPELO,MISSISSIPPI,RENASANT BANK
65302633,PO BOX 709,TUPELO,MISSISSIPPI,RENASANT BANK
65303085,P.O. BOX 709,TUPELO,MISSISSIPPI,RENASANT BANK
65305478,P O BOX 709,TUPELO,MISSISSIPPI,RENASANT BANK
84003191,PO BOX 709,TUPELO,MISSISSIPPI,RENASANT BANK
84008507,PO BOX 709,TUPELO,MISSISSIPPI,RENASANT BANK
84201003,PO BOX 709,TUPELO,MISSISSIPPI,RENASANT BANK
84201171,3618 WEST JACKSON ST EXT,TUPELO,MISSISSIPPI,RENASANT BANK
84201294,PO BOX 709,TUPELO,MISSISSIPPI,RENASANT BANK
84201511,PO BOX 709,TUPELO,MISSISSIPPI,RENASANT BANK
84201621,PO BOX 709,TUPELO,MISSISSIPPI,RENASANT BANK
84201692,3618 WEST JACKSON ST EXT,TUPELO,MISSISSIPPI,RENASANT BANK
84201841,PO BOX 709,TUPELO,MISSISSIPPI,RENASANT BANK
84201977,3618 WEST JACKSON ST EXT,TUPELO,MISSISSIPPI,RENASANT BANK
84202060,PO BOX 709,TUPELO,MISSISSIPPI,RENASANT BANK
84202112,PO BOX 709,TUPELO,MISSISSIPPI,RENASANT BANK
84202248,PO BOX 709,TUPELO,MISSISSIPPI,RENASANT BANK
84202442,PO BOX 709,TUPELO,MISSISSIPPI,RENASANT BANK
84202769,3618 WEST JACKSON ST EXT,TUPELO,MISSISSIPPI,RENASANT BANK
84202837,PO BOX 709,TUPELO,MISSISSIPPI,RENASANT BANK
84202879,PO BOX 709,TUPELO,MISSISSIPPI,RENASANT BANK
84203043,3618 WEST JACKSON ST EXT,TUPELO,MISSISSIPPI,RENASANT BANK
84203276,3618 WEST JACKSON ST EXT,TUPELO,MISSISSIPPI,RENASANT BANK
84205643,3618 WEST JACKSON ST EXT,TUPELO,MISSISSIPPI,RENASANT BANK
84205656,3618 W JACKSON ST EXT,TUPELO,MISSISSIPPI,RENASANT BANK
84205766,PO BOX 709,TUPELO,MISSISSIPPI,RENASANT BANK
84205889,3618 W JACKSON ST EXT,TUPELO,MISSISSIPPI,RENASANT BANK
84205931,3618 WEST JACKSON ST EXT,TUPELO,MISSISSIPPI,RENASANT BANK
84305129,PO BOX 709,TUPELO,MISSISSIPPI,RENASANT BANK
261271115,PO BOX 709,TUPELO,MISSISSIPPI,RENASANT BANK
284272625,3618 WEST JACKSON ST EXT,TUPELO,MISSISSIPPI,RENASANT BANK
284272780,PO BOX 709,TUPELO,MISSISSIPPI,RENASANT BANK
53200666,1148 BROADWAY,COLUMBUS,GEORGIA,SYNOVUS BANK
61100606,1137 1ST AVENUE,COLUMBUS,GEORGIA,SYNOVUS BANK
61101702,1148 BROADWAY,COLUMBUS,GEORGIA,SYNOVUS BANK
61102196,1148 BROADWAY,COLUMBUS,GEORGIA,SYNOVUS BANK
61103140,1148 BROADWAY,COLUMBUS,GEORGIA,SYNOVUS BANK
61103247,1148 BROADWAY,COLUMBUS,GEORGIA,SYNOVUS BANK
61103399,1148 BROADWAY,COLUMBUS,GEORGIA,SYNOVUS BANK
61103535,1148 BROADWAY,COLUMBUS,GEORGIA,SYNOVUS BANK
61103564,1148 BROADWAY,COLUMBUS,GEORGIA,SYNOVUS BANK
61103690,500 11TH STREET,COLUMBUS,GEORGIA,SYNOVUS BANK
61103904,1148 BROADWAY,COLUMBUS,GEORGIA,SYNOVUS BANK
61103991,1148 BROADWAY,COLUMBUS,GEORGIA,SYNOVUS BANK
61104181,1148 BROADWAY,COLUMBUS,GEORGIA,SYNOVUS BANK
61104408,1148 BROADWAY,COLUMBUS,GEORGIA,SYNOVUS BANK
61104592,1148 BROADWAY,COLUMBUS,GEORGIA,SYNOVUS BANK
61107201,1148 BROADWAY,COLUMBUS,GEORGIA,SYNOVUS BANK
61112021,1148 BROADWAY,COLUMBUS,GEORGIA,SYNOVUS BANK
61112539,1148 BROADWAY,COLUMBUS,GEORGIA,SYNOVUS BANK
61120589,1148 BROADWAY,COLUMBUS,GEORGIA,SYNOVUS BANK
61121261,500 11TH STREET,COLUMBUS,GEORGIA,SYNOVUS BANK
61201592,1148 BROADWAY,COLUMBUS,GEORGIA,SYNOVUS BANK
61202384,1148 BROADWAY,COLUMBUS,GEORGIA,SYNOVUS BANK
61202410,1148 BROADWAY,COLUMBUS,GEORGIA,SYNOVUS BANK
61206429,1148 BROADWAY,COLUMBUS,GEORGIA,SYNOVUS BANK
61209332,1148 BROADWAY,COLUMBUS,GEORGIA,SYNOVUS BANK
61212510,1148 BROADWAY,COLUMBUS,GEORGIA,SYNOVUS BANK
61220751,1148 BROADWAY,COLUMBUS,GEORGIA,SYNOVUS BANK
61308932,1148 BROADWAY,COLUMBUS,GEORGIA,SYNOVUS BANK
62003605,1148 BROADWAY,COLUMBUS,GEORGIA,SYNOVUS BANK
62102441,1148 BROADWAY,COLUMBUS,GEORGIA,SYNOVUS BANK
62106638,1148 BROADWAY,COLUMBUS,GEORGIA,SYNOVUS BANK
62201274,1148 BROADWAY,COLUMBUS,GEORGIA,SYNOVUS BANK
62201591,1148 BROADWAY,COLUMBUS,GEORGIA,SYNOVUS BANK
62202341,500 11TH STREET,COLUMBUS,GEORGIA,SYNOVUS BANK
62203515,1148 BROADWAY,COLUMBUS,GEORGIA,SYNOVUS BANK
62203939,1148 BROADWAY,COLUMBUS,GEORGIA,SYNOVUS BANK
62203997,1148 BROADWAY,COLUMBUS,GEORGIA,SYNOVUS BANK
63015566,1148 BROADWAY,COLUMBUS,GEORGIA,SYNOVUS BANK
63109922,1148 BROADWAY,COLUMBUS,GEORGIA,SYNOVUS BANK
63113099,1148 BROADWAY,COLUMBUS,GEORGIA,SYNOVUS BANK
63203734,1148 BROADWAY,COLUMBUS,GEORGIA,SYNOVUS BANK
63208140,500 11TH STREET,COLUMBUS,GEORGIA,SYNOVUS BANK
63211001,1148 BROADWAY,COLUMBUS,GEORGIA,SYNOVUS BANK
64003881,1148 BROADWAY,COLUMBUS,GEORGIA,SYNOVUS BANK
67014767,500 11TH STREET,COLUMBUS,GEORGIA,SYNOVUS BANK
261170290,1148 BROADWAY,COLUMBUS,GEORGIA,SYNOVUS BANK
261170708,1148 BROADWAY,COLUMBUS,GEORGIA,SYNOVUS BANK
261170931,1148 BROADWAY,COLUMBUS,GEORGIA,SYNOVUS BANK
262084356,1148 BROADWAY,COLUMBUS,GEORGIA,SYNOVUS BANK
31301053,4140 EAST STATE STREET,HERMITAGE,PENNSYLVANIA,FIRST NATIONAL BANK OF PENNSYLVANIA
31301846,4140 EAST STATE STREET,HERMITAGE,PENNSYLVANIA,FIRST NATIONAL BANK OF PENNSYLVANIA
31302638,4140 EAST STATE STREET,HERMITAGE,PENNSYLVANIA,FIRST NATIONAL BANK OF PENNSYLVANIA
31305347,4140 EAST STATE STREET,HERMITAGE,PENNSYLVANIA,FIRST NATIONAL BANK OF PENNSYLVANIA
31306168,4140 EAST STATE STREET,HERMITAGE,PENNSYLVANIA,FIRST NATIONAL BANK OF PENNSYLVANIA
31306799,4140 EAST STATE STREET,HERMITAGE,PENNSYLVANIA,FIRST NATIONAL BANK OF PENNSYLVANIA
31307866,4140 EAST STATE STREET,HERMITAGE,PENNSYLVANIA,FIRST NATIONAL BANK OF PENNSYLVANIA
31309314,4140 EAST STATE STREET,HERMITAGE,PENNSYLVANIA,FIRST NATIONAL BANK OF PENNSYLVANIA
31309385,4140 EAST STATE STREET,HERMITAGE,PENNSYLVANIA,FIRST NATIONAL BANK OF PENNSYLVANIA
31313261,4140 EAST STATE STREET,HERMITAGE,PENNSYLVANIA,FIRST NATIONAL BANK OF PENNSYLVANIA
31316271,4140 EAST STATE STREET,HERMITAGE,PENNSYLVANIA,FIRST NATIONAL BANK OF PENNSYLVANIA
31317021,4140 EAST STATE STREET,HERMITAGE,PENNSYLVANIA,FIRST NATIONAL BANK OF PENNSYLVANIA
31317380,4140 EAST STATE STREET,HERMITAGE,PENNSYLVANIA,FIRST NATIONAL BANK OF PENNSYLVANIA
31318596,4140 EAST STATE STREET,HERMITAGE,PENNSYLVANIA,FIRST NATIONAL BANK OF PENNSYLVANIA
31318606,4140 EAST STATE STREET,HERMITAGE,PENNSYLVANIA,FIRST NATIONAL BANK OF PENNSYLVANIA
41202511,4140 EAST STATE STREET,HERMITAGE,OHIO,FIRST NATIONAL BANK OF PENNSYLVANIA
43300712,4140 EAST STATE STREET,HERMITAGE,PENNSYLVANIA,FIRST NATIONAL BANK OF PENNSYLVANIA
43304239,4140 EAST STATE STREET,HERMITAGE,PENNSYLVANIA,FIRST NATIONAL BANK OF PENNSYLVANIA
43309975,4140 EAST STATE STREET,HERMITAGE,PENNSYLVANIA,FIRST NATIONAL BANK OF PENNSYLVANIA
43317679,4140 EAST STATE STREET,HERMITAGE,PENNSYLVANIA,FIRST NATIONAL BANK OF PENNSYLVANIA
43318092,4140 EAST STATE STREET,HERMITAGE,PENNSYLVANIA,FIRST NATIONAL BANK OF PENNSYLVANIA
53102117,4140 EAST STATE STREET,HERMITAGE,PENNSYLVANIA,FIRST NATIONAL BANK OF PENNSYLVANIA
53102816,4140 EAST STATE STREET,HERMITAGE,PENNSYLVANIA,FIRST NATIONAL BANK OF PENNSYLVANIA
53106799,4140 EAST STATE STREET,HERMITAGE,PENNSYLVANIA,FIRST NATIONAL BANK OF PENNSYLVANIA
53111920,4140 EAST STATE STREET,HERMITAGE,PENNSYLVANIA,FIRST NATIONAL BANK OF PENNSYLVANIA
53111988,4140 EAST STATE STREET,HERMITAGE,PENNSYLVANIA,FIRST NATIONAL BANK OF PENNSYLVANIA
53112110,4140 EAST STATE STREET,HERMITAGE,PENNSYLVANIA,FIRST NATIONAL BANK OF PENNSYLVANIA
53112220,4140 EAST STATE STREET,HERMITAGE,PENNSYLVANIA,FIRST NATIONAL BANK OF PENNSYLVANIA
53112233,4140 EAST STATE STREET,HERMITAGE,PENNSYLVANIA,FIRST NATIONAL BANK OF PENNSYLVANIA
53112275,4140 EAST STATE STREET,HERMITAGE,PENNSYLVANIA,FIRST NATIONAL BANK OF PENNSYLVANIA
53112453,4140 EAST STATE STREET,HERMITAGE,PENNSYLVANIA,FIRST NATIONAL BANK OF PENNSYLVANIA
53112479,4140 EAST STATE STREET,HERMITAGE,PENNSYLVANIA,FIRST NATIONAL BANK OF PENNSYLVANIA
53112631,4140 EAST STATE STREET,HERMITAGE,PENNSYLVANIA,FIRST NATIONAL BANK OF PENNSYLVANIA
53112660,4140 EAST STATE STREET,HERMITAGE,PENNSYLVANIA,FIRST NATIONAL BANK OF PENNSYLVANIA
53112686,4140 EAST STATE STREET,HERMITAGE,PENNSYLVANIA,FIRST NATIONAL BANK OF PENNSYLVANIA
53112709,4140 EAST STATE STREET,HERMITAGE,PENNSYLVANIA,FIRST NATIONAL BANK OF PENNSYLVANIA
53112864,4140 EAST STATE STREET,HERMITAGE,PENNSYLVANIA,FIRST NATIONAL BANK OF PENNSYLVANIA
53202305,4140 EAST STATE STREET,HERMITAGE,PENNSYLVANIA,FIRST NATIONAL BANK OF PENNSYLVANIA
55002480,4140 EAST STATE STREET,HERMITAGE,PENNSYLVANIA,FIRST NATIONAL BANK OF PENNSYLVANIA
231375290,4140 EAST STATE STREET,HERMITAGE,PENNSYLVANIA,FIRST NATIONAL BANK OF PENNSYLVANIA
241070459,4140 EAST STATE STREET,HERMITAGE,PENNSYLVANIA,FIRST NATIONAL BANK OF PENNSYLVANIA
241272079,4140 EAST STATE STREET,HERMITAGE,PENNSYLVANIA,FIRST NATIONAL BANK OF PENNSYLVANIA
243073852,4140 EAST STATE STREET,HERMITAGE,PENNSYLVANIA,FIRST NATIONAL BANK OF PENNSYLVANIA
243373471,4140 EAST STATE STREET,HERMITAGE,PENNSYLVANIA,FIRST NATIONAL BANK OF PENNSYLVANIA
253171430,4140 EAST STATE STREET,HERMITAGE,PENNSYLVANIA,FIRST NATIONAL BANK OF PENNSYLVANIA
254070132,4140 EAST STATE STREET,HERMITAGE,PENNSYLVANIA,FIRST NATIONAL BANK OF PENNSYLVANIA
255070351,4140 EAST STATE STREET,HERMITAGE,PENNSYLVANIA,FIRST NATIONAL BANK OF PENNSYLVANIA
61020317,200 WEST CONGRESS STREET,LAFAYETTE,LOUISIANA,IBERIABANK
61020977,200 WEST CONGRESS STREET,LAFAYETTE,LOUISIANA,IBERIABANK
62004099,200 WEST CONGRESS STREET,LAFAYETTE,LOUISIANA,IBERIABANK
62202749,200 WEST CONGRESS STREET,LAFAYETTE,LOUISIANA,IBERIABANK
62206415,200 WEST CONGRESS STREET,LAFAYETTE,LOUISIANA,IBERIABANK
63016154,200 WEST CONGRESS STREET,LAFAYETTE,LOUISIANA,IBERIABANK
63111169,200 WEST CONGRESS STREET,LAFAYETTE,LOUISIANA,IBERIABANK
63112249,200 WEST CONGRESS STREET,LAFAYETTE,LOUISIANA,IBERIABANK
63112825,200 WEST CONGRESS STREET,LAFAYETTE,LOUISIANA,IBERIABANK
63115178,200 WEST CONGRESS STREET,LAFAYETTE,LOUISIANA,IBERIABANK
63115521,200 WEST CONGRESS STREET,LAFAYATTE,LOUISIANA,IBERIABANK
63116494,200 WEST CONGRESS STREET,LAFAYETTE,LOUISIANA,IBERIABANK
63116588,200 WEST CONGRESS STREET,LAFAYETTE,LOUISIANA,IBERIABANK
65003453,200 WEST CONGRESS STREET,LAFAYETTE,LOUISIANA,IBERIABANK
65201349,200 WEST CONGRESS STREET,LAFAYETTE,LOUISIANA,IBERIABANK
65202568,200 W CONGRESS,LAFAYETTE,LOUISIANA,IBERIABANK
65405349,200 WEST CONGRESS STREET,LAFAYETTE,LOUISIANA,IBERIABANK
65405417,200 WEST CONGRESS STREET,LAFAYETTE,LOUISIANA,IBERIABANK
66006349,200 WEST CONGRESS STREET,LAFAYETTE,LOUISIANA,IBERIABANK
67009646,200 WEST CONGRESS STREET,LAFAYETTE,LOUISIANA,IBERIABANK
67010169,200 WEST CONGRESS STREET,LAFAYETTE,LOUISIANA,IBERIABANK
67011825,200 WEST CONGRESS STREET,LAFAYETTE,LOUISIANA,IBERIABANK
67014123,200 WEST CONGRESS STREET,LAFAYETTE,LOUISIANA,IBERIABANK
67015119,200 WEST CONGRESS STREET,LAFAYETTE,LOUISIANA,IBERIABANK
82007791,200 W CONGRESS ST,LAFAYETTE,LOUISIANA,IBERIABANK
82901826,200 W CONGRESS STREET,LAFAYETTE,LOUISIANA,IBERIABANK
82904483,200 W CONGRESS ST,LAFAYETTE,LOUISIANA,IBERIABANK
82908874,200 W. CONGRESS STREET,LAFAYETTE,LOUISIANA,IBERIABANK
84004284,200 WEST CONGRESS STREET,LAFAYETTE,LOUISIANA,IBERIABANK
84008853,200 W CONGRESS ST,LAFAYETTE,LOUISIANA,IBERIABANK
84101323,200 W CONGRESS ST,LAFAYETTE,LOUISIANA,IBERIABANK
84107055,200 W CONGRESS ST,LAFAYETTE,LOUISIANA,IBERIABANK
84107893,200 W CONGRESS ST,LAFAYETTE,LOUISIANA,IBERIABANK
111025518,200 WEST CONGRESS STREET,LAFAYETTE,LOUISIANA,IBERIABANK
111103197,200 WEST CONGRESS,LAFAYETTE,LOUISIANA,IBERIABANK
111105234,200 WEST CONGRESS STREET,LAFAYETTE,LOUISIANA,IBERIABANK
263091128,200 WEST CONGRESS STREET,LAFAYETTE,LOUISIANA,IBERIABANK
263190757,200 WEST CONGRESS STREET,LAFAYETTE,LOUISIANA,IBERIABANK
265270222,200 WEST CONGRESS STREET,LAYAYETTE,LOUISIANA,IBERIABANK
265270316,200 W CONGRESS ST,LAFAYETTE,LOUISIANA,IBERIABANK
265270413,200 WEST CONGRESS STREET,LAFAYETTE,LOUISIANA,IBERIABANK
265270769,200 WEST CONGRESS STREET,LAFAYETTE,LOUISIANA,IBERIABANK
265470381,200 W CONGRESS,LAFAYETTE,LOUISIANA,IBERIABANK
267090455,200 WEST CONGRESS STREET,LAFAYETTE,LOUISIANA,IBERIABANK
267091250,200 WEST CONGRESS STREET,LAFAYETTE,LOUISIANA,IBERIABANK
282970437,200 W CONGRESS ST,LAFAYETTE,LOUISIANA,IBERIABANK
284170510,200 W CONGRESS ST,LAFAYETTE,LOUISIANA,IBERIABANK
26013291,PO BOX 196,OZARK,ARKANSAS,BANK OZK
53101684,PO BOX 196,OZARK,ARKANSAS,BANK OZK
53112259,PO BOX 196,OZARK,ARKANSAS,BANK OZK
53208118,PO BOX 196,OZARK,ARKANSAS,BANK OZK
53274155,P.O. BOX 196,OZARK,ARKANSAS,BANK OZK
61019771,PO BOX 196,OZARK,ARKANSAS,BANK OZK
61103001,PO BOX 196,OZARK,ARKANSAS,BANK OZK
61103878,PO BOX 196,OZARK,ARKANSAS,BANK OZK
61104262,PO BOX 196,OZARK,ARKANSAS,BANK OZK
61104822,PO BOX 196,OZARK,ARKANSAS,BANK OZK
61105533,PO BOX 196,OZARK,ARKANSAS,BANK OZK
61110405,PO BOX 196,OZARK,ARKANSAS,BANK OZK
61112458,PO BOX 196,OZARK,ARKANSAS,BANK OZK
61112474,P.O. BOX 196,OZARK,ARKANSAS,BANK OZK
61119545,PO BOX 196,OZARK,ARKANSAS,BANK OZK
61119558,P.O. BOX 196,OZARK,ARKANSAS,BANK OZK
61119600,PO BOX 196,OZARK,ARKANSAS,BANK OZK
61120107,P.O. BOX 196,OZARK,ARKANSAS,BANK OZK
61120233,P.O BOX 196,OZARK,ARKANSAS,BANK OZK
61120369,P.O. BOX 196,OZARK,ARKANSAS,BANK OZK
61120521,P.O. BOX 196,OZARK,ARKANSAS,BANK OZK
61120550,P.O. BOX 196,OZARK,ARKANSAS,BANK OZK
61120631,P.O. BOX 196,OZARK,ARKANSAS,BANK OZK
61120738,PO BOX 196,OZARK,ARKANSAS,BANK OZK
61120958,PO BOX 196,OZARK,ARKANSAS,BANK OZK
61121041,PO BOX 196,OZARK,ARKANSAS,BANK OZK
61121135,PO BOX 280,CARROLLTON,GEORGIA,BANK OZK
61121151,PO BOX 196,OZARK,ARKANSAS,BANK OZK
61204968,PO BOX 196,OZARK,ARKANSAS,BANK OZK
61213153,PO BOX 196,OZARK,ARKANSAS,BANK OZK
61220285,PO BOX 196,OZARK,ARKANSAS,BANK OZK
62102218,P.O. BOX 196,OZARK,ARKANSAS,BANK OZK
63113167,PO BOX 196,OZARK,ARKANSAS,BANK OZK
63114137,P O BOX 196,OZARK,ARKANSAS,BANK OZK
63114865,P.O. BOX 196,OZARK,ARKANSAS,BANK OZK
63115055,P O BOX 196,OZARK,ARKANSAS,BANK OZK
63115411,P O BOX 196,OZARK,ARKANSAS,BANK OZK
67014521,P O BOX 196,OZARK,ARKANSAS,BANK OZK
67015601,P O BOX 196,OZARK,ARKANSAS,BANK OZK
82901871,P.O. BOX 196,OZARK,ARKANSAS,BANK OZK
82907273,600 WEST COMMERCIAL STREET,OZARK,ARKANSAS,BANK OZK
111925032,600 WEST COMMERCIAL,OZARK,ARKANSAS,BANK OZK
113001035,PO BOX 196,OZARK,ARKANSAS,BANK OZK
267090772,P O BOX 196,OZARK,ARKANSAS,BANK OZK
11110633,1645 ELLINGTON RD,SOUTH WINDSOR,CONNECTICUT,UNITED BANK
11110646,1645 ELLINGTON RD,SOUTH WINDSOR,CONNECTICUT,UNITED BANK
11307116,1645 ELLINGTON RD,SOUTH WINDSOR,CONNECTICUT,UNITED BANK
43316942,11185 FAIRFAX BLVD,FAIRFAX,VIRGINIA,UNITED BANK
43400052,11185 FAIRFAX BLVD,FAIRFAX,VIRGINIA,UNITED BANK
51405324,SUITE 100,CHANTILLY,VIRGINIA,UNITED BANK
51405405,SUITE 1000,CHANTILLY,VIRGINIA,UNITED BANK
51408923,SUITE 100,CHANTILLY,VIRGINIA,UNITED BANK
51500481,11185 FAIRFAX BLVD,FAIRFAX,VIRGINIA,UNITED BANK
51501545,11185 FAIRFAX BLVD,FAIRFAX,VIRGINIA,UNITED BANK
51501642,11185 FAIRFAX BLVD,FAIRFAX,VIRGINIA,UNITED BANK
51502625,11185 FAIRFAX BLVD,FAIRFAX,VIRGINIA,UNITED BANK
51503161,11185 FAIRFAX BLVD,FAIRFAX,VIRGINIA,UNITED BANK
51504500,11185 FAIRFAX BLVD,FAIRFAX,VIRGINIA,UNITED BANK
51504623,11185 FAIRFAX BLVD,FAIRFAX,VIRGINIA,UNITED BANK
51900395,11185 FAIRFAX BLVD,FAIRFAX,VIRGINIA,UNITED BANK
54001534,4221 WALNEY ROAD,CHANTILLY,VIRGINIA,UNITED BANK
54001550,4221 WALNEY ROAD,CHANTILLY,VIRGINIA,UNITED BANK
54001628,4221 WALNEY ROAD,CHANTILLY,VIRGINIA,UNITED BANK
54001712,11185 FAIRFAX BOULEVARD,FAIRFAX,VIRGINIA,UNITED BANK
55001711,4221 WALNEY ROAD,CHANTILLY,VIRGINIA,UNITED BANK
56003158,4221 WALNEY ROAD,CHANTILLY,VIRGINIA,UNITED BANK
56003174,4221 WALNEY ROAD,CHANTILLY,VIRGINIA,UNITED BANK
56004623,11185 FAIRFAX BOULEVARD,FAIRFAX,VIRGINIA,UNITED BANK
56005169,4221 WALNEY ROAD,CHANTILLY,VIRGINIA,UNITED BANK
56005253,11185 FAIRFAX BOULEVARD,FAIRFAX,VIRGINIA,UNITED BANK
56005376,4221 WALNEY ROAD,CHANTILLY,VIRGINIA,UNITED BANK
56008849,11185 FAIRFAX BOULEVARD,FAIRFAX,VIRGINIA,UNITED BANK
57004680,11185 FAIRFAX BLVD,FAIRFAX,VIRGINIA,UNITED BANK
61101799,235 GRIFFIN ST,ZEBULON,GEORGIA,UNITED BANK
61102138,235 GRIFFIN ST,ZEBULON,GEORGIA,UNITED BANK
61102617,235 GRIFFIN ST,ZEBULON,GEORGIA,UNITED BANK
61104204,235 GRIFFIN ST,ZEBULON,GEORGIA,UNITED BANK
61107515,235 GRIFFIN ST,ZEBULON,GEORGIA,UNITED BANK
61119477,235 GRIFFIN ST,ZEBULON,GEORGIA,UNITED BANK
61120437,235 GRIFFIN ST,ZEBULON,GEORGIA,UNITED BANK
82974471,2600 S.THOMPSON STREET,SPRINGDALE,ARKANSAS,UNITED BANK
91806381,50518 CHARLES STREET,OSSEO,WISCONSIN,UNITED BANK
211170169,1645 ELLINGTON RD,SOUTH WINDSOR,CONNECTICUT,UNITED BANK
211170318,95 ELM STREET,WEST SPRINGFIELD,MASSACHUSETTS,UNITED BANK
211872027,1645 ELLINGTON RD,SOUTH WINDSOR,CONNECTICUT,UNITED BANK
243474325,11185 FAIRFAX BLVD,FAIRFAX,VIRGINIA,UNITED BANK
261170494,235 GRIFFIN STREET,ZEBULON,GEORGIA,UNITED BANK
282974161,2600 S THOMPSON,SPRINGDALE,ARKANSAS,UNITED BANK
42100175,EP-MN-WN1A,ST. PAUL,MINNESOTA,US BANK NA
42201948,EP-MN-WN1A,ST. PAUL,MINNESOTA,US BANK NA
42205038,EP-MN-WN1A,ST. PAUL,MINNESOTA,US BANK NA
71000521,EP-MN-WN1A,ST. PAUL,MINNESOTA,US BANK NA
71904779,EP-MN-WN1A,ST. PAUL,MINNESOTA,US BANK NA
73000545,EP-MN-WN1A,ST. PAUL,MINNESOTA,US BANK NA
73921514,EP-MN-WN1A,ST. PAUL,MINNESOTA,US BANK NA
74900783,EP-MN-WN1A,ST. PAUL,MINNESOTA,US BANK NA
75000022,EP-MN-WN1A,ST. PAUL,MINNESOTA,US BANK NA
75000103,EP-MN-WN1A,ST. PAUL,MINNESOTA,US BANK NA
75900465,EP-MN-WN1A,ST. PAUL,MINNESOTA,US BANK NA
75911603,EP-MN-WN1A,ST. PAUL,MINNESOTA,US BANK NA
81000210,EP-MN-WN1A,ST. PAUL,MINNESOTA,US BANK NA
81202759,EP-MN-WN1A,ST. PAUL,MINNESOTA,US BANK NA
81517693,EP-MN-WN1A,ST. PAUL,MINNESOTA,US BANK NA
82000549,EP-MN-WN1A,ST. PAUL,MINNESOTA,US BANK NA
82901444,EP-MN-WN1A,ST. PAUL,MINNESOTA,US BANK NA
83900363,EP-MN-WN1A,ST. PAUL,MINNESOTA,US BANK NA
83900732,EP-MN-WN1A,ST. PAUL,MINNESOTA,US BANK NA
91000022,EP-MN-WN1A,ST. PAUL,MINNESOTA,US BANK NA
91015224,EP-MN-WN1A,ST. PAUL,MINNESOTA,US BANK NA
91215927,EP-MN-WN1A,ST. PAUL,MINNESOTA,US BANK NA
91300023,EP-MN-WN1A,ST. PAUL,MINNESOTA,US BANK NA
91800293,EP-MN-WN1A,ST. PAUL,MINNESOTA,US BANK NA
92900383,EP-MN-WN1A,ST. PAUL,MINNESOTA,US BANK NA
101000187,EP-MN-WN1A,ST. PAUL,MINNESOTA,US BANK NA
101200453,EP-MN-WN1A,ST. PAUL,MINNESOTA,US BANK NA
102000021,EP-MN-WN1A,ST. PAUL,MINNESOTA,US BANK NA
102101645,EP-MN-WN1A,ST. PAUL,MINNESOTA,US BANK NA
104000029,EP-MN-WN1A,ST. PAUL,MINNESOTA,US BANK NA
121122676,EP-MN-WN1A,ST. PAUL,MINNESOTA,US BANK NA
121201694,EP-MN-WN1A,ST. PAUL,MINNESOTA,US BANK NA
122105155,EP-MN-WN1A,ST. PAUL,MINNESOTA,US BANK NA
122235821,EP-MN-WN1A,ST. PAUL,MINNESOTA,US BANK NA
123000220,EP-MN-WN1A,ST. PAUL,MINNESOTA,US BANK NA
123000848,EP-MN-WN1A,ST. PAUL,MINNESOTA,US BANK NA
123103729,EP-MN-WN1A,ST. PAUL,MINNESOTA,US BANK NA
123206516,EP-MN-WN1A,ST. PAUL,MINNESOTA,US BANK NA
123206707,EP-MN-WN1A,ST. PAUL,MINNESOTA,US BANK NA
123306160,EP-MN-WN1A,ST. PAUL,MINNESOTA,US BANK NA
124302150,EP-MN-WN1A,ST. PAUL,MINNESOTA,US BANK NA
125000105,EP-MN-WN1A,ST. PAUL,MINNESOTA,US BANK NA
273970514,EP-MN-WN1A,ST. PAUL,MINNESOTA,US BANK NA
307070115,EP-MN-WN1A,ST. PAUL,MINNESOTA,US BANK NA
42107738,1 MAIN STREET,BOONEVILLE,KENTUCKY,FARMERS STATE BANK
61108161,115 N WASHINGTON ST,LINCOLNTON,GEORGIA,FARMERS STATE BANK
61211197,1620 VETERANS BLVD,DUBLIN,GEORGIA,FARMERS STATE BANK
64202844,100 W MAIN ST,MOUNTAIN CITY,TENNESSEE,FARMERS STATE BANK
65203499,P.O. BOX 9,CHURCH POINT,LOUISIANA,FARMERS STATE BANK
71112817,205 LINCOLN ST,EMDEN,ILLINOIS,FARMERS STATE BANK
73908045,STE 100,WATERLOO,IOWA,FARMERS STATE BANK
73909578,412 BROAD ST,WHITTEMORE,IOWA,FARMERS STATE BANK
73911676,1240 8TH AVE,MARION,IOWA,FARMERS STATE BANK
73918103,401 MAIN STREET,LAKE VIEW,IOWA,FARMERS STATE BANK
73918323,201 MAIN ST,YALE,IOWA,FARMERS STATE BANK
73918569,PO BOX 6,GRAFTON,IOWA,FARMERS STATE BANK
73921006,PO BOX 548,MARCUS,IOWA,FARMERS STATE BANK
74910854,220 S DETROIT ST,LAGRANGE,INDIANA,FARMERS STATE BANK
75907808,726 WATER AVE,HILLSBORO,WISCONSIN,FARMERS STATE BANK
75910387,726 WATER AVE,HILLSBORO,WISCONSIN,FARMERS STATE BANK
81206373,108 EAST ADAMS,PITTSFIELD,ILLINOIS,FARMERS STATE BANK
81917662,P O BOX 101,MEDORA,ILLINOIS,FARMERS STATE BANK
91212687,PO BOX 247,UNDERWOOD,MINNESOTA,FARMERS STATE BANK
91400758,PO BOX 178,CANTON,SOUTH DAKOTA,FARMERS STATE BANK
91407133,"123 CENTER STREET, P.O. BOX 128",TURTON,SOUTH DAKOTA,FARMERS STATE BANK
91408297,103 WEST MAIN ST,PARKSTON,SOUTH DAKOTA,FARMERS STATE BANK
92905537,P.O. BOX 190,VICTOR,MONTANA,FARMERS STATE BANK
101105927,P.O. BOX 330,WESTMORELAND,KANSAS,FARMERS STATE BANK
101107802,P.O. BOX 465,HOLTON,KANSAS,FARMERS STATE BANK
101108380,2074 E KANSAS,MCPHERSON,KANSAS,FARMERS STATE BANK
101110543,P O BOX 544,PHILLIPSBURG,KANSAS,FARMERS STATE BANK
101111490,205 S FIFTH STREET,BLUE MOUND,KANSAS,FARMERS STATE BANK
101112716,412 W COMMERCIAL,FAIRVIEW,KANSAS,FARMERS STATE BANK
101113676,624 MAIN,DWIGHT,KANSAS,FARMERS STATE BANK
101202503,P.O. BOX 567,CAMERON,MISSOURI,FARMERS STATE BANK
101206279,P.O. BOX 567,CAMERON,MISSOURI,FARMERS STATE BANK
101206800,P O BOX 98,SCHELL CITY,MISSOURI,FARMERS STATE BANK
102103588,PO BOX 324,BRUSH,COLORADO,FARMERS STATE BANK
103104874,1100 MAIN,QUINTON,OKLAHOMA,FARMERS STATE BANK
104112849,PO BOX 67,DODGE,NEBRASKA,FARMERS STATE BANK
104113628,P O BOX 67,DODGE,NEBRASKA,FARMERS STATE BANK
104903498,P.O. BOX 67,DODGE,NEBRASKA,FARMERS STATE BANK
111915039,121 S. ELLIS,GROESBECK,TEXAS,FARMERS STATE BANK
113105070,115 SHELBYVILLE STREET,CENTER,TEXAS,FARMERS STATE BANK
125103882,PO BOX 489,WINTHROP,WASHINGTON,FARMERS STATE BANK
301271787,PO BOX 567,CAMERON,MISSOURI,FARMERS STATE BANK
62202998,P O BOX 800,VERNON,ALABAMA,CITIZENS STATE BANK
63106501,13840 W. NEWBERRY RD,NEWBERRY,FLORIDA,CITIZENS STATE BANK
71108106,P O BOX 396,LENA,ILLINOIS,CITIZENS STATE BANK
73907952,P.O. BOX 198,WYOMING,IOWA,CITIZENS STATE BANK
73921190,117 W 1ST STREET,MONTICELLO,IOWA,CITIZENS STATE BANK
73922322,P O BOX 130,SHELDON,IOWA,CITIZENS STATE BANK
74902082,1238 BROAD STREET,NEW CASTLE,INDIANA,CITIZENS STATE BANK
74913699,1238 BROAD STREET,NEW CASTLE,INDIANA,CITIZENS STATE BANK
91205733,PO BOX 67,GLENVILLE,MINNESOTA,CITIZENS STATE BANK
91310929,PO BOX 255,FINLEY,NORTH DAKOTA,CITIZENS STATE BANK
91401919,PO BOX 378,ARLINGTON,SOUTH DAKOTA,CITIZENS STATE BANK
91803889,PO BOX 66,CADOTT,WISCONSIN,CITIZENS STATE BANK
91807254,PO BOX 247,HUDSON,WISCONSIN,CITIZENS STATE BANK
91904872,216 1ST AVENUE NE,HAYFIELD,MINNESOTA,CITIZENS STATE BANK
91905295,PO BOX 68,WAVERLY,MINNESOTA,CITIZENS STATE BANK
101102331,PO BOX 388,MARYSVILLE,KANSAS,CITIZENS STATE BANK
101104096,P O BOX 102,GRIDLEY,KANSAS,CITIZENS STATE BANK
101104494,306 NORTH MAIN,CHENEY,KANSAS,CITIZENS STATE BANK
101106379,P O BOX 102,GRIDLEY,KANSAS,CITIZENS STATE BANK
101109156,PO BOX 102,GRIDLEY,KANSAS,CITIZENS STATE BANK
101111348,921 AVE E,WISNER,NEBRASKA,CITIZENS STATE BANK
103103105,402 W. BDWY,OKEMAH,OKLAHOMA,CITIZENS STATE BANK
104103683,921 AVENUE E,WISNER,NEBRASKA,CITIZENS STATE BANK
104106509,921 AVE E,WISNER,NEBRASKA,CITIZENS STATE BANK
104902127,921 AVE E,WISNER,NEBRASKA,CITIZENS STATE BANK
104902392,921 AVE E,WISNER,NEBRASKA,CITIZENS STATE BANK
111321856,111 SOUTH ROBINSON,MILES,TEXAS,CITIZENS STATE BANK
111322402,BOX 120,ANTON,TEXAS,CITIZENS STATE BANK
111907775,1330 W COMMERCE STREET,BUFFALO,TEXAS,CITIZENS STATE BANK
111908965,1330 W COMMERCE STREET,BUFFALO,TEXAS,CITIZENS STATE BANK
111909993,P.O. BOX 7020,TYLER,TEXAS,CITIZENS STATE BANK
111910092,1330 W COMMERCE STREET,BUFFALO,TEXAS,CITIZENS STATE BANK
111918230,1330 W COMMERCE STREET,BUFFALO,TEXAS,CITIZENS STATE BANK
113104275,222 MAIN STREET,SEALY,TEXAS,CITIZENS STATE BANK
113110641,P O BOX 1190,GANADO,TEXAS,CITIZENS STATE BANK
113110816,P O BOX 500,CORRIGAN,TEXAS,CITIZENS STATE BANK
113112995,BOX 518,SOMERVILLE,TEXAS,CITIZENS STATE BANK
113118342,300 N HOME STREET,CORRIGAN,TEXAS,CITIZENS STATE BANK
113119105,102 WEST BLUFF ST,WOODVILLE,TEXAS,CITIZENS STATE BANK
114907633,P O BOX 988,ROMA,TEXAS,CITIZENS STATE BANK
114916488,200 S MAGNOLIA AVE,LULING,TEXAS,CITIZENS STATE BANK
51009296,P.O. BOX 681,BIRMINGHAM,ALABAMA,REGIONS BANK
53012029,P O BOX 681,BIRMINGHAM,ALABAMA,REGIONS BANK
53201814,P O BOX 681,BIRMINGHAM,ALABAMA,REGIONS BANK
61101375,P.O. BOX 681,BIRMINGHAM,ALABAMA,REGIONS BANK
61104712,2090 PARKWAY OFFICE CIRCLE,HOOVER,ALABAMA,REGIONS BANK
62000019,P.O. BOX 681,BIRMINGHAM,ALABAMA,REGIONS BANK
62005690,P.O. BOX 681,BIRMINGHAM,ALABAMA,REGIONS BANK
62202150,P.O. BOX 681,BIRMINGHAM,ALABAMA,REGIONS BANK
62203735,P.O. BOX 681,BIRMINGHAM,ALABAMA,REGIONS BANK
63104668,P.O. BOX 681,BIRMINGHAM,ALABAMA,REGIONS BANK
63206663,P.O. BOX 681,BIRMINGHAM,ALABAMA,REGIONS BANK
63210112,P.O. BOX 681,BIRMINGHAM,ALABAMA,REGIONS BANK
64000017,P.O. BOX 681,BIRMINGHAM,ALABAMA,REGIONS BANK
64002280,P O BO 681,BIRMINGHAM,ALABAMA,REGIONS BANK
64003962,P.O. BOX 681,BIRMINGHAM,ALABAMA,REGIONS BANK
64102397,P.O. BOX 681,BIRMINGHAM,ALABAMA,REGIONS BANK
64103079,P.O. BOX 681,BIRMINGHAM,ALABAMA,REGIONS BANK
64200765,P.O. BOX 681,BIRMINGHAM,ALABAMA,REGIONS BANK
64200914,P.O. BOX 681,BIRMINGHAM,ALABAMA,REGIONS BANK
64206594,P.O. BOX 681,BIRMINGHAM,ALABAMA,REGIONS BANK
65301155,P.O. BOX 681,BIRMINGHAM,ALABAMA,REGIONS BANK
65305902,P. O. BOX 681,BIRMINGHAM,ALABAMA,REGIONS BANK
65402892,P O BOX 681,BIRMINGHAM,ALABAMA,REGIONS BANK
65403626,P.O. BOX 681,BIRMINGHAM,ALABAMA,REGIONS BANK
65403875,P.O. BOX 681,BIRMINGHAM,ALABAMA,REGIONS BANK
65404913,P O BOX 681,BIRMINGHAM,ALABAMA,REGIONS BANK
67008414,P. O. BOX 681,BIRMINGHAM,ALABAMA,REGIONS BANK
67010583,P. O. BOX 681,BIRMINGHAM,ALABAMA,REGIONS BANK
71122661,P. O. BOX 681,BIRMINGHAM,ALABAMA,REGIONS BANK
73900438,P. O. BOX 681,BIRMINGHAM,ALABAMA,REGIONS BANK
74014213,P. O. BOX 681,BIRMINGHAM,ALABAMA,REGIONS BANK
81001387,P. O. BOX 681,BIRMINGHAM,ALABAMA,REGIONS BANK
82000109,PO BOX 681,BIRMINGHAM,ALABAMA,REGIONS BANK
83901744,P O BOX 681,BIRMINGHAM,ALABAMA,REGIONS BANK
84000084,P.O. BOX 681,BIRMINGHAM,ALABAMA,REGIONS BANK
84302614,PO BOX 681,BIRMINGHAM,ALABAMA,REGIONS BANK
84306953,P.O. BOX 681,BIRMINGHAM,ALABAMA,REGIONS BANK
111900785,P.O. BOX 681,BIRMINGHAM,ALABAMA,REGIONS BANK
261170740,P.O. BOX 681,BIRMINGHAM,ALABAMA,REGIONS BANK
264071590,P.O. BOX 681,BIRMINGHAM,ALABAMA,REGIONS BANK
103102122,4812 E 81ST ST,TULSA,OKLAHOMA,VALLEY NATIONAL BANK
103902717,4812 E 81ST ST,TULSA,OKLAHOMA,VALLEY NATIONAL BANK
221270318,1460 VALLEY ROAD,WAYNE,NEW JERSEY,VALLEY NATIONAL BANK
221270703,1460 VALLEY ROAD,WAYNE,NEW JERSEY,VALLEY NATIONAL BANK
221271090,1460 VALLEY ROAD,WAYNE,NEW JERSEY,VALLEY NATIONAL BANK
221271469,1460 VALLEY RD,WAYNE,NEW JERSEY,VALLEY NATIONAL BANK
221272565,1460 VALLEY ROAD,WAYNE,NEW JERSEY,VALLEY NATIONAL BANK
101006039,1200 E WARRENVILLE RD,NAPERVILLE,ILLINOIS,BMO HARRIS BANK NA
101100265,1200 E WARRENVILLE RD,NAPERVILLE,ILLINOIS,BMO HARRIS BANK NA
101102315,1200 E WARRENVILLE RD,NAPERVILLE,ILLINOIS,BMO HARRIS BANK NA
122104046,1200 E WARRENVILLE RD,NAPERVILLE,ILLINOIS,BMO HARRIS BANK NA
122105249,1200 E WARRENVILLE ROAD,NAPERVILLE,ILLINOIS,BMO HARRIS BANK NA
122105595,1200 E WARRENVILLE ROAD,NAPERVILLE,ILLINOIS,BMO HARRIS BANK NA
122105854,1200 E WARRENVILLE RD,NAPERVILLE,ILLINOIS,BMO HARRIS BANK NA
122487226,1200 E WARRENVILLE RD,NAPERVILLE,ILLINOIS,BMO HARRIS BANK NA
271974295,1200 E WARRENVILLE RD,NAPERVILLE,ILLINOIS,BMO HARRIS BANK NA
274070439,1220 E WARRENVILLE RD,NAPERVILLE,ILLINOIS,BMO HARRIS BANK NA
274970665,1200 E WARRENVILLE RD,NAPERVILLE,ILLINOIS,BMO HARRIS BANK NA
274970830,1200 E WARRENVILLE RD,NAPERVILLE,ILLINOIS,BMO HARRIS BANK NA
275071398,1200 E WARRENVILLE RD,NAPERVILLE,ILLINOIS,BMO HARRIS BANK NA
275071767,1220 E WARRENVILLE RD,NAPERVILLE,ILLINOIS,BMO HARRIS BANK NA
275971582,1200 E WARRENVILLE RD,NAPERVILLE,ILLINOIS,BMO HARRIS BANK NA
301271790,1200 E WARRENVILLE RD,NAPERVILLE,ILLINOIS,BMO HARRIS BANK NA
322186288,1200 E WARRENVILLE RD,NAPERVILLE,ILLINOIS,BMO HARRIS BANK NA
107000783,PO BOX 10566,BIRMINGHAM,ALABAMA,COMPASS BANK
107005319,P.O. BOX 10566,BIRMINGHAM,ALABAMA,COMPASS BANK
107006936,701 SOUTH 32ND STREET,BIRMINGHAM,ALABAMA,COMPASS BANK
111317857,P.O. BOX 10566,BIRMINGHAM,ALABAMA,COMPASS BANK
113010547,P.O. BOX 10566,BIRMINGHAM,ALABAMA,COMPASS BANK
114000718,P O BOX 10566,BIRMINGHAM,ALABAMA,COMPASS BANK
114016142,P O BOX 10566,BIRMINGHAM,ALABAMA,COMPASS BANK
114017125,P O BOX 10566,BIRMINGHAM,ALABAMA,COMPASS BANK
114900313,P.O. BOX 10566,BIRMINGHAM,ALABAMA,COMPASS BANK
114909013,P.O. BOX 10566,BIRMINGHAM,ALABAMA,COMPASS BANK
122101010,PO BOX 10566,BIRMINGHAM,ALABAMA,COMPASS BANK
122105744,PO BOX 10566,BIRMINGHAM,ALABAMA,COMPASS BANK
122220506,PO BOX 10566,BIRMINGHAM,ALABAMA,COMPASS BANK
263290576,PO BOX 10566,BIRMINGHAM,ALABAMA,COMPASS BANK
314970664,PO BOX 10566,BIRMINGHAM,ALABAMA,COMPASS BANK
321170538,PO BOX 10566,BIRMINGHAM,ALABAMA,COMPASS BANK
322270408,PO BOX 10566,BIRMINGHAM,ALABAMA,COMPASS BANK
231271226,ACH OPERATIONS 100-99-04-10,WILSON,NORTH CAROLINA,BRANCH BANKING & TRUST COMPANY
231371799,ACH OPERATIONS 100-99-04-10,WILSON,NORTH CAROLINA,BRANCH BANKING & TRUST COMPANY
231372183,ACH OPERATIONS 100-99-04-10,WILSON,NORTH CAROLINA,BRANCH BANKING & TRUST COMPANY
231372439,ACH OPERATIONS 100-99-04-10,WILSON,NORTH CAROLINA,BRANCH BANKING & TRUST COMPANY
231374961,ACH OPERATIONS 100-99-04-10,WILSON,NORTH CAROLINA,BRANCH BANKING & TRUST COMPANY
231971568,ACH OPERATIONS 100-99-04-10,WILSON,NORTH CAROLINA,BRANCH BANKING & TRUST COMPANY
252070309,ACH OPERATIONS 100-99-04-10,WILSON,NORTH CAROLINA,BRANCH BANKING & TRUST COMPANY
267083763,ACH OPERATIONS 100-99-04-10,WILSON,NORTH CAROLINA,BRANCH BANKING & TRUST COMPANY
101217514,P O BOX 79,AMSTERDAM,MISSOURI,CITIZENS BANK
101217750,P O BOX 79,AMSTERDAM,MISSOURI,CITIZENS BANK
111308277,211 E. MAIN,TUCUMCARI,NEW MEXICO,CITIZENS BANK
111320006,4201 SOUTH TREADAWAY BLVD.,ABILENE,TEXAS,CITIZENS BANK
111910445,PO BOX 1700,KILGORE,TEXAS,CITIZENS BANK
111922624,P O BOX 1700,KILGORE,TEXAS,CITIZENS BANK
112201218,P O BOX 1629,CLOVIS,NEW MEXICO,CITIZENS BANK
113119396,125 N MAIN,RUSK,TEXAS,CITIZENS BANK
123204013,275 SOUTHWEST THIRD STREET,CORVALLIS,OREGON,CITIZENS BANK
231373069,ROP440,RIVERSIDE,RHODE ISLAND,CITIZENS BANK
264271196,P.O. BOX 1900,ELIZABETHTON,TENNESSEE,CITIZENS BANK
102005916,12345 W COLFAX AVE,LAKEWOOD,COLORADO,FIRSTBANK
102006025,12345 W COLFAX AVE,LAKEWOOD,COLORADO,FIRSTBANK
102101519,12345 WEST COLFAX AVENUE,LAKEWOOD,COLORADO,FIRSTBANK
102103999,12345 W. COLFAX AVE.,LAKEWOOD,COLORADO,FIRSTBANK
102105269,12345 W COLFAX AVE,LAKEWOOD,COLORADO,FIRSTBANK
103103396,P.O. BOX 458,ANTLERS,OKLAHOMA,FIRSTBANK
107001672,12345 W COLFAX AVE,LAKEWOOD,COLORADO,FIRSTBANK
107001805,12345 W COLFAX AVE,LAKEWOOD,COLORADO,FIRSTBANK
107002503,12345 W COLFAX AVE,LAKEWOOD,COLORADO,FIRSTBANK
107002532,12345 W COLFAX AVE,LAKEWOOD,COLORADO,FIRSTBANK
107003010,12345 W COLFAX AVE,LAKEWOOD,COLORADO,FIRSTBANK
107003298,12345 WEST COLFAX AVENUE,LAKEWOOD,COLORADO,FIRSTBANK
107003612,12345 W COLFAX AVE,LAKEWOOD,COLORADO,FIRSTBANK
107004352,12345 W COLFAX AVE,LAKEWOOD,COLORADO,FIRSTBANK
107004381,12345 W COLFAX AVE,LAKEWOOD,COLORADO,FIRSTBANK
107005047,12345 W COLFAX AVE,LAKEWOOD,COLORADO,FIRSTBANK
107005490,12345 WEST COLFAX AVENUE,LAKEWOOD,COLORADO,FIRSTBANK
107005801,12345 W COLFAX AVE,LAKEWOOD,COLORADO,FIRSTBANK
107005924,12345 WEST COLFAX AVENUE,LAKEWOOD,COLORADO,FIRSTBANK
107006305,12345 W COLFAX AVE,LAKEWOOD,COLORADO,FIRSTBANK
107006347,12345 W COLFAX AVE,LAKEWOOD,COLORADO,FIRSTBANK
107006431,12345 W COLFAX AVE,LAKEWOOD,COLORADO,FIRSTBANK
107006512,12345 W COLFAX AVENUE,LAKEWOOD,COLORADO,FIRSTBANK
107006554,12345 W COLFAX AVE,LAKEWOOD,COLORADO,FIRSTBANK
107006651,12345 W COLFAX AVE,LAKEWOOD,COLORADO,FIRSTBANK
107006664,12345 W. COLFAX AVE,LAKEWOOD,COLORADO,FIRSTBANK
122106219,12345 W COLFAX AVE,LAKEWOOD,COLORADO,FIRSTBANK
221672851,1130 MUNOZ RIVERA AVE,SAN JUAN,PUERTO RICO,FIRSTBANK
121135087,110 S FERRALL STREET,SPOKANE,WASHINGTON,BANNER BANK
121137807,110 S FERRALL STREET,SPOKANE,WASHINGTON,BANNER BANK
121141903,110 S FERRALL STREET,SPOKANE,WASHINGTON,BANNER BANK
121142779,110 S FERRALL STREET,SPOKANE,WASHINGTON,BANNER BANK
121142834,110 S FERRALL STREET,SPOKANE,WASHINGTON,BANNER BANK
122237748,110 S FERRALL STREET,SPOKANE,WASHINGTON,BANNER BANK
122241831,110 S FERRALL STREET,SPOKANE,WASHINGTON,BANNER BANK
122243208,110 S FERRALL STREET,SPOKANE,WASHINGTON,BANNER BANK
122243457,110 S FERRALL STREET,SPOKANE,WASHINGTON,BANNER BANK
122243664,110 S FERRALL STREET,SPOKANE,WASHINGTON,BANNER BANK
122243800,110 S FERRALL STREET,SPOKANE,WASHINGTON,BANNER BANK
122244582,110 S FERRALL STREET,SPOKANE,WASHINGTON,BANNER BANK
123103570,110 S FERRALL STREET,SPOKANE,WASHINGTON,BANNER BANK
123202293,110 S FERRALL STREET,SPOKANE,WASHINGTON,BANNER BANK
123204071,110 S FERRALL STREET,SPOKANE,WASHINGTON,BANNER BANK
123204110,110 S FERRALL STREET,SPOKANE,WASHINGTON,BANNER BANK
123206590,110 S FERRALL STREET,SPOKANE,WASHINGTON,BANNER BANK
123206817,110 S FERRALL STREET,SPOKANE,WASHINGTON,BANNER BANK
123206901,110 S FERRALL STREET,SPOKANE,WASHINGTON,BANNER BANK
123308786,110 S FERRALL STREET,SPOKANE,WASHINGTON,BANNER BANK
124302257,110 S FERRALL STREET,SPOKANE,WASHINGTON,BANNER BANK
125008220,110S FERRALL STREET,SPOKANE,WASHINGTON,BANNER BANK
125105741,110 S FERRALL STREET,SPOKANE,WASHINGTON,BANNER BANK
125107037,110 S FERRALL STREET,SPOKANE,WASHINGTON,BANNER BANK
125107765,110 S FERRALL STREET,SPOKANE,WASHINGTON,BANNER BANK
125108065,110 S FERRALL STREET,SPOKANE,WASHINGTON,BANNER BANK
125108191,110 S FERRALL STREET,SPOKANE,WASHINGTON,BANNER BANK
125108382,110 S FERRALL STREET,SPOKANE,WASHINGTON,BANNER BANK
125108599,110 S FERRALL STREET,SPOKANE,WASHINGTON,BANNER BANK
125108764,110 S FERRAL STREET,SPOKANE,WASHINGTON,BANNER BANK
125108858,110 S FERRALL STREET,SPOKANE,WASHINGTON,BANNER BANK
125108890,110 S FERRALL STREET,SPOKANE,WASHINGTON,BANNER BANK
125108939,110 S FERRALL STREET,SPOKANE,WASHINGTON,BANNER BANK
323371076,110 S FERRALL STREET,SPOKANE,WASHINGTON,BANNER BANK
101104779,PO BOX 727,COLDWATER,KANSAS,PEOPLES BANK
103104489,WILLIAMS & DIVISION STREETS,WESTVILLE,OKLAHOMA,PEOPLES BANK
103901491,445 SO LEWIS AVE,TULSA,OKLAHOMA,PEOPLES BANK
111101597,6689 HWY 34,CHATHAM,CALIFORNIA,PEOPLES BANK
111325823,5820 82ND STREET,LUBBOCK,TEXAS,PEOPLES BANK
125104425,PO BOX 233,LYNDEN,WASHINGTON,PEOPLES BANK
241270039,PO BOX 738,MARIETTA,OHIO,PEOPLES BANK
242272625,P O BOX 738,MARIETTA,OHIO,PEOPLES BANK
243470196,P O BOX 738,MARIETTA,OHIO,PEOPLES BANK
244170275,138 PUTNAM STREET,MARIETTA,OHIO,PEOPLES BANK
101200440,20544 HUSKER DR,GRETNA,NEBRASKA,PINNACLE BANK
102301513,P O BOX 789,WORLAND,WYOMING,PINNACLE BANK
104107456,20544 HUSKER DR,GRETNA,NEBRASKA,PINNACLE BANK
104901034,20544 HUSKER DR,GRETNA,NEBRASKA,PINNACLE BANK
104910274,20544 HUSKER DR,GRETNA,NEBRASKA,PINNACLE BANK
104913912,20544 HUSKER DR,GRETNA,NEBRASKA,PINNACLE BANK
111903517,309 S OLD BETSY ROAD,KEENE,TEXAS,PINNACLE BANK
111909605,309 S OLD BETSY ROAD,KEENE,TEXAS,PINNACLE BANK
111912744,309 S OLD BETSY ROAD,KEENE,TEXAS,PINNACLE BANK
121144340,18181 BUTTERFIELD BLVD STE 135,MORGAN HILL,CALIFORNIA,PINNACLE BANK
122106109,14287 NORTH 87TH STREET SUITE 123,SCOTTSDALE,ARIZONA,PINNACLE BANK
253170020,10TH FLOOR,NASHVILLE,TENNESSEE,PINNACLE BANK
253173496,10TH FLOOR,NASHVILLE,TENNESSEE,PINNACLE BANK
253278498,10TH FLOOR,NASHVILLE,TENNESSEE,PINNACLE BANK
262287386,P.O. BOX 1388,JASPER,ALABAMA,PINNACLE BANK
253170512,2440 MALL DRIVE,N CHARLESTON,SOUTH CAROLINA,SOUTH STATE BANK
253271945,2430 MALL DR,N. CHAS,SOUTH CAROLINA,SOUTH STATE BANK
253272070,2430 MALL DR,N CHAS,SOUTH CAROLINA,SOUTH STATE BANK
253272481,2440 MALL DRIVE,N CHARLESTON,SOUTH CAROLINA,SOUTH STATE BANK
253273901,2430 MALL DR,N. CHAS,SOUTH CAROLINA,SOUTH STATE BANK
261190490,2440 MALL DR,CHAS,SOUTH CAROLINA,SOUTH STATE BANK
261271717,24 SECOND AVE,MOULTRIE,GEORGIA,AMERIS BANK
261275551,24 SECOND AVE,MOULTRIE,GEORGIA,AMERIS BANK
101102438,128 SOUTH BROADWAY,STERLING,KANSAS,FIRST BANK
102006119,P.O. 150097,LAKEWOOD,COLORADO,FIRST BANK
103104120,P O BOX 1228,ERICK,OKLAHOMA,FIRST BANK
103105116,PO BOX 1228,ERICK,OKLAHOMA,FIRST BANK
111907788,P O BOX 458,BURKBURNETT,TEXAS,FIRST BANK
121137506,600 JAMES S MCDONNELL BLVD,HAZELWOOD,MISSOURI,FIRST BANK
122239131,600 JAMES S MCDONNELL BOULEVARD,HAZELWOOD,MISSOURI,FIRST BANK
125200044,P O BOX 7920,KETCHIKAN,ALASKA,FIRST BANK
231270777,2465 RUSER RD,HAMILTON,NEW JERSEY,FIRST BANK
253170062,211 BURNETTE ST,TROY,NORTH CAROLINA,FIRST BANK
253171728,211 BURNETTE ST,TROY,NORTH CAROLINA,FIRST BANK
221370108,SECOND DRIVE,BUFFALO,NEW YORK,M & T BANK
221371165,SECOND FLOOR,AMHERST,NEW YORK,M & T BANK
231375520,626 COMMERCE DR,AMHERST,NEW YORK,M & T BANK
251472636,SECOND FLOOR,AMHERST,NEW YORK,M & T BANK
252070435,626 COMMERCE DRIVE,AMHERST,NEW YORK,M & T BANK
252070817,626 COMMERCE DRIVE,AMHERST,NEW YORK,M & T BANK
255072317,626 COMMERCE DRIVE,AMHERST,NEW YORK,M & T BANK
256073302,SECOND FLOOR,AMHERST,NEW YORK,M & T BANK
121136785,17555 NORTHEAST SACRAMENTO STREET,PORTLAND,OREGON,UMPQUA BANK
121138741,17555 NORTHEAST SACRAMENTO STREET,PORTLAND,OREGON,UMPQUA BANK
121140276,17555 NORTHEAST SACRAMENTO STREET,PORTLAND,OREGON,UMPQUA BANK
121140823,17555 NORTHEAST SACRAMENTO STREET,PORTLAND,OREGON,UMPQUA BANK
121140933,17555 NORTHEAST SACRAMENTO STREET,PORTLAND,OREGON,UMPQUA BANK
121141042,17555 NORTHEAST SACRAMENTO,PORTLAND,OREGON,UMPQUA BANK
121141107,17555 NE SACRAMENTO ST,PORTLAND,OREGON,UMPQUA BANK
121141819,17555 NORTHEAST SACRAMENTO STREET,PORTLAND,OREGON,UMPQUA BANK
121142517,17555 NORTHEAST SACRAMENTO STREET,PORTLAND,OREGON,UMPQUA BANK
121142627,17555 NORTHEAST SACRAMENTO STREET,PORTLAND,OREGON,UMPQUA BANK
121142902,17555 NORTHEAST SACRAMENTO STREET,PORTLAND,OREGON,UMPQUA BANK
121143118,17555 NORTHEAST SACRAMENTO,PORTLAND,OREGON,UMPQUA BANK
121181730,17555 NE SACRAMENTO STREET,PORTLAND,OREGON,UMPQUA BANK
121202185,17555 NE SACRAMENTO ST,PORTLAND,OREGON,UMPQUA BANK
122239584,17555 NE SACRAMENTO ST,PORTLAND,OREGON,UMPQUA BANK
122243703,17555 NE SACRAMENTO ST,PORTLAND,OREGON,UMPQUA BANK
123204835,17555 NORTHEAST SACRAMENTO STREET,PORTLAND,OREGON,UMPQUA BANK
123205054,17555 NORTHEAST SACRAMENTO STREET,PORTLAND,OREGON,UMPQUA BANK
123206053,17555 NORTHEAST SACRAMENTO,PORTLAND,OREGON,UMPQUA BANK
123305378,17555 NE SACRAMENTO ST,PORTLAND,OREGON,UMPQUA BANK
123308553,17555 NORTHEAST SACRAMENTO STREET,PORTLAND,OREGON,UMPQUA BANK
125006390,17555 NE SACRAMENTO STREET,PORTLAND,OREGON,UMPQUA BANK
125108450,17555 NE SACRAMENTO ST,PORTLAND,OREGON,UMPQUA BANK
125184746,17555 NE SACRAMENTO ST,PORTLAND,OREGON,UMPQUA BANK
292970841,17555 NE SACRAMENTO ST,PORTLAND,OREGON,UMPQUA BANK
323170112,17555 NE SACRAMENTO ST,PORTLAND,OREGON,UMPQUA BANK
323270216,17555 NE SACRAMENTO ST,PORTLAND,OREGON,UMPQUA BANK
323270300,17555 NE SACRAMENTO ST,PORTLAND,OREGON,UMPQUA BANK
325171740,17555 NE SACRAMENTO ST,PORTLAND,OREGON,UMPQUA BANK
325182946,17555 NE SACRAMENTO STREET,PORTLAND,OREGON,UMPQUA BANK
101001911,PO BOX 27025,RICHMOND,VIRGINIA,BANK OF AMERICA N.A.
101100045,PO BOX 27025,RICHMOND,VIRGINIA,BANK OF AMERICA N.A.
101901820,P O BOX 27025,RICHMOND,VIRGINIA,BANK OF AMERICA N.A.
102201244,PO BOX 27025,RICHMOND,VIRGINIA,BANK OF AMERICA N.A.
107000796,P O BOX 27025,RICHMOND,VIRGINIA,BANK OF AMERICA N.A.
107005607,P O BOX 27025,RICHMOND,VIRGINIA,BANK OF AMERICA N.A.
211470319,PO BOX 27025,RICHMOND,VIRGINIA,BANK OF AMERICA N.A.
236073474,PO BOX 27025,RICHMOND,VIRGINIA,BANK OF AMERICA N.A.
267090536,VA2-430-01-01,RICHMOND,VIRGINIA,BANK OF AMERICA N.A.
307072278,P O BOX 27025,RICHMOND,VIRGINIA,BANK OF AMERICA N.A.
253170143,3451 PRESCOTT,MEMPHIS,TENNESSEE,FIRST TENNESSEE BANK NATL ASSN
253170253,1461 N FAYETTEVILLE ST,ASHEBORO,NORTH CAROLINA,FIRST TENNESSEE BANK NATL ASSN
264071752,3451 PRESCOTT,MEMPHIS,TENNESSEE,FIRST TENNESSEE BANK NATL ASSN
264172156,3451 PRESCOTT,MEMPHIS,TENNESSEE,FIRST TENNESSEE BANK NATL ASSN
267090691,3451 PRESCOTT,MEMPHIS,TENNESSEE,FIRST TENNESSEE BANK NATL ASSN
123002011,MS: NY-31-17-0119,ALBANY,NEW YORK,KEY BANK
124000737,MS: NY-31-17-0119,ALBANY,NEW YORK,KEY BANK
124101555,NY-31-17-0119,ALBANY,NEW YORK,KEY BANK
124303007,MS: NY-31-17-0119,ALBANY,NEW YORK,KEY BANK
125000574,NY-31-17-0119,ALBANY,NEW YORK,KEY BANK
125200879,NY-31-17-0119,ALBANY,NEW YORK,KEY BANK
125200947,NY-31-17-0119,ALBANY,NEW YORK,KEY BANK
211672531,NY-31-17-0119,ALBANY,NEW YORK,KEY BANK
307070267,NY-31-17-0119,ALBANY,NEW YORK,KEY BANK
111025453,STE 1200,IRVINE,CALIFORNIA,PACIFIC PREMIER BANK
122087590,STE 2100,IRVINE,CALIFORNIA,PACIFIC PREMIER BANK
122105566,STE 2100,IRVINE,CALIFORNIA,PACIFIC PREMIER BANK
122105676,STE 2100,IRVINE,CALIFORNIA,PACIFIC PREMIER BANK
122106002,STE 2100,IRVINE,CALIFORNIA,PACIFIC PREMIER BANK
122203507,STE 2100,IRVINE,CALIFORNIA,PACIFIC PREMIER BANK
122238585,1600 SUNFLOWER AVE,COSTA MESA,CALIFORNIA,PACIFIC PREMIER BANK
122239982,STE 2100,IRVINE,CALIFORNIA,PACIFIC PREMIER BANK
122241213,STE 2100,IRVINE,CALIFORNIA,PACIFIC PREMIER BANK
122241572,STE 2100,IRVINE,CALIFORNIA,PACIFIC PREMIER BANK
122242649,STE 2100,IRVINE,CALIFORNIA,PACIFIC PREMIER BANK
122242788,1600 SUNFLOWER AVE FLOOR 2,COSTA MESA,CALIFORNIA,PACIFIC PREMIER BANK
122243172,STE 2100,IRVINE,CALIFORNIA,PACIFIC PREMIER BANK
122243240,STE 2100,IRVINE,CALIFORNIA,PACIFIC PREMIER BANK
122243295,SUITE 2100,IRVINE,CALIFORNIA,PACIFIC PREMIER BANK
122243321,STE 2100,IRVINE,CALIFORNIA,PACIFIC PREMIER BANK
122243648,STE 2100,IRVINE,CALIFORNIA,PACIFIC PREMIER BANK
122243680,STE 2100,IRVINE,CALIFORNIA,PACIFIC PREMIER BANK
122243978,STE 2100,IRVINE,CALIFORNIA,PACIFIC PREMIER BANK
122244016,SUITE 2100,IRVINE,CALIFORNIA,PACIFIC PREMIER BANK
122244087,17901 VON KARMAN AVE,IRVINE,CALIFORNIA,PACIFIC PREMIER BANK
122244566,STE 2100,IRVINE,CALIFORNIA,PACIFIC PREMIER BANK
122244702,SUITE 2100,IRVINE,CALIFORNIA,PACIFIC PREMIER BANK
122244883,SUITE 2100,IRVINE,CALIFORNIA,PACIFIC PREMIER BANK
122287426,STE 2100,IRVINE,CALIFORNIA,PACIFIC PREMIER BANK
122402146,SUITE 2100,IRVINE,CALIFORNIA,PACIFIC PREMIER BANK
122402285,SUITE 2100,IRVINE,CALIFORNIA,PACIFIC PREMIER BANK
322285781,STE 2100,IRVINE,CALIFORNIA,PACIFIC PREMIER BANK
322285833,STE 2100,IRVINE,CALIFORNIA,PACIFIC PREMIER BANK
211072911,850 MAIN STREET,BRIDGEPORT,CONNECTICUT,"PEOPLE'S UNITED BANK, N.A."
211170334,850 MAIN STREET,BRIDGEPORT,CONNECTICUT,"PEOPLE'S UNITED BANK, N.A."
211174194,850 MAIN STREET,BRIDGEPORT,CONNECTICUT,"PEOPLE'S UNITED BANK, N.A."
211371162,850 MAIN STREET,BRIDGEPORT,CONNECTICUT,"PEOPLE'S UNITED BANK, N.A."
211371434,850 MAIN STREET,BRIDGEPORT,CONNECTICUT,"PEOPLE'S UNITED BANK, N.A."
211372129,850 MAIN STREET,BRIDGEPORT,CONNECTICUT,"PEOPLE'S UNITED BANK, N.A."
211373542,850 MAIN STREET,BRIDGEPORT,CONNECTICUT,"PEOPLE'S UNITED BANK, N.A."
211373623,850 MAIN STREET,BRIDGEPORT,CONNECTICUT,"PEOPLE'S UNITED BANK, N.A."
211470115,850 MAIN ST,BRIDGEPORT,CONNECTICUT,"PEOPLE'S UNITED BANK, N.A."
211470186,850 MAIN ST,BRIDGEPORT,CONNECTICUT,"PEOPLE'S UNITED BANK, N.A."
211672722,850 MAIN ST,BRIDGEPORT,CONNECTICUT,"PEOPLE'S UNITED BANK, N.A."
211770161,BC05-651850 MAIN ST,BRIDGEPORT,CONNECTICUT,"PEOPLE'S UNITED BANK, N.A."
211871154,850 MAIN ST,BRIDGEPORT,CONNECTICUT,"PEOPLE'S UNITED BANK, N.A."
211973049,850 MAIN ST,BRIDGEPORT,CONNECTICUT,"PEOPLE'S UNITED BANK, N.A."
221172186,850 MAIN STREET,BRIDGEPORT,CONNECTICUT,"PEOPLE'S UNITED BANK, N.A."
123006729,STE B,LAKEWOOD,WASHINGTON,COLUMBIA STATE BANK
123006897,STE B,LAKEWOOD,WASHINGTON,COLUMBIA STATE BANK
123103606,STE B,LAKEWOOD,WASHINGTON,COLUMBIA STATE BANK
123103868,STE B,LAKEWOOD,WASHINGTON,COLUMBIA STATE BANK
123200088,STE B,LAKEWOOD,WASHINGTON,COLUMBIA STATE BANK
123202280,STE B,LAKEWOOD,WASHINGTON,COLUMBIA STATE BANK
123203218,STE B,LAKEWOOD,WASHINGTON,COLUMBIA STATE BANK
123205135,STE B,LAKEWOOD,WASHINGTON,COLUMBIA STATE BANK
123206011,5210 74TH STREET WEST SUITE B,LAKEWOOD,WASHINGTON,COLUMBIA STATE BANK
123206406,STE B,LAKEWOOD,WASHINGTON,COLUMBIA STATE BANK
123206545,STE B,LAKEWOOD,WASHINGTON,COLUMBIA STATE BANK
123206778,STE B,LAKEWOOD,WASHINGTON,COLUMBIA STATE BANK
123206927,STE B,LAKEWOOD,WASHINGTON,COLUMBIA STATE BANK
123308090,STE B,LAKEWOOD,WASHINGTON,COLUMBIA STATE BANK
124103786,STE B,LAKEWOOD,WASHINGTON,COLUMBIA STATE BANK
125102278,5210 74TH ST W SUITE B,LAKEWOOD,WASHINGTON,COLUMBIA STATE BANK
125104315,5210 74TH STREET W SUITE B,LAKEWOOD,WASHINGTON,COLUMBIA STATE BANK
125104865,5210 74TH STREET W SUITE B,LAKEWOOD,WASHINGTON,COLUMBIA STATE BANK
125107079,STE B,LAKEWOOD,WASHINGTON,COLUMBIA STATE BANK
125107532,5210 74TH ST W SUITE B,LAKEWOOD,WASHINGTON,COLUMBIA STATE BANK
125107778,STE B,LAKEWOOD,WASHINGTON,COLUMBIA STATE BANK
125107875,5210 74TH ST W SUITE B,LAKEWOOD,WASHINGTON,COLUMBIA STATE BANK
125108272,STE B,LAKEWOOD,WASHINGTON,COLUMBIA STATE BANK
125108625,STE B,LAKEWOOD,WASHINGTON,COLUMBIA STATE BANK
125108913,STE B,LAKEWOOD,WASHINGTON,COLUMBIA STATE BANK
323271493,STE B,LAKEWOOD,WASHINGTON,COLUMBIA STATE BANK
251472542,24010 PARTNERSHIP BOULEVARD,RUTHER GLEN,VIRGINIA,UNION BANK & TRUST
251472555,24010 PARTNERSHIP BOULEVARD,RUTHER GLEN,VIRGINIA,UNION BANK & TRUST
251473088,24010 PARTNERSHIP BOULVARD,RUTHER GLEN,VIRGINIA,UNION BANK & TRUST
251473787,24010 PARTNERSHIP BOULEVARD,RUTHER GLEN,VIRGINIA,UNION BANK & TRUST
253173661,24010 PARTNERSHIP BOULEVARD,RUTHER GLEN,VIRGINIA,UNION BANK & TRUST
111026041,PO BOX 85929,SAN DIEGO,CALIFORNIA,"MUFG UNION BANK, N.A."
121000497,PO BOX 85929,SAN DIEGO,CALIFORNIA,"MUFG UNION BANK, N.A."
121139685,PO BOX 85929,SAN DIEGO,CALIFORNIA,"MUFG UNION BANK, N.A."
121140713,PO BOX 85929,SAN DIEGO,CALIFORNIA,"MUFG UNION BANK, N.A."
121140742,PO BOX 85929,SAN DIEGO,CALIFORNIA,"MUFG UNION BANK, N.A."
121141864,PO BOX 85929,SAN DIEGO,CALIFORNIA,"MUFG UNION BANK, N.A."
121181798,PO BOX 85929,SAN DIEGO,CALIFORNIA,"MUFG UNION BANK, N.A."
122000496,2-69D-1020,SAN DIEGO,CALIFORNIA,"MUFG UNION BANK, N.A."
122043518,PO BOX 85929,SAN DIEGO,CALIFORNIA,"MUFG UNION BANK, N.A."
122220593,PO BOX 85929,SAN DIEGO,CALIFORNIA,"MUFG UNION BANK, N.A."
122238077,PO BOX 85929,SAN DIEGO,CALIFORNIA,"MUFG UNION BANK, N.A."
122240683,ELECTRONIC BANKING D-339,SAN DIEGO,CALIFORNIA,"MUFG UNION BANK, N.A."
122241501,ELECTRONIC BANKING D-339,SAN DIEGO,CALIFORNIA,"MUFG UNION BANK, N.A."
122241941,PO BOX 82929,SAN DIEGO,CALIFORNIA,"MUFG UNION BANK, N.A."
122242034,PO BOX 85929,SAN DIEGO,CALIFORNIA,"MUFG UNION BANK, N.A."
123000068,PO BOX 85929,SAN DIEGO,CALIFORNIA,"MUFG UNION BANK, N.A."
123206613,PO BOX 85929,SAN DIEGO,CALIFORNIA,"MUFG UNION BANK, N.A."
125000118,PO BOX 85929,SAN DIEGO,CALIFORNIA,"MUFG UNION BANK, N.A."
125008288,PO BOX 85929,SAN DIEGO,CALIFORNIA,"MUFG UNION BANK, N.A."
125107260,PO BOX 85929,SAN DIEGO,CALIFORNIA,"MUFG UNION BANK, N.A."
125107626,PO BOX 85929,SAN DIEGO,CALIFORNIA,"MUFG UNION BANK, N.A."
125107736,PO BOX 85929,SAN DIEGO,CALIFORNIA,"MUFG UNION BANK, N.A."
321170318,PO BOX 85929,SAN DIEGO,CALIFORNIA,"MUFG UNION BANK, N.A."
321181271,PO BOX 85929,SAN DIEGO,CALIFORNIA,"MUFG UNION BANK, N.A."
101101057,P O BOX 160,WELLINGTON,KANSAS,SECURITY STATE BANK
101114691,P O BOX 170,SCOTT CITY,KANSAS,SECURITY STATE BANK
104110113,PO BOX 400,ANSLEY,NEBRASKA,SECURITY STATE BANK
111317637,700 S MAIN,WINTERS,TEXAS,SECURITY STATE BANK
111320899,BOX J,FARWELL,TEXAS,SECURITY STATE BANK
114904775,PO BOX 5,PEARSALL,TEXAS,SECURITY STATE BANK
114921842,1000 N OAK,PEARSALL,TEXAS,SECURITY STATE BANK
116325666,110 E 7TH ST.,ODESSA,TEXAS,SECURITY STATE BANK
125100607,1930 S GOLD ST,CENTRALIA,WASHINGTON,SECURITY STATE BANK
125107008,PO BOX 1050,CENTRALIA,WASHINGTON,SECURITY STATE BANK
101000789,PO BOX 26158,KANSAS CITY,MISSOURI,NBH BANK
101002716,PO BOX 26158,KANSAS CITY,MISSOURI,NBH BANK
101002949,PO BOX 26158,KANSAS CITY,MISSOURI,NBH BANK
101005690,PO BOX 26158,KANSAS CITY,MISSOURI,NBH BANK
101006699,PO BOX 26158,KANSAS CITY,MISSOURI,NBH BANK
101007041,P O BOX 26158,KANSAS CITY,MISSOURI,NBH BANK
101100922,P O BOX 26158,KANSAS CITY,MISSOURI,NBH BANK
101219059,P.O. BOX 26158,KANSAS CITY,MISSOURI,NBH BANK
102004331,PO BOX 26158,KANSAS CITY,MISSOURI,NBH BANK
102100772,PO BOX 26158,KANSAS CITY,MISSOURI,NBH BANK
102100992,PO BOX 26158,KANSAS CITY,MISSOURI,NBH BANK
102101823,PO BOX 26158,KANSAS CITY,MISSOURI,NBH BANK
102102013,PO BOX 26158,KANSAS CITY,MISSOURI,NBH BANK
102102916,PO BOX 26158,KANSAS CITY,MISSOURI,NBH BANK
102104600,PO BOX 26158,KANSAS CITY,MISSOURI,NBH BANK
102104642,P O BOX 26158,KANSAS CITY,MISSOURI,NBH BANK
102104749,PO BOX 26158,KANSAS CITY,MISSOURI,NBH BANK
102105146,PO BOX 26158,KANSAS CITY,MISSOURI,NBH BANK
107001724,P O BOX 26158,KANSAS CITY,MISSOURI,NBH BANK
107002118,PO BOX 26158,KANSAS CITY,MISSOURI,NBH BANK
107004491,P O BOX 26158,KANSAS CITY,MISSOURI,NBH BANK
107006460,PO BOX 26158,KANSAS CITY,MISSOURI,NBH BANK
107006965,P O BOX 26158,KANSAS CITY,MISSOURI,NBH BANK
321181200,PO BOX 26158,KANSAS CITY,MISSOURI,NBH BANK
122041523,5900 LA PLACE COURT SUITE 200,CARLSBAD,CALIFORNIA,PACIFIC WESTERN BANK
122044300,SUITE 220,CARLSBAD,CALIFORNIA,PACIFIC WESTERN BANK
122237308,5900 LA PLACE COURT SUITE 200,CARLSBAD,CALIFORNIA,PACIFIC WESTERN BANK
122237751,5900 LA PLACE COURT SUITE 200,CARLSBAD,CALIFORNIA,PACIFIC WESTERN BANK
122238200,5900 LA PLACE COURT SUITE 200,CARLSBAD,CALIFORNIA,PACIFIC WESTERN BANK
122238242,5900 LA PLACE COURT SUITE 200,CARLSBAD,CALIFORNIA,PACIFIC WESTERN BANK
122238938,5900 LA PLACE COURT SUITE 200,CARLSBAD,CALIFORNIA,PACIFIC WESTERN BANK
122239063,5900 LA PLACE COURT SUITE 200,CARLSBAD,CALIFORNIA,PACIFIC WESTERN BANK
122239322,5900 LA PLACE COURT SUITE 200,CARLSBAD,CALIFORNIA,PACIFIC WESTERN BANK
122239335,5900 LA PLACE COURT SUITE 200,CARLSBAD,CALIFORNIA,PACIFIC WESTERN BANK
122239775,5900 LA PLACE COURT SUITE 200,CARLSBAD,CALIFORNIA,PACIFIC WESTERN BANK
122239843,5900 LA PLACE COURT SUITE 200,CARLSBAD,CALIFORNIA,PACIFIC WESTERN BANK
122240489,5900 LA PLACE COURT SUITE 200,CARLSBAD,CALIFORNIA,PACIFIC WESTERN BANK
122240942,5900 LA PLACE COURT SUITE 200,CARLSBAD,CALIFORNIA,PACIFIC WESTERN BANK
122241132,5900 LA PLACE COURT SUITE 200,CARLSBAD,CALIFORNIA,PACIFIC WESTERN BANK
122242092,5900 LA PLACE COURT SUITE 200,CARLSBAD,CALIFORNIA,PACIFIC WESTERN BANK
122242681,SUITE 200,CARLSBAD,CALIFORNIA,PACIFIC WESTERN BANK
122242924,5900 LA PLACE COURT SUITE 200,CARLSBAD,CALIFORNIA,PACIFIC WESTERN BANK
122243350,SUITE 200,CARLSBAD,CALIFORNIA,PACIFIC WESTERN BANK
122243884,SUITE 200,CARLSBAD,CALIFORNIA,PACIFIC WESTERN BANK
122244744,5900 LA PLACE COURT STE 200,CARLSBAD,CALIFORNIA,PACIFIC WESTERN BANK
122287183,5900 LA PLACE COURT SUITE 200,CARLSBAD,CALIFORNIA,PACIFIC WESTERN BANK
322285668,5900 LA PLACE COURT SUITE 200,CARLSBAD,CALIFORNIA,PACIFIC WESTERN BANK
322286447,SUITE 200,CARLSBAD,CALIFORNIA,PACIFIC WESTERN BANK
261170546,P7-PFSC-03-H,PITTSBURGH,PENNSYLVANIA,"PNC BANK, NATIONAL ASSOCIATION"
262285184,P7-PFSC-03-H,PITTSBURGH,PENNSYLVANIA,"PNC BANK, NATIONAL ASSOCIATION"
101115001,3024 SW WANAMAKER,TOPEKA,KANSAS,HERITAGE BANK
104908383,P.O. BOX 329,AURORA,NEBRASKA,HERITAGE BANK
111916180,1850 PEARLAND PARKWAY,PEARLAND,TEXAS,HERITAGE BANK
114912013,1850 PEARLAND PARKWAY,PEARLAND,TEXAS,HERITAGE BANK
123206794,PO BOX 1578,OLYMPIA,WASHINGTON,HERITAGE BANK
123307583,PO BOX 1578,OLYMPIA,WASHINGTON,HERITAGE BANK
125105550,PO BOX 1578,OLYMPIA,WASHINGTON,HERITAGE BANK
125106708,PO BOX 1578,OLYMPIA,WASHINGTON,HERITAGE BANK
125106986,PO BOX 1578,OLYMPIA,WASHINGTON,HERITAGE BANK
125108256,PO BOX 1578,OLYMPIA,WASHINGTON,HERITAGE BANK
125108447,PO BOX 1578,OLYMPIA,WASHINGTON,HERITAGE BANK
125108560,PO BOX 1578,OLYMPIA,WASHINGTON,HERITAGE BANK
125108683,PO BOX 1578,OLYMPIA,WASHINGTON,HERITAGE BANK
125108751,P O BOX 1578,OLYMPIA,WASHINGTON,HERITAGE BANK
125108968,P O BOX 1578,OLYMPIA,WASHINGTON,HERITAGE BANK
261170533,101 N. MAIN ST.,JONESBORO,GEORGIA,HERITAGE BANK
325170835,PO BOX 1578,OLYMPIA,WASHINGTON,HERITAGE BANK
121142148,PO BOX 3938,ONTARIO,CALIFORNIA,CITIZENS BUSINESS BANK
121142397,3833 EBONY ST,ONTARIO,CALIFORNIA,CITIZENS BUSINESS BANK
122040090,3833 EBONY ST,ONTARIO,CALIFORNIA,CITIZENS BUSINESS BANK
122200759,3833 EBONY ST,ONTARIO,CALIFORNIA,CITIZENS BUSINESS BANK
122203471,3833 EBONY ST,ONTARIO,CALIFORNIA,CITIZENS BUSINESS BANK
122234149,3833 EBONY ST,ONTARIO,CALIFORNIA,CITIZENS BUSINESS BANK
122237544,3833 EBONY ST,ONTARIO,CALIFORNIA,CITIZENS BUSINESS BANK
122237612,PO BOX 3938,ONTARIO,CALIFORNIA,CITIZENS BUSINESS BANK
122238048,PO BOX 3938,ONTARIO,CALIFORNIA,CITIZENS BUSINESS BANK
122238543,3833 EBONY ST,ONTARIO,CALIFORNIA,CITIZENS BUSINESS BANK
122239937,3833 EBONY ST,ONTARIO,CALIFORNIA,CITIZENS BUSINESS BANK
122240010,3833 EBONY ST,ONTARIO,CALIFORNIA,CITIZENS BUSINESS BANK
122240104,3833 EBONY ST,ONTARIO,CALIFORNIA,CITIZENS BUSINESS BANK
122240450,PO BOX 3938,ONTARIO,CALIFORNIA,CITIZENS BUSINESS BANK
122240667,3833 EBONY ST,ONTARIO,CALIFORNIA,CITIZENS BUSINESS BANK
122240670,PO BOX 3938,ONTARIO,CALIFORNIA,CITIZENS BUSINESS BANK
122240696,PO BOX 3938,ONTARIO,CALIFORNIA,CITIZENS BUSINESS BANK
122240764,PO BOX 3938,ONTARIO,CALIFORNIA,CITIZENS BUSINESS BANK
122240890,3833 EBONY ST,ONTARIO,CALIFORNIA,CITIZENS BUSINESS BANK
122241912,PO BOX 3938,ONTARIO,CALIFORNIA,CITIZENS BUSINESS BANK
122242759,PO BOX 3938,ONTARIO,CALIFORNIA,CITIZENS BUSINESS BANK
122243541,3833 EBONY ST,ONTARIO,CALIFORNIA,CITIZENS BUSINESS BANK
101111953,115 W. 6TH ST.,CONCORDIA,KANSAS,CITIZENS NATIONAL BANK
111313631,P O BOX 529,CROSBYTON,TEXAS,CITIZENS NATIONAL BANK
111901580,P O BOX 1629,BROWNWOOD,TEXAS,CITIZENS NATIONAL BANK
111901690,P O BOX 404,HILLSBORO,TEXAS,CITIZENS NATIONAL BANK
111902819,PO BOX 1234,TAYLOR,TEXAS,CITIZENS NATIONAL BANK
111903151,P.O. BOX 1009,HENDERSON,TEXAS,CITIZENS NATIONAL BANK
111903999,PO BOX 1234,TAYLOR,TEXAS,CITIZENS NATIONAL BANK
111904338,P.O. BOX 1009,HENDERSON,TEXAS,CITIZENS NATIONAL BANK
111924350,P.O. BOX 1009,HENDERSON,TEXAS,CITIZENS NATIONAL BANK
111926125,201 W MAIN,HENDERSON,TEXAS,CITIZENS NATIONAL BANK
113100745,P O BOX 1009,HENDERSON,TEXAS,CITIZENS NATIONAL BANK
113110984,1320 LOOP 304 EAST,CROCKETT,TEXAS,CITIZENS NATIONAL BANK
114910565,P O BOX 1009,HENDERSON,TEXAS,CITIZENS NATIONAL BANK
113012503,"9300 FLAIR DRIVE, 4TH FLOOR",EL MONTE,CALIFORNIA,EAST WEST BANK
113017346,4TH FLOOR,EL MONTE,CALIFORNIA,EAST WEST BANK
121001865,9300 FLAIR DRIVE 4TH FLOOR,EL MONTE,CALIFORNIA,EAST WEST BANK
121032232,9300 FLAIR DRIVE 4TH FLOOR,EL MONTE,CALIFORNIA,EAST WEST BANK
121132682,9300 FLAIR DRIVE 4TH FLOOR,EL MONTE,CALIFORNIA,EAST WEST BANK
122038277,9300 FLAIR DRIVE 4TH FLOOR,EL MONTE,CALIFORNIA,EAST WEST BANK
122232222,"9300 FLAIR DRIVE, 4TH FLOOR",EL MONTE,CALIFORNIA,EAST WEST BANK
122237515,1881 WEST MAIN STREET,ALHAMBRA,CALIFORNIA,EAST WEST BANK
122240418,1881 WEST MAIN STREET,ALHAMBRA,CALIFORNIA,EAST WEST BANK
122242018,9300 FLAIR DRIVE 4TH FLOOR,EL MONTE,CALIFORNIA,EAST WEST BANK
122242102,4TH FLOOR,EL MONTE,CALIFORNIA,EAST WEST BANK
125008165,9300 FLAIR DRIVE 4TH FLOOR,EL MONTE,CALIFORNIA,EAST WEST BANK
125108492,9300 FLAIR DRIVE 4TH FLOOR,EL MONTE,CALIFORNIA,EAST WEST BANK
321070450,"9300 FLAIR DRIVE, 4TH FLOOR",EL MONTE,CALIFORNIA,EAST WEST BANK
321071077,9300 FLAIR DRIVE 4TH FLOOR,EL MONTE,CALIFORNIA,EAST WEST BANK
322070381,4TH FLOOR,EL MONTE,CALIFORNIA,EAST WEST BANK
322086142,"9300 FLAIR DRIVE, 4TH FLOOR",EL MONTE,CALIFORNIA,EAST WEST BANK
211370095,PO BOX 1377,LEWISTON,MAINE,TD BANK NA
211371638,PO BOX 1377,LEWISTON,MAINE,TD BANK NA
263170175,P.O. BOX 1377,LEWISTON,MAINE,TD BANK NA
101104122,BOX 10,MILLIGAN,NEBRASKA,FARMERS & MERCHANTS BANK
101109512,103 S 5TH,MOUND CITY,KANSAS,FARMERS & MERCHANTS BANK
103105530,225 E RENFROW,ARNETT,OKLAHOMA,FARMERS & MERCHANTS BANK
104903362,617 1ST STREET,MILFORD,NEBRASKA,FARMERS & MERCHANTS BANK
104905140,P.O. BOX 7,AXTELL,NEBRASKA,FARMERS & MERCHANTS BANK
104908082,BOX 10,MILLIGAN,NEBRASKA,FARMERS & MERCHANTS BANK
111907021,240 SOUTH TEXAS STREET,DELEON,TEXAS,FARMERS & MERCHANTS BANK
102104419,STE. 312,MCKINNEY,TEXAS,INDEPENDENT BANK
107003463,STE 312,MCKINNEY,TEXAS,INDEPENDENT BANK
111024548,STE 312,MCKINNEY,TEXAS,INDEPENDENT BANK
111903559,STE 312,MCKINNEY,TEXAS,INDEPENDENT BANK
111904817,STE. 312,MCKINNEY,TEXAS,INDEPENDENT BANK
111908091,3090 CRAIG DRIVE,MCKINNEY,TEXAS,INDEPENDENT BANK
111916326,STE 312,MCKINNEY,TEXAS,INDEPENDENT BANK
113009341,STE 312,MCKINNEY,TEXAS,INDEPENDENT BANK
113025147,SUITE 312,MCKINNEY,TEXAS,INDEPENDENT BANK
113094136,STE 312,MCKINNEY,TEXAS,INDEPENDENT BANK
272471124,115 E MAIN ST,BELDING,MICHIGAN,INDEPENDENT BANK
122105812,102 DUFFY AVENUE,HICKSVILLE,NEW YORK,NEW YORK COMMUNITY BANK
122187212,102 DUFFY AVENUE,HICKSVILLE,NEW YORK,NEW YORK COMMUNITY BANK
221270101,102 DUFFY AVENUE,HICKSVILLE,NEW YORK,NEW YORK COMMUNITY BANK
221270868,102 DUFFY AVENUE,HICKSVILLE,NEW YORK,NEW YORK COMMUNITY BANK
221271029,102 DUFFY AVENUE,HICKSVILLE,NEW YORK,NEW YORK COMMUNITY BANK
221278721,102 DUFFY AVENUE,HICKSVILLE,NEW YORK,NEW YORK COMMUNITY BANK
221471094,102 DUFFY AVENUE,HICKSVILLE,NEW YORK,NEW YORK COMMUNITY BANK
221471104,102 DUFFY AVENUE,HICKSVILLE,NEW YORK,NEW YORK COMMUNITY BANK
226071004,102 DUFFY AVENUE,HICKSVILLE,NEW YORK,NEW YORK COMMUNITY BANK
226071020,102 DUFFY AVENUE,HICKSVILLE,NEW YORK,NEW YORK COMMUNITY BANK
226071091,102 DUFFY AVENUE,HICKSVILLE,NEW YORK,NEW YORK COMMUNITY BANK
226072647,102 DUFFY AVENUE,HICKSVILLE,NEW YORK,NEW YORK COMMUNITY BANK
231270751,102 DUFFY AVENUE,HICKSVILLE,NEW YORK,NEW YORK COMMUNITY BANK
241070433,102 DUFFY AVENUE,HICKSVILLE,NEW YORK,NEW YORK COMMUNITY BANK
241071762,102 DUFFY AVENUE,HICKSVILLE,NEW YORK,NEW YORK COMMUNITY BANK
244072166,102 DUFFY AVENUE,HICKSVILLE,NEW YORK,NEW YORK COMMUNITY BANK
267091221,102 DUFFY AVENUE,HIKCSVILLE,NEW YORK,NEW YORK COMMUNITY BANK
113024177,P.O. BOX 291,JACKSON,MISSISSIPPI,TRUSTMARK NATIONAL BANK
284272670,P.O. BOX 291,JACKSON,MISSISSIPPI,TRUSTMARK NATIONAL BANK
313074493,P.O. BOX 291,JACKSON,MISSISSIPPI,TRUSTMARK NATIONAL BANK
111300945,8001 VILLA PARK DRIVE,HENRICO,VIRGINIA,BANK OF AMERICA
111901302,8001 VILLA PARK DRIVE,HENRICO,VIRGINIA,BANK OF AMERICA
112002080,8001 VILLA PARK DRIVE,HENRICO,VIRGINIA,BANK OF AMERICA
114000019,8001 VILLA PARK DRIVE,HENRICO,VIRGINIA,BANK OF AMERICA
114000653,8001 VILLA PARK DRIVE,HENRICO,VIRGINIA,BANK OF AMERICA
114017714,8001 VILLA PARK DRIVE,HENRICO,VIRGINIA,BANK OF AMERICA
311093120,8001 VILLA PARK DRIVE,HENRICO,VIRGINIA,BANK OF AMERICA
255072126,500 ROSS ST.,PITTSBURGH,PENNSYLVANIA,BANK OF NEW YORK MELLON
113000968,"2285 LAKESHORE DRIVE, BUILDING 4",NEW ORLEANS,LOUISIANA,HANCOCK WHITNEY BANK
263290220,"2285 LAKESHORE DRIVE, BUILDING 4",NEW ORLEANS,LOUISIANA,HANCOCK WHITNEY BANK
265070516,P.O. BOX 61035,NEW ORLEANS,LOUISIANA,HANCOCK WHITNEY BANK
265070736,P O BOX 61035,NEW ORLEANS,LOUISIANA,HANCOCK WHITNEY BANK
211371191,601 PENN STREET,READING,PENNSYLVANIA,SANTANDER BANK
211371308,601 PENN STREET,READING,PENNSYLVANIA,SANTANDER BANK
221270758,"601 PENN ST. , 5TH FLOOR",READING,PENNSYLVANIA,SANTANDER BANK
221271456,"601 PENN ST., 5TH FLOOR",READING,PENNSYLVANIA,SANTANDER BANK
221272332,"601 PENN ST., 5TH FLOOR",READING,PENNSYLVANIA,SANTANDER BANK
221272361,"601 PENN ST., 5TH FLOOR",READING,PENNSYLVANIA,SANTANDER BANK
231271161,1125 BERKSHIRE BOULEVARD,WYOMISSING,PENNSYLVANIA,SANTANDER BANK
231271404,1125 BERKSHIRE BOULEVARD,WYOMISSING,PENNSYLVANIA,SANTANDER BANK
231371663,1125 BERKSHIRE BOULEVARD,WYOMISSING,PENNSYLVANIA,SANTANDER BANK
231372387,1130 BERKSHIRE BOULEVARD,WYOMISSING,PENNSYLVANIA,SANTANDER BANK
231374945,1125 BERKSHIRE BOULEVARD,WYOMISSING,PENNSYLVANIA,SANTANDER BANK
231375630,1130 BERKSHIRE BOULEVARD,WYOMISSING,PENNSYLVANIA,SANTANDER BANK
102000076,255 2ND AVE SOUTH,MINNEAPOLIS,MINNESOTA,WELLS FARGO BANK NA
102100918,255 2ND AVE SOUTH,MINNEAPOLIS,MINNESOTA,WELLS FARGO BANK NA
102300242,255 2ND AVE SOUTH,MINNEAPOLIS,MINNESOTA,WELLS FARGO BANK NA
102301092,255 2ND AVE SOUTH,MINNEAPOLIS,MINNESOTA,WELLS FARGO BANK NA
104900323,255 2ND AVE SOUTH,MINNEAPOLIS,MINNESOTA,WELLS FARGO BANK NA
121042882,MAC N9301-041,MINNEAPOLIS,MINNESOTA,WELLS FARGO BANK NA
122000247,MAC N9301-041,MINNEAPOLIS,MINNESOTA,WELLS FARGO BANK NA
122101191,MAC N9301-041,MINNEAPOLIS,MINNESOTA,WELLS FARGO BANK NA
122105524,MAC N9301-041,MINNEAPOLIS,MINNESOTA,WELLS FARGO BANK NA
122242704,250 JOHNSON ROAD,MORRIS PLAINS,NEVADA,WELLS FARGO BANK NA
122402049,MAC N9301-041,MINNEAPOLIS,MINNESOTA,WELLS FARGO BANK NA
123006800,MAC N9301-041,MINNEAPOLIS,MINNESOTA,WELLS FARGO BANK NA
124002971,MAC N9301-041,MINNEAPOLIS,MINNESOTA,WELLS FARGO BANK NA
124100064,MAC N9301-041,MINNEAPOLIS,MINNESOTA,WELLS FARGO BANK NA
124100080,MAC N9301-041,MINNEAPOLIS,MINNESOTA,WELLS FARGO BANK NA
124103799,MAC N9301-041,MINNEAPOLIS,MINNESOTA,WELLS FARGO BANK NA
125008547,MAC N9301-041,MINNEAPOLIS,MINNESOTA,WELLS FARGO BANK NA
323270436,MAC N9301-041,MINNEAPOLIS,MINNESOTA,WELLS FARGO BANK NA
101014953,9120 W. 135TH ST,OVERLAND PARK,KANSAS,CORNERSTONE BANK
103112329,P O BOX 169,WATONGA,OKLAHOMA,CORNERSTONE BANK
104102707,P.O. BOX 69,YORK,NEBRASKA,CORNERSTONE BANK
104103421,PO BOX 69,YORK,NEBRASKA,CORNERSTONE BANK
104104750,PO BOX 69,YORK,NEBRASKA,CORNERSTONE BANK
104113709,PO BOX 69,YORK,NEBRASKA,CORNERSTONE BANK
104900349,PO BOX 69,YORK,NEBRASKA,CORNERSTONE BANK
104907960,PO BOX 69,YORK,NEBRASKA,CORNERSTONE BANK
104908163,PO BOX 69,YORK,NEBRASKA,CORNERSTONE BANK
211371735,P.O. BOX 370,SOUTHBRIDGE,MASSACHUSETTS,CORNERSTONE BANK
273970941,123 EAST MAIN STREET,CLARINDA,IOWA,CORNERSTONE BANK
304987298,PO BOX 69,YORK,NEBRASKA,CORNERSTONE BANK
211070146,195 MARKET STREET,LYNN,MASSACHUSETTS,EASTERN BANK
211370257,195 MARKET STREET,LYNN,MASSACHUSETTS,EASTERN BANK
211370354,195 MARKET ST,LYNN,MASSACHUSETTS,EASTERN BANK
211370448,195 MARKET ST,LYNN,MASSACHUSETTS,EASTERN BANK
211370846,195 MARKET STREET,LYNN,MASSACHUSETTS,EASTERN BANK
211370927,195 MARKET STREET,LYNN,MASSACHUSETTS,EASTERN BANK
211371201,195 MARKET STREET,LYNN,MASSACHUSETTS,EASTERN BANK
211371421,EF3-11,LYNN,MASSACHUSETTS,EASTERN BANK
211371476,195 MARKET ST,LYNN,MASSACHUSETTS,EASTERN BANK
211372352,195 MARKET STREET,LYNN,MASSACHUSETTS,EASTERN BANK
104904442,PO BOX 100,BEEMER,NEBRASKA,FIRST COMMUNITY BANK
114908289,1151 W. HIGHWAY 77,SAN BENITO,TEXAS,FIRST COMMUNITY BANK
114911807,416 N. WATER ST.,CORPUS CHRISTI,TEXAS,FIRST COMMUNITY BANK
114925181,1151 W. HIGHWAY 77,SAN BENITO,TEXAS,FIRST COMMUNITY BANK
314974000,416 N. WATER,CORPUS CHRISTI,TEXAS,FIRST COMMUNITY BANK
103012869,8770 TESORO DRIVE,SAN ANTONIO,TEXAS,INTERNATIONAL BANK OF COMMERCE
113000861,8770 TESORO DRIVE,SAN ANTONIO,TEXAS,INTERNATIONAL BANK OF COMMERCE
113003389,2416 CEE GEE,SAN ANTONIO,TEXAS,INTERNATIONAL BANK OF COMMERCE
113014077,8770 TESORO DR,SAN ANTONIO,TEXAS,INTERNATIONAL BANK OF COMMERCE
113105025,8770 TESORO DR,SAN ANTONIO,TEXAS,INTERNATIONAL BANK OF COMMERCE
114012641,8770 TESORO DR,SAN ANTONIO,TEXAS,INTERNATIONAL BANK OF COMMERCE
114013284,8770 TESORO DR,SAN ANTONIO,TEXAS,INTERNATIONAL BANK OF COMMERCE
114902528,8770 TESORO DRIVE,SAN ANTONIO,TEXAS,INTERNATIONAL BANK OF COMMERCE
114902793,8770 TESORO DRIVE,SAN ANTONIO,TEXAS,INTERNATIONAL BANK OF COMMERCE
114904652,8770 TESORO DRIVE,SAN ANTONIO,TEXAS,INTERNATIONAL BANK OF COMMERCE
114905567,8770 TESORO DR,SAN ANTONIO,TEXAS,INTERNATIONAL BANK OF COMMERCE
114909505,1600 FM 802,BROWNSVILLE,TEXAS,INTERNATIONAL BANK OF COMMERCE
114911580,8770 TESORO DRIVE,SAN ANTONIO,TEXAS,INTERNATIONAL BANK OF COMMERCE
114912275,8770 TESORO DR,SAN ANTONIO,TEXAS,INTERNATIONAL BANK OF COMMERCE
114912709,8770 TESORO DRIVE,SAN ANTONIO,TEXAS,INTERNATIONAL BANK OF COMMERCE
114915081,8770 TESORO,SAN ANTONIO,TEXAS,INTERNATIONAL BANK OF COMMERCE
114917623,8770 TESORO DR,SAN ANTONIO,TEXAS,INTERNATIONAL BANK OF COMMERCE
303072793,8770 TESORO DRIVE,SAN ANTONIO,TEXAS,INTERNATIONAL BANK OF COMMERCE
314973412,8770 TESORO DR,SAN ANTONIO,TEXAS,INTERNATIONAL BANK OF COMMERCE
101101439,P.O. BOX 406,CHERRYVALE,KANSAS,PEOPLES STATE BANK
101106528,102 W BARTON,LEONARDVILLE,KANSAS,PEOPLES STATE BANK
101106913,102 W BARTON,LEONARDVILLE,KANSAS,PEOPLES STATE BANK
101114442,102 W BARTON,LEONARDVILLE,KANSAS,PEOPLES STATE BANK
113120291,P O BOX 1287,SHEPHERD,TEXAS,PEOPLES STATE BANK
113121384,P O BOX 347,HALLETTSVILLE,TEXAS,PEOPLES STATE BANK
114922003,PO BOX 437,ROCKSPRINGS,TEXAS,PEOPLES STATE BANK
104112409,P.O. BOX 87003,LOS ANGELES,CALIFORNIA,BANK OF THE WEST
107000152,PO BOX 87003,LOS ANGELES,CALIFORNIA,BANK OF THE WEST
107002147,PO BOX 87003,LOS ANGELES,CALIFORNIA,BANK OF THE WEST
107006813,PO BOX 87003,LOS ANGELES,CALIFORNIA,BANK OF THE WEST
111305856,108 W NORTHWEST HWY,GRAPEVINE,TEXAS,BANK OF THE WEST
111916724,108 WEST NW HWY,GRAPEVINE,TEXAS,BANK OF THE WEST
112025342,500 N MESA STREET,EL PASO,TEXAS,BANK OF THE WEST
121100782,PO BOX 87003,LOS ANGELES,CALIFORNIA,BANK OF THE WEST
122105647,P.O. BOX 87003,LOS ANGELES,CALIFORNIA,BANK OF THE WEST
122242843,PO BOX 87003,LOS ANGELES,CALIFORNIA,BANK OF THE WEST
124002735,PO BOX 87003,LOS ANGELES,CALIFORNIA,BANK OF THE WEST
301171081,P.O. BOX 87003,LOS ANGELES,CALIFORNIA,BANK OF THE WEST
303188111,P.O. BOX 87003,LOS ANGELES,CALIFORNIA,BANK OF THE WEST
101106751,5431 S W 29TH ST,TOPEKA,KANSAS,COMMUNITY BANK
101204022,210 E 54 HIGHWAY,EL DORADO SPRINGS,MISSOURI,COMMUNITY BANK
103103215,1729 COLLEGE BLVD,ALVA,OKLAHOMA,COMMUNITY BANK
103112125,104 S. MAIN,BRISTOW,OKLAHOMA,COMMUNITY BANK
104905742,601 IOWA AVE,DUNLAP,IOWA,COMMUNITY BANK
111901959,101 COMMUNITY BLVD.,LONGVIEW,TEXAS,COMMUNITY BANK
111909265,101 COMMUNITY BLVD.,LONGVIEW,TEXAS,COMMUNITY BANK
111914917,101 COMMUNITY BLVD.,LONGVIEW,TEXAS,COMMUNITY BANK
123203878,147 S MAIN,PENDLETON,OREGON,COMMUNITY BANK
243373442,100 N MARKET ST,CARMICHAELS,PENNSYLVANIA,COMMUNITY BANK
101089810,DAC 28,RALEIGH,NORTH CAROLINA,FIRST CITIZENS BANK & TRUST COMPANY
101089823,DAC 28,RALEIGH,NORTH CAROLINA,FIRST CITIZENS BANK & TRUST COMPANY
102089644,DAC 28,RALEIGH,NORTH CAROLINA,FIRST CITIZENS BANK & TRUST COMPANY
103089834,DAC 28,RALEIGH,NORTH CAROLINA,FIRST CITIZENS BANK & TRUST COMPANY
107089652,DAC 28,RALEIGH,NORTH CAROLINA,FIRST CITIZENS BANK & TRUST COMPANY
114993906,DAC 28,RALEIGH,NORTH CAROLINA,FIRST CITIZENS BANK & TRUST COMPANY
121182014,DAC 28,RALEIGH,NORTH CAROLINA,FIRST CITIZENS BANK & TRUST COMPANY
122187335,DAC 28,RALEIGH,NORTH CAROLINA,FIRST CITIZENS BANK & TRUST COMPANY
122287361,DAC 28,RALEIGH,NORTH CAROLINA,FIRST CITIZENS BANK & TRUST COMPANY
123084958,DAC 28,RALEIGH,NORTH CAROLINA,FIRST CITIZENS BANK & TRUST COMPANY
103000703,320 N MAIN,KINGFISHER,OKLAHOMA,INTERBANK
103102546,320 N MAIN,KINGFISHER,OKLAHOMA,INTERBANK
103106843,320 N MAIN,KINGFISHER,OKLAHOMA,INTERBANK
111024386,320 N MAIN,KINGFISHER,OKLAHOMA,INTERBANK
111303117,320 N MAIN,KINGFISHER,OKLAHOMA,INTERBANK
111304064,320 N MAIN,KINGFISHER,OKLAHOMA,INTERBANK
111313204,320 N MAIN,KINGFISHER,OKLAHOMA,INTERBANK
111313356,320 N MAIN,KINGFISHER,OKLAHOMA,INTERBANK
111316612,320 N MAIN,KINGFISHER,OKLAHOMA,INTERBANK
111318063,320 N MAIN,KINGFISHER,OKLAHOMA,INTERBANK
111322813,320 N MAIN,KINGFISHER,OKLAHOMA,INTERBANK
111323951,320 N MAIN,KINGFISHER,OKLAHOMA,INTERBANK
111901564,301 W. WALKER STREET,BRECKENRIDGE,TEXAS,INTERBANK
111905230,455 ELM,GRAHAM,TEXAS,INTERBANK
111906860,320 N MAIN,KINGFISHER,OKLAHOMA,INTERBANK
111907555,320 N MAIN,KINGFISHER,OKLAHOMA,INTERBANK
111924363,320 N MAIN,KINGFISHER,OKLAHOMA,INTERBANK
111924800,320 N MAIN,KINGFISHER,OKLAHOMA,INTERBANK
101000077,1008 OAK STREET,KANSAS CITY,MISSOURI,"UMB, NA"
101000695,1008 OAK STREET,KANSAS CITY,MISSOURI,"UMB, NA"
101100634,1008 OAK STREET,KANSAS CITY,MISSOURI,"UMB, NA"
101107226,1008 OAK STREET,KANSAS CITY,MISSOURI,"UMB, NA"
101200518,1008 OAK STREET,KANSAS CITY,MISSOURI,"UMB, NA"
101200958,1008 OAK ST,KANSAS CITY,MISSOURI,"UMB, NA"
101205681,1008 OAK ST,KANSAS CITY,MISSOURI,"UMB, NA"
101218856,1008 OAK STREET,KANSAS CITY,MISSOURI,"UMB, NA"
101219017,1008 OAK STREET,KANSAS CITY,MISSOURI,"UMB, NA"
102000937,1008 OAK STREET,KANSAS CITY,MISSOURI,"UMB, NA"
107001067,1008 OAK STREET,KANSAS CITY,MISSOURI,"UMB, NA"
107001818,1008 OAK STREET,KANSAS CITY,MISSOURI,"UMB, NA"
122106125,1008 OAK STREET,KANSAS CITY,MISSOURI,"UMB, NA"
281070778,1008 OAK STREET,KANSAS CITY,MISSOURI,"UMB, NA"
111025084,3200 WILSHIRE BLVD,LOS ANGELES,CALIFORNIA,BANK OF HOPE
121138990,3731 WILSHIRE BLVD STE 1000,LOS ANGELES,CALIFORNIA,BANK OF HOPE
121142818,3731 WILSHIRE BOULEVARD SUITE 1000,LOS ANGELES,CALIFORNIA,BANK OF HOPE
122038251,3200 WILSHIRE BLVD,LOS ANGELES,CALIFORNIA,BANK OF HOPE
122041235,3200 WILSHIRE BOULEVARD,LOS ANGELES,CALIFORNIA,BANK OF HOPE
122041727,3731 WILSHIRE BLVD SUITE 1000,LOS ANGELES,CALIFORNIA,BANK OF HOPE
122042069,3200 WILSHIRE BLVD,LOS ANGELES,CALIFORNIA,BANK OF HOPE
122043440,3200 WILSHIRE BLVD,LOS ANGELES,CALIFORNIA,BANK OF HOPE
125008657,3731 WILSHIRE BLVD STE 1000,LOS ANGELES,CALIFORNIA,BANK OF HOPE
125108942,3731 WILSHIRE BLVD SUITE 1000,LOS ANGELES,CALIFORNIA,BANK OF HOPE
101289432,P.O. BOX 799,LOWELL,ARKANSAS,ARVEST BANK
103102229,P O BOX 799,LOWELL,ARKANSAS,ARVEST BANK
103112617,P O BOX 799,LOWELL,ARKANSAS,ARVEST BANK
103112976,PO BOX 799,LOWELL,ARKANSAS,ARVEST BANK
282970204,P O BOX 799,LOWELL,ARKANSAS,ARVEST BANK
271170264,502 W WINDSOR,CHAMPAIGN,ILLINOIS,BUSEY BANK
271172754,502 W WINDSOR,CHAMPAIGN,ILLINOIS,BUSEY BANK
281073555,502 W. WINDSOR RD,CHAMPAIGN,ILLINOIS,BUSEY BANK
241271957,333 E MAIN STREET,MIDLAND,MICHIGAN,CHEMICAL BANK
272471179,333 E. MAIN STREET,MIDLAND,MICHIGAN,CHEMICAL BANK
272471551,333 E MAIN STREET,MIDLAND,MICHIGAN,CHEMICAL BANK
272471836,333 E MAIN ST,MIDLAND,MICHIGAN,CHEMICAL BANK
264271361,3451 PRESCOTT,MEMPHIS,TENNESSEE,FIRST TENNESSEE BANK
264272027,3451 PRESCOTT,MEMPHIS,TENNESSEE,FIRST TENNESSEE BANK
102101496,3320 DREDGE DRIVE,HELENA,MONTANA,GLACIER BANK
102101548,3320 DREDGE DRIVE,HELENA,MONTANA,GLACIER BANK
102105997,49 COMMONS LOOP,KALISPELL,MONTANA,GLACIER BANK
102107474,3320 DREDGE DRIVE,HELENA,MONTANA,GLACIER BANK
125107642,3320 DREDGE DRIVE,HELENA,MONTANA,GLACIER BANK
125107998,3320 DREDGE DRIVE,HELENA,MONTANA,GLACIER BANK
292970825,49 COMMONS LOOP,KALISPELL,MONTANA,GLACIER BANK
211170130,NY-31-17-0119,ALBANY,NEW YORK,KEYBANK NATIONAL ASSOCIATION
211170185,NY-31-17-0119,ALBANY,NEW YORK,KEYBANK NATIONAL ASSOCIATION
211174369,NY-31-17-0119,ALBANY,NEW YORK,KEYBANK NATIONAL ASSOCIATION
221370616,NY-31-17-0119,ALBANY,NEW YORK,KEYBANK NATIONAL ASSOCIATION
222370440,NY-31-17-0119,ALBANY,NEW YORK,KEYBANK NATIONAL ASSOCIATION
231372170,NY-31-17-0119,ALBANY,NEW YORK,KEYBANK NATIONAL ASSOCIATION
231375575,NY-31-17-0119,ALBANY,NEW YORK,KEYBANK NATIONAL ASSOCIATION
101100993,127 S SUMMIT STREET,ARKANSAS CITY,KANSAS,UNION STATE BANK
101101620,701 5TH STREET,CLAY CENTER,KANSAS,UNION STATE BANK
101104151,545 MAIN,EVEREST,KANSAS,UNION STATE BANK
101105341,545 MAIN,EVEREST,KANSAS,UNION STATE BANK
101106214,545 MAIN,EVEREST,KANSAS,UNION STATE BANK
101106939,204 E. HWY 16,OLSBURG,KANSAS,UNION STATE BANK
101110640,P O BOX 100,UNIONTOWN,KANSAS,UNION STATE BANK
101215451,545 MAIN,EVEREST,KANSAS,UNION STATE BANK
263184996,ATTN: ELECTRONIC SERVICES,TALLAHASSEE,FLORIDA,CAPITAL CITY BANK
101003317,1620 DODGE STREET,OMAHA,NEBRASKA,FIRST NATIONAL BANK OF OMAHA
104000016,1620 DODGE STREET,OMAHA,NEBRASKA,FIRST NATIONAL BANK OF OMAHA
104900048,1620 DODGE STREET,OMAHA,NEBRASKA,FIRST NATIONAL BANK OF OMAHA
104900459,1620 DODGE STREET,OMAHA,NEBRASKA,FIRST NATIONAL BANK OF OMAHA
104900679,1620 DODGE STREET,OMAHA,NEBRASKA,FIRST NATIONAL BANK OF OMAHA
104900721,1620 DODGE STREET,OMAHA,NEBRASKA,FIRST NATIONAL BANK OF OMAHA
104910342,1620 DODGE STREET,OMAHA,NEBRASKA,FIRST NATIONAL BANK OF OMAHA
104913048,397 4TH ST,DAVID CITY,NEBRASKA,FIRST NATIONAL BANK OF OMAHA
107000262,1620 DODGE STREET,OMAHA,NEBRASKA,FIRST NATIONAL BANK OF OMAHA
242272489,50 NORTH THIRD ST,NEWARK,OHIO,PARK NATIONAL BANK
242272612,50 NORTH THIRD ST,NEWARK,OHIO,PARK NATIONAL BANK
244172082,50 NORTH THIRD ST,NEWARK,OHIO,PARK NATIONAL BANK
244172095,50 NORTH THIRD ST,NEWARK,OHIO,PARK NATIONAL BANK
301171230,PO BOX 7009,PINE BLUFF,ARKANSAS,SIMMONS FIRST NATL BK
211174233,PO BOX 1377,LEWISTON,MAINE,"TD BANK, NA"
211370477,PO BOX 1377,LEWISTON,MAINE,"TD BANK, NA"
211370493,PO BOX 1377,LEWISTON,MAINE,"TD BANK, NA"
211370545,PO BOX 1377,LEWISTON,MAINE,"TD BANK, NA"
211372187,PO BOX 1377,LEWISTON,MASSACHUSETTS,"TD BANK, NA"
261190649,P.O. BOX 398,BLAIRSVILLE,GEORGIA,"UNITED COMMUNITY BANK, INC"
111103058,2910 W JACKSON STREET,TUPELO,MISSISSIPPI,BANCORP SOUTH
111104743,2910 W JACKSON STREET,TUPELO,MISSISSIPPI,BANCORP SOUTH
111901056,2910 W JACKSON STREET,TUPELO,MISSISSIPPI,BANCORP SOUTH
111914687,2910 W JACKSON STREET,TUPELO,MISSISSIPPI,BANCORP SOUTH
113101773,2910 W JACKSON STREET,TUPELO,MISSISSIPPI,BANCORP SOUTH
113110667,2910 W JACKSON STREET,TUPELO,MISSISSIPPI,BANCORP SOUTH
111103650,2910 WEST JACKSON,TUPELO,MISSISSIPPI,BANCORPSOUTH BANK
111910005,2910 WEST JACKSON,TUPELO,MISSISSIPPI,BANCORPSOUTH BANK
113025422,2910 WEST JACKSON,TUPELO,MISSISSIPPI,BANCORPSOUTH BANK
101000019,ACH DEPT.,KANSAS CITY,MISSOURI,COMMERCE BANK
101100540,811 MAIN,KANSAS CITY,MISSOURI,COMMERCE BANK
101114073,ACH DEPT.,KANSAS CITY,MISSOURI,COMMERCE BANK
101114992,MAILSTOP KCES,KANSAS CITY,MISSOURI,COMMERCE BANK
103912956,ACH DEPT.,KANSAS CITY,MISSOURI,COMMERCE BANK
107002846,7TH FLOOR - ACH,KANSAS CITY,MISSOURI,COMMERCE BANK
114909903,5800 SAN DARIO,LAREDO,TEXAS,COMMERCE BANK
101001005,650 KANSAS AVENUE,KANSAS CITY,KANSAS,COMMUNITY FIRST BANK
101205063,214-216 W FOURTH ST,APPLETON CITY,MISSOURI,COMMUNITY FIRST BANK
104105733,122 SOUTH COMMERCIAL,MAYWOOD,NEBRASKA,COMMUNITY FIRST BANK
104106583,122 SOUTH COMMERCIAL,MAYWOOD,NEBRASKA,COMMUNITY FIRST BANK
104113408,122 SOUTH COMMERCIAL,MAYWOOD,NEBRASKA,COMMUNITY FIRST BANK
125108463,6401 WEST CLEARWATER AVENUE,KENNEWICK,WASHINGTON,COMMUNITY FIRST BANK
101101471,P O BOX 219,COFFEYVILLE,KANSAS,COMMUNITY STATE BANK
102107364,717 N MAIN ST,LAMAR,COLORADO,COMMUNITY STATE BANK
103101589,BOX 367,HENNESSEY,OKLAHOMA,COMMUNITY STATE BANK
101089865,STE 100,WICHITA,KANSAS,EQUITY BANK
101102836,STE 100,WITCHA,KANSAS,EQUITY BANK
101103233,7701 E KELLOGG STE 100,WICHITA,KANSAS,EQUITY BANK
101105354,7701 E KELLOGG STE 100,WICHITA,KANSAS,EQUITY BANK
101105590,7701 E KELLOGG STE 100,WICHITA,KANSAS,EQUITY BANK
101106324,SUITE 100,WICHITA,KANSAS,EQUITY BANK
101115292,7701 E KELLOGG STE 100,WICHITA,KANSAS,EQUITY BANK
101902175,225 W CENTRAL,ANDOVER,KANSAS,EQUITY BANK
103102410,STE 100,WICHITA,KANSAS,EQUITY BANK
103103244,STE 100,WICHITA,KANSAS,EQUITY BANK
103189307,STE 100,WICHITA,KANSAS,EQUITY BANK
301170817,STE 100,WICHITA,KANSAS,EQUITY BANK
101000048,PO BOX 291,MINNEAPOLIS,MINNESOTA,FEDERAL RESERVE BANK
111000038,PO BOX 291,MINNEAPOLIS,MINNESOTA,FEDERAL RESERVE BANK
121000374,PO BOX 291,MINNEAPOLIS,MINNESOTA,FEDERAL RESERVE BANK
271189491,940 N MAC ARTHUR,SPRINGFIELD,ILLINOIS,FINANCIAL PARTNERS CREDIT UNION
321076328,PO BOX 7005,DOWNEY,CALIFORNIA,FINANCIAL PARTNERS CREDIT UNION
321175180,P O BOX 7005,DOWNEY,CALIFORNIA,FINANCIAL PARTNERS CREDIT UNION
322078804,7800 E IMPERIAL HWY,DOWNEY,CALIFORNIA,FINANCIAL PARTNERS CREDIT UNION
322275157,PO BOX 7005,DOWNEY,CALIFORNIA,FINANCIAL PARTNERS CREDIT UNION
322275487,PO BOX 7005,DOWNEY,CALIFORNIA,FINANCIAL PARTNERS CREDIT UNION
322276871,PO BOX 7005,DOWNEY,CALIFORNIA,FINANCIAL PARTNERS CREDIT UNION
322276949,PO BOX 7005,DOWNEY,CALIFORNIA,FINANCIAL PARTNERS CREDIT UNION
322279920,PO BOX 7005,DOWNEY,CALIFORNIA,FINANCIAL PARTNERS CREDIT UNION
322281206,P O BOX 7005,DOWNEY,CALIFORNIA,FINANCIAL PARTNERS CREDIT UNION
322281439,P O BOX 7005,DOWNEY,CALIFORNIA,FINANCIAL PARTNERS CREDIT UNION
322281882,PO BOX 7005,DOWNEY,CALIFORNIA,FINANCIAL PARTNERS CREDIT UNION
322282292,7800 E IMPERIAL HWY,DOWNEY,CALIFORNIA,FINANCIAL PARTNERS CREDIT UNION
322282975,P O BOX 7005,DOWNEY,CALIFORNIA,FINANCIAL PARTNERS CREDIT UNION
111302545,301 N. MAIN,CHILDRESS,TEXAS,FIRST BANK & TRUST
111304051,201 N.WASHINGTON ST.,"SEYMOUR,",TEXAS,FIRST BANK & TRUST
111304404,201 N. WASHINGTON ST.,SEYMOUR,TEXAS,FIRST BANK & TRUST
111311413,9816 SLIDE RD,LUBBOCK,TEXAS,FIRST BANK & TRUST
111319347,9816 SLIDE RD,LUBBOCK,TEXAS,FIRST BANK & TRUST
111324895,201 N. WASHINGTON ST.,SEYMOUR,TEXAS,FIRST BANK & TRUST
111908004,201 N. WASHINGTON ST.,SEYMOUR,TEXAS,FIRST BANK & TRUST
111912401,201 N. WASHINGTON ST.,SEYMOUR,TEXAS,FIRST BANK & TRUST
311373125,9816 SLIDE RD,LUBBOCK,TEXAS,FIRST BANK & TRUST
271972116,PO BOX 549,DALEVILLE,INDIANA,FIRST MERCHANTS BANK
271974033,PO BOX 549,DALEVILLE,INDIANA,FIRST MERCHANTS BANK
274970843,PO BOX 549,DALEVILLE,INDIANA,FIRST MERCHANTS BANK
101102072,PO BOX 7009,PINE BLUFF,ARKANSAS,SIMMONS BANK
101109842,PO BOX 7009,PINE BLUFF,ARKANSAS,SIMMONS BANK
101189590,PO BOX 7009,PINE BLUFF,ARKANSAS,SIMMONS BANK
103003687,PO BOX 7009,PINE BLUFF,ARKANSAS,SIMMONS BANK
103101437,PO BOX 7009,PINE BLUFF,ARKANSAS,SIMMONS BANK
103113153,PO BOX 7009,PINE BLUFF,ARKANSAS,SIMMONS BANK
111900756,P O BOX 7009,PIN BLUFF,ARKANSAS,SIMMONS BANK
111924428,PO BOX 7009,PINE BLUFF,ARKANSAS,SIMMONS BANK
111924619,PO BOX 7009,PINE BLUFF,ARKANSAS,SIMMONS BANK
114014542,PO BOX 7009,PINE BLUFF,ARKANSAS,SIMMONS BANK
211080851,600 MIDLAND AVE,RYE,NEW YORK,USALLIANCE FEDERAL CREDIT UNION
211178640,600 MIDLAND AVENUE,RYE,NEW YORK,USALLIANCE FEDERAL CREDIT UNION
211179982,600 MIDLAND AVENUE,RYE,NEW YORK,USALLIANCE FEDERAL CREDIT UNION
211179995,600 MIDLAND AVENUE,RYE,NEW YORK,USALLIANCE FEDERAL CREDIT UNION
211384162,600 MIDLAND AVE,RYE,NEW YORK,USALLIANCE FEDERAL CREDIT UNION
211391689,600 MIDLAND AVE,RYE,NEW YORK,USALLIANCE FEDERAL CREDIT UNION
221277777,STE 350,RYE,NEW YORK,USALLIANCE FEDERAL CREDIT UNION
221973563,600 MIDLAND AVE,RYE,NEW YORK,USALLIANCE FEDERAL CREDIT UNION
221976861,600 MIDLAND AVE,RYE,NEW YORK,USALLIANCE FEDERAL CREDIT UNION
221981063,411 THEODORE FREMD AVENUE SUITE 350,RYE,NEW YORK,USALLIANCE FEDERAL CREDIT UNION
221982156,411 THEODORE FREMD AVE SUITE 350,RYE,NEW YORK,USALLIANCE FEDERAL CREDIT UNION
226073895,SUITE 350,RYE,NEW YORK,USALLIANCE FEDERAL CREDIT UNION
226078049,600 MIDLAND AVENUE,RYE,NEW YORK,USALLIANCE FEDERAL CREDIT UNION
226078065,600 MIDLAND AVENUE,RYE,NEW YORK,USALLIANCE FEDERAL CREDIT UNION
211170279,436 SLATER RD,NEW BRITAIN,CONNECTICUT,WEBSTER BANK
211170305,436 SLATER RD,NEW BRITAIN,CONNECTICUT,WEBSTER BANK
211172785,436 SLATER RD,NEW BRITAIN,CONNECTICUT,WEBSTER BANK
211174136,436 SLATER RD,NEW BRITAIN,CONNECTICUT,WEBSTER BANK
211174343,436 SLATER RD,NEW BRITAIN,CONNECTICUT,WEBSTER BANK
211970055,436 SLATER RD,NEW BRITAIN,CONNECTICUT,WEBSTER BANK
211970194,436 SLATER RD,NEW BRITAIN,CONNECTICUT,WEBSTER BANK
211870812,99 NORTH ST,PITTSFIELD,MASSACHUSETTS,BERKSHIRE BANK
211870977,99 NORTH STREET,PITTSFIELD,MASSACHUSETTS,BERKSHIRE BANK
211871691,99 NORTH STREET,PITTSFIELD,MASSACHUSETTS,BERKSHIRE BANK
211872959,99 NORTH ST,PITTSFIELD,MASSACHUSETTS,BERKSHIRE BANK
221371071,24 NORTH STREET,PITTSFIELD,MASSACHUSETTS,BERKSHIRE BANK
221380114,99 NORTH STREET,PITTSFIELD,MASSACHUSETTS,BERKSHIRE BANK
263185018,1951 8TH ST NW,WINTER HAVEN,FLORIDA,"CENTERSTATE BANK, NATIONAL ASSOCIATI"
211070175,ROP440,RIVERSIDE,RHODE ISLAND,CITIZENS BANK NA
211170114,ROP440,RIVERSIDE,RHODE ISLAND,CITIZENS BANK NA
211574613,ROP440,RIVERSIDE,RHODE ISLAND,CITIZENS BANK NA
221370030,ROP440,RIVERSIDE,RHODE ISLAND,CITIZENS BANK NA
222371054,ROP440,RIVERSIDE,RHODE ISLAND,CITIZENS BANK NA
236074619,ROP440,RIVERSIDE,RHODE ISLAND,CITIZENS BANK NA
241070417,ROP440,RIVERSIDE,RHODE ISLAND,CITIZENS BANK NA
271071321,ROP440,RIVERSIDE,RHODE ISLAND,CITIZENS BANK NA
111304637,228 ELM STREET,COLORADO CITY,TEXAS,CITY NATIONAL BANK
111901946,312 S DAVIS,SULPHUR SPRINGS,TEXAS,CITY NATIONAL BANK
111904231,P.O. BOX 98,SAN SABA,TEXAS,CITY NATIONAL BANK
111904998,312 S DAVIS,SULPHUR SPRINGS,TEXAS,CITY NATIONAL BANK
111912197,1465 W 2ND AVE,CORSICANA,TEXAS,CITY NATIONAL BANK
111922527,312 SOUTH DAVIS,SULPHUR SPRINGS,TEXAS,CITY NATIONAL BANK
114901859,P O DRAWER 1099,TAYLOR,TEXAS,CITY NATIONAL BANK
122016066,21ST FLOOR,LOS ANGELES,CALIFORNIA,CITY NATIONAL BANK
242170002,25 GATEWATER ROAD,CROSS LANES,WEST VIRGINIA,CITY NATIONAL BANK
101100375,1830 MAIN,PARSONS,KANSAS,COMMERCIAL BANK
101115098,1830 MAIN,PARSONS,KANSAS,COMMERCIAL BANK
104102642,401 SOUTH MAIN STREET,NELSON,NEBRASKA,COMMERCIAL BANK
114905499,100 MOODY ST,MASON,TEXAS,COMMERCIAL BANK
272471357,101 N PINE RIVER,ITHACA,MICHIGAN,COMMERCIAL BANK
101101769,218 S GLENSTONE,SPRINGFIELD,MISSOURI,GREAT SOUTHERN BANK
101212182,P. O. BOX 9009,SPRINGFIELD,MISSOURI,GREAT SOUTHERN BANK
273970585,218 S. GLENSTONE AVE.,SPRINGFIELD,MISSOURI,GREAT SOUTHERN BANK
273970640,218 S GLENSTONE,SPRINGFIELD,MISSOURI,GREAT SOUTHERN BANK
286573322,218 S GLENSTONE AVE.,SPRINGFIELD,MISSOURI,GREAT SOUTHERN BANK
113024407,4128 TEMPLE CITY BLVD,ROSEMEAD,CALIFORNIA,CATHAY BANK
122034103,RS-14,ROSEMEAD,CALIFORNIA,CATHAY BANK
122037841,RS-14,ROSEMEAD,CALIFORNIA,CATHAY BANK
122203950,RS-14,ROSEMEAD,CALIFORNIA,CATHAY BANK
122402324,RS-14,ROSEMEAD,CALIFORNIA,CATHAY BANK
122401710,1 PENNS WAY,NEW CASTLE,DELAWARE,CITIBANK NA
122402159,1 PENNS WAY,NEW CASTLE,DELAWARE,CITIBANK NA
221172610,1 PENNS WAY,NEW CASTLE,DELAWARE,CITIBANK NA
271970312,1 PENNS WAY,NEW CASTLE,DELAWARE,CITIBANK NA
122217056,111 SILVAN AVE,ENGLEWOOD CLIFFS,NEW JERSEY,CITIBANK WEST
122220849,111 SILVAN AVENUE,ENGLEWOOD CLIFFS,NEW JERSEY,CITIBANK WEST
122231935,111 SILVAN AVE,ENGLEWOOD CLIFFS,NEW JERSEY,CITIBANK WEST
271071402,111 SYLVAN AVENUE,ENGLEWOOD CLIFFS,NEW JERSEY,CITIBANK WEST
321070007,ONE PENN'S WAY,NEW CASTLE,DELAWARE,CITIBANK WEST
321170282,111 SILVAN AVENUE,ENGLEWOOD CLIFFS,NEW JERSEY,CITIBANK WEST
321170444,111 SILVAN AVENUE,ENGLEWOOD CLIFFS,NEW JERSEY,CITIBANK WEST
322070019,111 SILVAN AVENUE,ENGLEWOOD CLIFFS,NEW JERSEY,CITIBANK WEST
322270055,111 SILVAN AVENUE,ENGLEWOOD CLIFFS,NEW JERSEY,CITIBANK WEST
322270262,111 SILVAN AVENUE,ENGLEWOOD CLIFFS,NEW JERSEY,CITIBANK WEST
322271096,111 SILVAN AVENUE,ENGLEWOOD CLIFFS,NEW JERSEY,CITIBANK WEST
322271779,111 SILVAN AVENUE,ENGLEWOOD CLIFFS,NEW JERSEY,CITIBANK WEST
241273706,2043 E PROSPECT ROAD,ASHTABULA,OHIO,COMMUNITY FIRST CREDIT UNION
275976833,P O BOX 1487,APPLETON,WISCONSIN,COMMUNITY FIRST CREDIT UNION
275976891,PO BOX 1487,APPLETON,WISCONSIN,COMMUNITY FIRST CREDIT UNION
275979474,P.O. BOX 1487,APPLETON,WISCONSIN,COMMUNITY FIRST CREDIT UNION
275980832,PO BOX 1487,APPLETON,WISCONSIN,COMMUNITY FIRST CREDIT UNION
275981080,PO BOX 1487,APPLETON,WISCONSIN,COMMUNITY FIRST CREDIT UNION
275982801,P O BOX 1487,APPLETON,WISCONSIN,COMMUNITY FIRST CREDIT UNION
281580695,6460 INTERSTATE CT,HANNIBAL,MISSOURI,COMMUNITY FIRST CREDIT UNION
321172358,SUITE A,SANTA ROSA,CALIFORNIA,COMMUNITY FIRST CREDIT UNION
321177599,SUITE A,SANTA ROSA,CALIFORNIA,COMMUNITY FIRST CREDIT UNION
321178226,SUITE A,SANTA ROSA,CALIFORNIA,COMMUNITY FIRST CREDIT UNION
325082017,SUITE 100,DUPONT,WASHINGTON,COMMUNITY FIRST CREDIT UNION
322079133,SUITE 330,BREA,CALIFORNIA,CREDIT UNION OF SOUTHERN CALIFORNIA
322273272,SUITE 330,BREA,CALIFORNIA,CREDIT UNION OF SOUTHERN CALIFORNIA
322273405,SUITE 330,BREA,CALIFORNIA,CREDIT UNION OF SOUTHERN CALIFORNIA
322274792,SUITE 330,BREA,CALIFORNIA,CREDIT UNION OF SOUTHERN CALIFORNIA
322275610,SUITE 330,BREA,CALIFORNIA,CREDIT UNION OF SOUTHERN CALIFORNIA
322275678,SUITE 330,BREA,CALIFORNIA,CREDIT UNION OF SOUTHERN CALIFORNIA
322280252,SUTIE 330,BREA,CALIFORNIA,CREDIT UNION OF SOUTHERN CALIFORNIA
322280485,SUITE 330,BREA,CALIFORNIA,CREDIT UNION OF SOUTHERN CALIFORNIA
322280870,SUITE 330,BREA,CALIFORNIA,CREDIT UNION OF SOUTHERN CALIFORNIA
322282768,SUITE 330,BREA,CALIFORNIA,CREDIT UNION OF SOUTHERN CALIFORNIA
322283796,SUITE 330,BREA,CALIFORNIA,CREDIT UNION OF SOUTHERN CALIFORNIA
322283835,SUITE 330,BREA,CALIFORNIA,CREDIT UNION OF SOUTHERN CALIFORNIA
271971735,SUITE 1500,ITASCA,ILLINOIS,FIRST MIDWEST BANK
271973775,SUITE 1500,ITASCA,ILLINOIS,FIRST MIDWEST BANK
271973937,SUTIE 1500,ITASCA,ILLINOIS,FIRST MIDWEST BANK
281371972,811 MAIN STREET,JASPER,INDIANA,GERMAN AMERICAN BANK
241282632,SUITE 6D,SYLVANIA,OHIO,GREAT LAKES CREDIT UNION
271080325,2525 GREENBAY ROAD,NORTH CHICAGO,ILLINOIS,GREAT LAKES CREDIT UNION
271975951,2525 GREENBAY ROAD,NORTH CHGO,ILLINOIS,GREAT LAKES CREDIT UNION
271979193,2525 GREENBAY ROAD,NORTH CHGO,ILLINOIS,GREAT LAKES CREDIT UNION
271984162,2525 GREENBAY ROAD,NORTH CHGO,ILLINOIS,GREAT LAKES CREDIT UNION
271984832,2525 GREENBAY ROAD,NORTH CHGO,ILLINOIS,GREAT LAKES CREDIT UNION
271989222,2525 GREENBAY ROAD,NORTH CHICAGO,ILLINOIS,GREAT LAKES CREDIT UNION
271989756,2525 GREENBAY ROAD,NORTH CHGO,ILLINOIS,GREAT LAKES CREDIT UNION
271990295,2525 GREENBAY ROAD,NORTH CHGO,ILLINOIS,GREAT LAKES CREDIT UNION
271992219,2525 GREENBAY ROAD,NORTH CHGO,ILLINOIS,GREAT LAKES CREDIT UNION
271992468,2525 GREENBAY ROAD,NORTH CHGO,ILLINOIS,GREAT LAKES CREDIT UNION
275079882,2525 GREENBAY RD,NORTH CHGO,ILLINOIS,GREAT LAKES CREDIT UNION
221371822,EAST PLAZA,BUFFALO,NEW YORK,"HSBC BANK, USA"
221972111,P.O. BOX 643,BUFFALO,NEW YORK,"HSBC BANK, USA"
222371876,P.O. BOX 643,BUFFALO,NEW YORK,"HSBC BANK, USA"
226070364,P.O. BOX 643,BUFFALO,NEW YORK,"HSBC BANK, USA"
122244184,6TH FLOOR,ROSEMONT,ILLINOIS,M B FINANCIAL BANK
243373206,324 N 4TH STREET,INDIANA,PENNSYLVANIA,S & T BANK
221471861,400 RELLA BOULEVARD,MONTEBELLO,NEW YORK,STERLING NATIONAL BANK
221472815,400 RELLA BOULEVARD,MONTEBELLO,NEW YORK,STERLING NATIONAL BANK
221970443,400 RELLA BOULEVARD,MONTEBELLO,NEW YORK,STERLING NATIONAL BANK
221971332,400 RELLA BLVD,MONTEBELLO,NEW YORK,STERLING NATIONAL BANK
221283130,14500 AVIATION BOULEVARD,HAWTHORNE,CALIFORNIA,UNIFY FINANCIAL FEDERAL CREDIT UNION
261378652,14500 AVIATION BOULEVARD,HAWTHORNE,CALIFORNIA,UNIFY FINANCIAL FEDERAL CREDIT UNION
321076412,14500 AVIATION BOULEVARD,HAWTHORNE,CALIFORNIA,UNIFY FINANCIAL FEDERAL CREDIT UNION
321171964,1855 SECOND ST,CONCORD,CALIFORNIA,UNIFY FINANCIAL FEDERAL CREDIT UNION
321173205,4075 NELSON AVENUE STE E,CONCORD,CALIFORNIA,UNIFY FINANCIAL FEDERAL CREDIT UNION
321174262,1899 WESTERN WAY,TORRANCE,CALIFORNIA,UNIFY FINANCIAL FEDERAL CREDIT UNION
321177861,14500 AVIATION BOULEVARD,HAWTHORNE,CALIFORNIA,UNIFY FINANCIAL FEDERAL CREDIT UNION
322077818,14500 AVIATION BLVD,HAWTHORNE,CALIFORNIA,UNIFY FINANCIAL FEDERAL CREDIT UNION
322079719,14500 AVIATION BOULEVARD,HAWTHORNE,CALIFORNIA,UNIFY FINANCIAL FEDERAL CREDIT UNION
322280540,14500 AVIATION BLVD,HAWTHORNE,CALIFORNIA,UNIFY FINANCIAL FEDERAL CREDIT UNION
322281057,14500 AVIATION BOULEVARD,HAWTHORNE,CALIFORNIA,UNIFY FINANCIAL FEDERAL CREDIT UNION
322283178,19001 S WESTERN AVE-T206,TORRANCE,CALIFORNIA,UNIFY FINANCIAL FEDERAL CREDIT UNION
101089700,#140,SAN DIEGO,CALIFORNIA,AXOS BANK
101089742,#140,SAN DIEGO,CALIFORNIA,AXOS BANK
122287251,4350 LA JOLLA VILLAGE DR STE 140,SAN DIEGO,CALIFORNIA,AXOS BANK
122287675,#140,SAN DIEGO,CALIFORNIA,AXOS BANK
244077637,STE 140,SAN DIEGO,CALIFORNIA,AXOS BANK
264171241,SUITE 140,SAN DIEGO,CALIFORNIA,AXOS BANK
101100692,P O BOX 538,CHANUTE,KANSAS,BANK OF COMMERCE
101105558,PO BOX 538,CHANUTE,KANSAS,BANK OF COMMERCE
101108377,P O BOX 538,CHANUTE,KANSAS,BANK OF COMMERCE
102303171,221 THIRD ST,RAWLINS,WYOMING,BANK OF COMMERCE
103101372,215 WEST MAIN,CHOUTEAU,OKLAHOMA,BANK OF COMMERCE
103101482,1601 W. COMMERCE,DUNCAN,OKLAHOMA,BANK OF COMMERCE
103112507,24 WEST DIVISION,STILWELL,OKLAHOMA,BANK OF COMMERCE
103112992,1601 W. COMMERCE,DUNCAN,OKLAHOMA,BANK OF COMMERCE
111308442,800 S. MONROE,AMARILLO,TEXAS,BANK OF COMMERCE
211272465,245 COMMERCIAL STREET,ROCKPORT,MAINE,CAMDEN NATIONAL BANK
211272504,245 COMMERCIAL STREET,ROCKPORT,MAINE,CAMDEN NATIONAL BANK
211272546,245 COMMERCIAL STREET,ROCKPORT,MAINE,CAMDEN NATIONAL BANK
211273309,245 COMMERCIAL STREET,ROCKPORT,MASSACHUSETTS,CAMDEN NATIONAL BANK
211273781,245 COMMERCIAL STREET,ROCKPORT,MAINE,CAMDEN NATIONAL BANK
211274586,245 COMMERCIAL STREET,ROCKPORT,MAINE,CAMDEN NATIONAL BANK
113015584,PO BOX 75000,DETROIT,MICHIGAN,COMERICA BANK
114912288,PO BOX 75000,DETROIT,MICHIGAN,COMERICA BANK
101104504,210 MAIN ST,SENECA,KANSAS,COMMUNITY NATIONAL BANK
103103354,653 N MAIN/HWY 81 NORTH,OKARCHE,OKLAHOMA,COMMUNITY NATIONAL BANK
114909165,P O BOX 130,HONDO,TEXAS,COMMUNITY NATIONAL BANK
114914516,PO BOX 130,HONDO,TEXAS,COMMUNITY NATIONAL BANK
114926009,PO BOX 130,HONDO,TEXAS,COMMUNITY NATIONAL BANK
116312873,401 W TEXAS STE 315,MIDLAND,TEXAS,COMMUNITY NATIONAL BANK
271274115,PO BOX 800,MICHIGAN CITY,INDIANA,"HORIZON BK, AN INDIANA BANK"
271274241,PO BOX 800,MICHIGAN CITY,INDIANA,"HORIZON BK, AN INDIANA BANK"
272471658,P O BOX 800,MICHIGAN CITY,INDIANA,"HORIZON BK, AN INDIANA BANK"
274970050,P O BOX 800,MICHIGAN CITY,INDIANA,"HORIZON BK, AN INDIANA BANK"
264279334,1201 NORTH EASTMAN ROAD,KINGSPORT,TENNESSEE,HORIZON CREDIT UNION
281581047,PO BOX 554,MACON,MISSOURI,HORIZON CREDIT UNION
292977022,SUITE 300,SPOKANE VALLEY,WASHINGTON,HORIZON CREDIT UNION
292977831,13224 E MANSFIELD AV STE 300,SPOKANE VALLEY,WASHINGTON,HORIZON CREDIT UNION
324377011,PO BOX 687,FARMINGTON,UTAH,HORIZON CREDIT UNION
325180414,SUITE 300,SPOKANE VALLEY,WASHINGTON,HORIZON CREDIT UNION
325182551,PO BOX 15128,SPOKANE,WASHINGTON,HORIZON CREDIT UNION
325182564,SUITE 300,SPOKANE VALLEY,WASHINGTON,HORIZON CREDIT UNION
325182603,SUITE 300,SPOKANE VALLEY,WASHINGTON,HORIZON CREDIT UNION
325182755,PO BOX 15128,SPOKANE,WASHINGTON,HORIZON CREDIT UNION
325182797,PO BOX 15128,SPOKANE,WASHINGTON,HORIZON CREDIT UNION
107089717,1201 NETWORK CENTRE DRIVE,EFFINGHAM,ILLINOIS,MIDLAND STATES BANK
271972239,1201 NETWORK CENTRE DRIVE,EFFINGHAM,ILLINOIS,MIDLAND STATES BANK
281073445,1201 NETWORK CENTRE DRIVE,EFFINGHAM,ILLINOIS,MIDLAND STATES BANK
102100552,259 W 9TH ST,DURANGO,COLORADO,"TBK BANK, SSB"
102101577,229 MAIN STREET,SAVANNA,ILLINOIS,"TBK BANK, SSB"
102102864,229 MAIN STREET,SAVANNA,ILLINOIS,"TBK BANK, SSB"
102104723,259 WEST 9TH STREET,DURANGO,COLORADO,"TBK BANK, SSB"
102201930,229 MAIN STREET,SAVANNA,ILLINOIS,"TBK BANK, SSB"
107005445,229 MAIN STREET,SAVANNA,ILLINOIS,"TBK BANK, SSB"
107006732,229 MAIN STREET,SAVANNA,ILLINOIS,"TBK BANK, SSB"
107007443,229 MAIN STREET,SAVANNA,ILLINOIS,"TBK BANK, SSB"
111909579,229 MAIN STREET,SAVANNA,ILLINOIS,"TBK BANK, SSB"
242070885,1 BANK PLAZA,WHEELING,WEST VIRGINIA,WESBANCO BANK INC
242272816,1 BANK PLAZA,WHEELING,WEST VIRGINIA,WESBANCO BANK INC
243073632,1 BANK PLAZA,WHEELING,WEST VIRGINIA,WESBANCO BANK INC
243373222,1 BANK PLAZA,WHEELING,WEST VIRGINIA,WESBANCO BANK INC
283071827,1 BANK PLAZA,WHEELING,WEST VIRGINIA,WESBANCO BANK INC
221572702,PO BOX 362708,SAN JUAN,PUERTO RICO,BANCO POPULAR
265371053,2910 WEST JACKSON,TUPELO,MISSISSIPPI,BANCORPSOUTH
282974006,2910 WEST JACKSON,TUPELO,MISSISSIPPI,BANCORPSOUTH
113001077,11201 CLAY ROAD,HOUSTON,TEXAS,CENTRAL BANK
124300327,75 NORTH UNIVERSITY AVENUE,PROVO,UTAH,CENTRAL BANK
284373838,485 WAYNE RD,SAVANNAH,TENNESSEE,CENTRAL BANK
101089807,SUITE 200,CHICAGO,ILLINOIS,CIBC BANK USA
103104353,31 W. MAIN STREET,CARNEGIE,OKLAHOMA,FARMERS BANK
107007469,P O BOX 220,AULT,COLORADO,FARMERS BANK
124102509,PO BOX 2706,TWIN FALLS,IDAHO,FARMERS BANK
307074098,PO BOX 220,AULT,COLORADO,FARMERS BANK
111909841,SUITE 100,WICHITA FALLS,TEXAS,FIDELITY BANK
111924787,SUITE 100,WICHITA FALLS,TEXAS,FIDELITY BANK
265070532,201 ST. CHARLES AVE - 20TH FLOOR,NEW ORLEANS,LOUISIANA,FIDELITY BANK
301171353,100 E. ENGLISH,WICHITA,KANSAS,FIDELITY BANK
103002691,PO BOX 32282,OKLAHOMA CITY,OKLAHOMA,FIRST FIDELITY BANK
103013101,SUITE 500,OKLAHOMA CITY,OKLAHOMA,FIRST FIDELITY BANK
122105184,PO BOX 32282,OKLAHOMA CITY,OKLAHOMA,FIRST FIDELITY BANK
122105715,PO BOX 32282,OKLAHOMA CITY,OKLAHOMA,FIRST FIDELITY BANK
122105728,PO BOX 32282,OKLAHOMA CITY,OKLAHOMA,FIRST FIDELITY BANK
122105809,PO BOX 32282,OKLAHOMA CITY,OKLAHOMA,FIRST FIDELITY BANK
262285223,1400 GAULT AVENUE NORTH,FORT PAYNE,ALABAMA,FIRST FIDELITY BANK
111301122,SUITE 410,ABILENE,TEXAS,"FIRST FINANCIAL BANK, N.A."
111322570,P O BOX 660,SWEETWATER,TEXAS,"FIRST FINANCIAL BANK, N.A."
111908567,PO BOX 537,CLEBURNE,TEXAS,"FIRST FINANCIAL BANK, N.A."
111914849,151 W SOUTHLAKE BLVD,SOUTHLAKE,TEXAS,"FIRST FINANCIAL BANK, N.A."
111921751,P O BOX 788,EASTLAND,TEXAS,"FIRST FINANCIAL BANK, N.A."
113024562,SUITE 410,ABILENE,TEXAS,"FIRST FINANCIAL BANK, N.A."
113104806,STE 410,ABILENE,TEXAS,"FIRST FINANCIAL BANK, N.A."
113114647,SUITE 410,ABILENE,TEXAS,"FIRST FINANCIAL BANK, N.A."
113121902,STE 410,ABILENE,TEXAS,"FIRST FINANCIAL BANK, N.A."
313172670,SUITE 410,ABILENE,TEXAS,"FIRST FINANCIAL BANK, N.A."
122402052,PO BOX 431,BERESFORD,SOUTH DAKOTA,FIRST SAVINGS BANK
122402078,PO BOX 431,BERESFORD,SOUTH DAKOTA,FIRST SAVINGS BANK
122402081,PO BOX 431,BERESFORD,SOUTH DAKOTA,FIRST SAVINGS BANK
122402175,PO BOX 431,BERESFORD,SOUTH DAKOTA,FIRST SAVINGS BANK
271171674,6 W WILLIAMS ST,DANVILLE,ILLINOIS,FIRST SAVINGS BANK
283071788,900 HWY 62 NW,CORYDON,INDIANA,FIRST SAVINGS BANK
275971087,ATTN: DENISE ATKINS,EVANSVILE,INDIANA,OLD NATIONAL BANK
291971469,PO BOX 3606,EVANSVILLE,INDIANA,OLD NATIONAL BANK
111908127,100 CREEK RD,DRIPPING SPRINGS,TEXAS,"PIONEER BANK, SSB"
111924305,100 CREEK RD,DRIPPING SPRINGS,TEXAS,"PIONEER BANK, SSB"
113023990,100 CREEK RD,DRIPPING SPRINGS,TEXAS,"PIONEER BANK, SSB"
113102442,100 CREEK RD,DRIPPING SPRINGS,TEXAS,"PIONEER BANK, SSB"
113116218,100 CREEK RD,DRIPPING SPRINGS,TEXAS,"PIONEER BANK, SSB"
113116292,100 CREEK ROAD,DRIPPING SPRINGS,TEXAS,"PIONEER BANK, SSB"
113125380,100 CREEK RD,DRIPPING SPRINGS,TEXAS,"PIONEER BANK, SSB"
114024969,100 CREEK RD,DRIPPING SPRINGS,TEXAS,"PIONEER BANK, SSB"
114922443,100 CREEK ROAD,DRIPPING SPRINGS,TEXAS,"PIONEER BANK, SSB"
114994109,100 CREEK ROAD,DRIPPING SPRINGS,TEXAS,"PIONEER BANK, SSB"
